{
  "features": [
    {
      "geometry": {
        "coordinates": [
          -38.533085,
          -13.0041585
        ],
        "type": "Point"
      },
      "id": 2467673285,
      "properties": {
        "amenity": "bicycle_rental",
        "capacity": "12",
        "name": "Porto da Barra",
        "network": "Bike Salvador",
        "opening_hours": "Su-Sa 06:00-22:00",
        "operator": "Bike Salvador",
        "phone": "+55 71 40627024",
        "ref": "04",
        "website": "http://www.bikesalvador.com/"
      },
      "type": "Feature"
    },
    {
      "geometry": {
        "coordinates": [
          -38.520152,
          -12.9895498
        ],
        "type": "Point"
      },
      "id": 2467692504,
      "properties": {
        "amenity": "bicycle_rental",
        "capacity": "12",
        "name": "Campo Grande",
        "network": "Bike Salvador",
        "opening_hours": "Su-Sa 06:00-22:00",
        "operator": "Bike Salvador",
        "phone": "+55 71 40627024",
        "ref": "01",
        "website": "http://www.bikesalvador.com/"
      },
      "type": "Feature"
    },
    {
      "geometry": {
        "coordinates": [
          -38.516232,
          -13.0076341
        ],
        "type": "Point"
      },
      "id": 2467692505,
      "properties": {
        "amenity": "bicycle_rental",
        "capacity": "12",
        "name": "Jardim Apipema",
        "network": "Bike Salvador",
        "opening_hours": "Su-Sa 06:00-22:00",
        "operator": "Bike Salvador",
        "phone": "+55 71 40627024",
        "ref": "05",
        "website": "http://www.bikesalvador.com/"
      },
      "type": "Feature"
    },
    {
      "geometry": {
        "coordinates": [
          -38.5145046,
          -12.9772521
        ],
        "type": "Point"
      },
      "id": 2467692506,
      "properties": {
        "amenity": "bicycle_rental",
        "capacity": "12",
        "name": "Pra\u00e7a Castro Alves",
        "network": "Bike Salvador",
        "opening_hours": "Su-Sa 06:00-22:00",
        "operator": "Bike Salvador",
        "phone": "+55 71 40627024",
        "ref": "03",
        "website": "http://www.bikesalvador.com/"
      },
      "type": "Feature"
    },
    {
      "geometry": {
        "coordinates": [
          -38.515029,
          -12.9828574
        ],
        "type": "Point"
      },
      "id": 2467692507,
      "properties": {
        "amenity": "bicycle_rental",
        "capacity": "12",
        "name": "Pra\u00e7a da Piedade",
        "network": "Bike Salvador",
        "opening_hours": "Su-Sa 06:00-22:00",
        "operator": "Bike Salvador",
        "phone": "+55 71 40627024",
        "ref": "02",
        "website": "http://www.bikesalvador.com/"
      },
      "type": "Feature"
    },
    {
      "geometry": {
        "coordinates": [
          -38.4679236,
          -13.0121596
        ],
        "type": "Point"
      },
      "id": 2518515269,
      "properties": {
        "amenity": "bicycle_rental",
        "capacity": "12",
        "name": "Amaralina",
        "network": "Bike Salvador",
        "opening_hours": "Su-Sa 06:00-22:00",
        "operator": "Bike Salvador",
        "phone": "+55 71 40627024",
        "ref": "12",
        "website": "http://www.bikesalvador.com/"
      },
      "type": "Feature"
    },
    {
      "geometry": {
        "coordinates": [
          -38.5232444,
          -13.006116
        ],
        "type": "Point"
      },
      "id": 2518515270,
      "properties": {
        "amenity": "bicycle_rental",
        "capacity": "12",
        "name": "Centen\u00e1rio",
        "network": "Bike Salvador",
        "opening_hours": "Su-Sa 06:00-22:00",
        "operator": "Bike Salvador",
        "phone": "+55 71 40627024",
        "ref": "06",
        "website": "http://www.bikesalvador.com/"
      },
      "type": "Feature"
    },
    {
      "geometry": {
        "coordinates": [
          -38.4552682,
          -13.0026948
        ],
        "type": "Point"
      },
      "id": 2518515271,
      "properties": {
        "amenity": "bicycle_rental",
        "capacity": "12",
        "name": "Correios",
        "network": "Bike Salvador",
        "opening_hours": "Su-Sa 06:00-22:00",
        "operator": "Bike Salvador",
        "phone": "+55 71 40627024",
        "ref": "14",
        "website": "http://www.bikesalvador.com/"
      },
      "type": "Feature"
    },
    {
      "geometry": {
        "coordinates": [
          -38.4408249,
          -12.994723
        ],
        "type": "Point"
      },
      "id": 2518515272,
      "properties": {
        "amenity": "bicycle_rental",
        "capacity": "12",
        "name": "Jardim de Alah",
        "network": "Bike Salvador",
        "opening_hours": "Su-Sa 06:00-22:00",
        "operator": "Bike Salvador",
        "phone": "+55 71 40627024",
        "ref": "17",
        "website": "http://www.bikesalvador.com/"
      },
      "type": "Feature"
    },
    {
      "geometry": {
        "coordinates": [
          -38.4886259,
          -13.0136866
        ],
        "type": "Point"
      },
      "id": 2518515273,
      "properties": {
        "amenity": "bicycle_rental",
        "capacity": "12",
        "name": "Largo da Mariquita",
        "network": "Bike Salvador",
        "opening_hours": "Su-Sa 06:00-22:00",
        "operator": "Bike Salvador",
        "phone": "+55 71 40627024",
        "ref": "11",
        "website": "http://www.bikesalvador.com/"
      },
      "type": "Feature"
    },
    {
      "geometry": {
        "coordinates": [
          -38.527791,
          -12.9964744
        ],
        "type": "Point"
      },
      "id": 2518515274,
      "properties": {
        "amenity": "bicycle_rental",
        "capacity": "12",
        "name": "Largo da Vit\u00f3ria",
        "network": "Bike Salvador",
        "opening_hours": "Su-Sa 06:00-22:00",
        "operator": "Bike Salvador",
        "phone": "+55 71 40627024",
        "ref": "07",
        "website": "http://www.bikesalvador.com/"
      },
      "type": "Feature"
    },
    {
      "geometry": {
        "coordinates": [
          -38.4561744,
          -13.0058469
        ],
        "type": "Point"
      },
      "id": 2518515275,
      "properties": {
        "amenity": "bicycle_rental",
        "capacity": "12",
        "name": "Nossa Senhora da Luz",
        "network": "Bike Salvador",
        "opening_hours": "Su-Sa 06:00-22:00",
        "operator": "Bike Salvador",
        "phone": "+55 71 40627024",
        "ref": "15",
        "website": "http://www.bikesalvador.com/"
      },
      "type": "Feature"
    },
    {
      "geometry": {
        "coordinates": [
          -38.5075513,
          -13.0112321
        ],
        "type": "Point"
      },
      "id": 2518515276,
      "properties": {
        "amenity": "bicycle_rental",
        "capacity": "12",
        "name": "Ondina",
        "network": "Bike Salvador",
        "opening_hours": "Su-Sa 06:00-22:00",
        "operator": "Bike Salvador",
        "phone": "+55 71 40627024",
        "ref": "08",
        "website": "http://www.bikesalvador.com/"
      },
      "type": "Feature"
    },
    {
      "geometry": {
        "coordinates": [
          -38.4495752,
          -12.9967967
        ],
        "type": "Point"
      },
      "id": 2518515277,
      "properties": {
        "amenity": "bicycle_rental",
        "capacity": "12",
        "name": "Parque Costa Azul",
        "network": "Bike Salvador",
        "opening_hours": "Su-Sa 06:00-22:00",
        "operator": "Bike Salvador",
        "phone": "+55 71 40627024",
        "ref": "16",
        "website": "http://www.bikesalvador.com/"
      },
      "type": "Feature"
    },
    {
      "geometry": {
        "coordinates": [
          -38.4899605,
          -13.0103229
        ],
        "type": "Point"
      },
      "id": 2518515278,
      "properties": {
        "amenity": "bicycle_rental",
        "capacity": "12",
        "name": "Bike Salvador, Esta\u00e7\u00e3o 10",
        "network": "Bike Salvador",
        "opening_hours": "Su-Sa 06:00-22:00",
        "operator": "Bike Salvador",
        "phone": "+55 71 40627024",
        "ref": "10",
        "website": "http://www.bikesalvador.com/"
      },
      "type": "Feature"
    },
    {
      "geometry": {
        "coordinates": [
          -38.401463,
          -12.9575391
        ],
        "type": "Point"
      },
      "id": 2518515279,
      "properties": {
        "amenity": "bicycle_rental",
        "capacity": "12",
        "name": "Pinto de Aguiar",
        "network": "Bike Salvador",
        "opening_hours": "Su-Sa 06:00-22:00",
        "operator": "Bike Salvador",
        "phone": "+55 71 40627024",
        "ref": "20",
        "website": "http://www.bikesalvador.com/"
      },
      "type": "Feature"
    },
    {
      "geometry": {
        "coordinates": [
          -38.4054352,
          -12.9671741
        ],
        "type": "Point"
      },
      "id": 2518515280,
      "properties": {
        "amenity": "bicycle_rental",
        "capacity": "12",
        "name": "Praia de Patamares",
        "network": "Bike Salvador",
        "opening_hours": "Su-Sa 06:00-22:00",
        "operator": "Bike Salvador",
        "phone": "+55 71 40627024",
        "ref": "19",
        "website": "http://www.bikesalvador.com/"
      },
      "type": "Feature"
    },
    {
      "geometry": {
        "coordinates": [
          -38.4302174,
          -12.9689931
        ],
        "type": "Point"
      },
      "id": 2518515281,
      "properties": {
        "amenity": "bicycle_rental",
        "capacity": "12",
        "name": "Pra\u00e7a do Imbu\u00ed",
        "network": "Bike Salvador",
        "opening_hours": "Su-Sa 06:00-22:00",
        "operator": "Bike Salvador",
        "phone": "+55 71 40627024",
        "ref": "09",
        "website": "http://www.bikesalvador.com/"
      },
      "type": "Feature"
    },
    {
      "geometry": {
        "coordinates": [
          -38.4626617,
          -13.0031104
        ],
        "type": "Point"
      },
      "id": 2518515282,
      "properties": {
        "amenity": "bicycle_rental",
        "capacity": "12",
        "name": "Rua Cear\u00e1",
        "network": "Bike Salvador",
        "opening_hours": "Su-Sa 06:00-22:00",
        "operator": "Bike Salvador",
        "phone": "+55 71 40627024",
        "ref": "13",
        "website": "http://www.bikesalvador.com/"
      },
      "type": "Feature"
    },
    {
      "geometry": {
        "coordinates": [
          -38.5079129,
          -12.9252538
        ],
        "type": "Point"
      },
      "id": 2628975064,
      "properties": {
        "amenity": "bicycle_rental",
        "capacity": "12",
        "name": "Baixa do Bomfim",
        "network": "Bike Salvador",
        "opening_hours": "Su-Sa 06:00-22:00",
        "operator": "Bike Salvador",
        "phone": "+55 71 40627024",
        "ref": "29",
        "website": "http://www.bikesalvador.com/"
      },
      "type": "Feature"
    },
    {
      "geometry": {
        "coordinates": [
          -38.5137539,
          -12.9316041
        ],
        "type": "Point"
      },
      "id": 2628975069,
      "properties": {
        "amenity": "bicycle_rental",
        "capacity": "12",
        "name": "Boa Viagem",
        "network": "Bike Salvador",
        "opening_hours": "Su-Sa 06:00-22:00",
        "operator": "Bike Salvador",
        "phone": "+55 71 40627024",
        "ref": "30",
        "website": "http://www.bikesalvador.com/"
      },
      "type": "Feature"
    },
    {
      "geometry": {
        "coordinates": [
          -38.3965131,
          -12.9609544
        ],
        "type": "Point"
      },
      "id": 2628975075,
      "properties": {
        "amenity": "bicycle_rental",
        "capacity": "12",
        "name": "Jaguaribe",
        "network": "Bike Salvador",
        "opening_hours": "Su-Sa 06:00-22:00",
        "operator": "Bike Salvador",
        "phone": "+55 71 40627024",
        "ref": "23",
        "website": "http://www.bikesalvador.com/"
      },
      "type": "Feature"
    },
    {
      "geometry": {
        "coordinates": [
          -38.5060085,
          -12.9369059
        ],
        "type": "Point"
      },
      "id": 2628975081,
      "properties": {
        "amenity": "bicycle_rental",
        "capacity": "12",
        "name": "Largo de Roma",
        "network": "Bike Salvador",
        "opening_hours": "Su-Sa 06:00-22:00",
        "operator": "Bike Salvador",
        "phone": "+55 71 40627024",
        "ref": "31",
        "website": "http://www.bikesalvador.com/"
      },
      "type": "Feature"
    },
    {
      "geometry": {
        "coordinates": [
          -38.3764511,
          -12.9525364
        ],
        "type": "Point"
      },
      "id": 2628975088,
      "properties": {
        "amenity": "bicycle_rental",
        "capacity": "12",
        "name": "Placafor",
        "network": "Bike Salvador",
        "opening_hours": "Su-Sa 06:00-22:00",
        "operator": "Bike Salvador",
        "phone": "+55 71 40627024",
        "ref": "24",
        "website": "http://www.bikesalvador.com/"
      },
      "type": "Feature"
    },
    {
      "geometry": {
        "coordinates": [
          -38.5080529,
          -12.9789317
        ],
        "type": "Point"
      },
      "id": 2628975095,
      "properties": {
        "amenity": "bicycle_rental",
        "capacity": "12",
        "name": "Pra\u00e7a do F\u00f3rum Ruy Barbosa",
        "network": "Bike Salvador",
        "opening_hours": "Su-Sa 06:00-22:00",
        "operator": "Bike Salvador",
        "phone": "+55 71 40627024",
        "ref": "27",
        "website": "http://www.bikesalvador.com/"
      },
      "type": "Feature"
    },
    {
      "geometry": {
        "coordinates": [
          -38.4388574,
          -12.9711029
        ],
        "type": "Point"
      },
      "id": 2628975108,
      "properties": {
        "amenity": "bicycle_rental",
        "capacity": "12",
        "name": "Rua dos Colibris",
        "network": "Bike Salvador",
        "opening_hours": "Su-Sa 06:00-22:00",
        "operator": "Bike Salvador",
        "phone": "+55 71 40627024",
        "ref": "22",
        "website": "http://www.bikesalvador.com/"
      },
      "type": "Feature"
    },
    {
      "geometry": {
        "coordinates": [
          -38.4879447,
          -12.9904798
        ],
        "type": "Point"
      },
      "id": 2628975114,
      "properties": {
        "amenity": "bicycle_rental",
        "capacity": "12",
        "name": "Universidade Bahiana",
        "network": "Bike Salvador",
        "opening_hours": "Su-Sa 06:00-22:00",
        "operator": "Bike Salvador",
        "phone": "+55 71 40627024",
        "ref": "25",
        "website": "http://www.bikesalvador.com/"
      },
      "type": "Feature"
    },
    {
      "geometry": {
        "coordinates": [
          -38.5187798,
          -12.9804217
        ],
        "type": "Point"
      },
      "id": 2687094131,
      "properties": {
        "amenity": "bicycle_rental",
        "capacity": "12",
        "name": "Bahia Marina",
        "network": "Bike Salvador",
        "opening_hours": "Su-Sa 06:00-22:00",
        "operator": "Bike Salvador",
        "phone": "+55 71 40627024",
        "ref": "36",
        "website": "http://www.bikesalvador.com/"
      },
      "type": "Feature"
    },
    {
      "geometry": {
        "coordinates": [
          -38.5007751,
          -12.9467375
        ],
        "type": "Point"
      },
      "id": 2687094134,
      "properties": {
        "amenity": "bicycle_rental",
        "capacity": "14",
        "name": "Esta\u00e7ao do Trem",
        "network": "Bike Salvador",
        "opening_hours": "Su-Sa 06:00-22:00",
        "operator": "Bike Salvador",
        "phone": "+55 71 40627024",
        "ref": "32",
        "website": "http://www.bikesalvador.com/"
      },
      "type": "Feature"
    },
    {
      "geometry": {
        "coordinates": [
          -38.4779066,
          -12.9820578
        ],
        "type": "Point"
      },
      "id": 2687094135,
      "properties": {
        "amenity": "bicycle_rental",
        "capacity": "12",
        "name": "Final de Linha de Brotas",
        "network": "Bike Salvador",
        "opening_hours": "Su-Sa 06:00-22:00",
        "operator": "Bike Salvador",
        "phone": "+55 71 40627024",
        "ref": "28",
        "website": "http://www.bikesalvador.com/"
      },
      "type": "Feature"
    },
    {
      "geometry": {
        "coordinates": [
          -38.5065041,
          -12.921955
        ],
        "type": "Point"
      },
      "id": 2687094137,
      "properties": {
        "amenity": "bicycle_rental",
        "capacity": "12",
        "name": "Pra\u00e7a do Divina",
        "network": "Bike Salvador",
        "opening_hours": "Su-Sa 06:00-22:00",
        "operator": "Bike Salvador",
        "phone": "+55 71 40627024",
        "ref": "35",
        "website": "http://www.bikesalvador.com/"
      },
      "type": "Feature"
    },
    {
      "geometry": {
        "coordinates": [
          -38.5010184,
          -12.9833742
        ],
        "type": "Point"
      },
      "id": 2687094138,
      "properties": {
        "amenity": "bicycle_rental",
        "capacity": "12",
        "name": "Solar da Boa Vista",
        "network": "Bike Salvador",
        "opening_hours": "Su-Sa 06:00-22:00",
        "operator": "Bike Salvador",
        "phone": "+55 71 40627024",
        "ref": "26",
        "website": "http://www.bikesalvador.com/"
      },
      "type": "Feature"
    },
    {
      "geometry": {
        "coordinates": [
          -38.5079171,
          -13.01096
        ],
        "type": "Point"
      },
      "id": 2878161233,
      "properties": {
        "amenity": "bicycle_rental",
        "capacity": "12",
        "name": "Bike Salvador",
        "operator": "Bike Salvador",
        "phone": "+55 71 4003-9892"
      },
      "type": "Feature"
    },
    {
      "geometry": {
        "coordinates": [
          -38.4946287,
          -12.9120411
        ],
        "type": "Point"
      },
      "id": 2878179410,
      "properties": {
        "amenity": "bicycle_rental",
        "capacity": "12",
        "name": "Largo da Ribeira",
        "network": "Bike Salvador",
        "opening_hours": "Mo-Su 06:00-22:00",
        "operator": "Bike Salvador",
        "phone": "+55 71 40039892",
        "ref": "39",
        "website": "http://www.bikesalvador.com/"
      },
      "type": "Feature"
    },
    {
      "geometry": {
        "coordinates": [
          -38.4935298,
          -12.9151479
        ],
        "type": "Point"
      },
      "id": 3066932832,
      "properties": {
        "amenity": "bicycle_rental",
        "capacity": "12",
        "name": "Esta\u00e7\u00e3o do Tainheiro",
        "network": "Bike Salvador",
        "opening_hours": "Mo-Su 06:00-22:00",
        "operator": "Bike Salvador",
        "phone": "+55 71 40039892",
        "ref": "38",
        "website": "http://www.bikesalvador.com/"
      },
      "type": "Feature"
    },
    {
      "geometry": {
        "coordinates": [
          -38.5020807,
          -12.9549039
        ],
        "type": "Point"
      },
      "id": 3066936633,
      "properties": {
        "amenity": "bicycle_rental",
        "capacity": "12",
        "name": "Ferry Boat",
        "network": "Bike Salvador",
        "operator": "Bike Salvador",
        "ref": "33"
      },
      "type": "Feature"
    },
    {
      "geometry": {
        "coordinates": [
          -38.4860679,
          -12.822847
        ],
        "type": "Point"
      },
      "id": 3268834037,
      "properties": {
        "amenity": "bicycle_rental",
        "capacity": "12",
        "name": "S\u00e3o Tom\u00e9 de Paripe",
        "network": "Bike Salvador",
        "opening_hours": "Mo-Su 06:00-22:00",
        "operator": "Bike Salvador",
        "phone": "+55 71 40039892",
        "ref": "25",
        "website": "http://www.bikesalvador.com/"
      },
      "type": "Feature"
    },
    {
      "geometry": {
        "coordinates": [
          -38.4757823,
          -12.8369094
        ],
        "type": "Point"
      },
      "id": 3268834038,
      "properties": {
        "amenity": "bicycle_rental",
        "capacity": "12",
        "name": "Tubar\u00e3o",
        "network": "Bike Salvador",
        "opening_hours": "Mo-Su 06:00-22:00",
        "operator": "Bike Salvador",
        "phone": "+55 71 40039892",
        "ref": "36",
        "website": "http://www.bikesalvador.com/"
      },
      "type": "Feature"
    }
  ],
  "type": "FeatureCollection"
}