{
  "features": [
    {
      "geometry": {
        "coordinates": [
          -37.0517901,
          -10.9172937
        ],
        "type": "Point"
      },
      "id": 2895729630,
      "properties": {
        "addr:city": "Aracaju",
        "addr:street": "Rua Boquim",
        "alt_name": "Conservat\u00f3rio de M\u00fasica",
        "amenity": "bicycle_rental",
        "capacity": "12",
        "name": "Caju Bike",
        "network": "Caju Bike",
        "opening_hours": "Su-Sa 06:00-22:00",
        "operator": "Caju Bike",
        "phone": "+55 4003 9891",
        "ref": "08",
        "website": "http://www.cajubike.com"
      },
      "type": "Feature"
    },
    {
      "geometry": {
        "coordinates": [
          -37.0485126,
          -10.9182272
        ],
        "type": "Point"
      },
      "id": 2895729631,
      "properties": {
        "addr:city": "Aracaju",
        "addr:street": "Pra\u00e7a Almirante Tamandar\u00e9",
        "amenity": "bicycle_rental",
        "capacity": "12",
        "name": "Caju Bike",
        "network": "Caju Bike",
        "opening_hours": "Su-Sa 06:00-22:00",
        "operator": "Caju Bike",
        "phone": "+55 4003 9891",
        "ref": "07",
        "website": "http://www.cajubike.com"
      },
      "type": "Feature"
    },
    {
      "geometry": {
        "coordinates": [
          -37.0470587,
          -10.9202019
        ],
        "type": "Point"
      },
      "id": 2895729632,
      "properties": {
        "addr:city": "Aracaju",
        "addr:street": "Pra\u00e7a Almirante Tamandar\u00e9",
        "amenity": "bicycle_rental",
        "capacity": "12",
        "name": "Caju Bike",
        "network": "Caju Bike",
        "opening_hours": "Su-Sa 06:00-22:00",
        "operator": "Caju Bike",
        "phone": "+55 4003 9891",
        "ref": "09",
        "website": "http://www.cajubike.com"
      },
      "type": "Feature"
    },
    {
      "geometry": {
        "coordinates": [
          -37.0519076,
          -10.9206738
        ],
        "type": "Point"
      },
      "id": 2895729633,
      "properties": {
        "addr:city": "Aracaju",
        "addr:street": "Rua Riachuelo",
        "amenity": "bicycle_rental",
        "capacity": "12",
        "name": "Caju Bike",
        "network": "Caju Bike",
        "opening_hours": "Su-Sa 06:00-22:00",
        "operator": "Caju Bike",
        "phone": "+55 4003 9891",
        "ref": "10",
        "website": "http://www.cajubike.com"
      },
      "type": "Feature"
    },
    {
      "geometry": {
        "coordinates": [
          -37.0517208,
          -10.922864
        ],
        "type": "Point"
      },
      "id": 2895729634,
      "properties": {
        "addr:city": "Aracaju",
        "addr:street": "Rua Santa Luzia",
        "amenity": "bicycle_rental",
        "capacity": "12",
        "name": "Caju Bike",
        "network": "Caju Bike",
        "opening_hours": "Su-Sa 06:00-22:00",
        "operator": "Caju Bike",
        "phone": "+55 4003 9891",
        "ref": "06",
        "website": "http://www.cajubike.com"
      },
      "type": "Feature"
    },
    {
      "geometry": {
        "coordinates": [
          -37.0413085,
          -10.9657348
        ],
        "type": "Point"
      },
      "id": 2895729635,
      "properties": {
        "addr:city": "Aracaju",
        "addr:street": "Rua Pedro Mandarino",
        "amenity": "bicycle_rental",
        "capacity": "12",
        "name": "Caju Bike",
        "network": "Caju Bike",
        "opening_hours": "Su-Sa 06:00-22:00",
        "operator": "Caju Bike",
        "phone": "+55 4003 9891",
        "ref": "05",
        "website": "http://www.cajubike.com"
      },
      "type": "Feature"
    },
    {
      "geometry": {
        "coordinates": [
          -37.0383367,
          -10.9745219
        ],
        "type": "Point"
      },
      "id": 2895729636,
      "properties": {
        "addr:city": "Aracaju",
        "addr:street": "Avenida Santos Dumont",
        "amenity": "bicycle_rental",
        "capacity": "12",
        "name": "Caju Bike",
        "network": "Caju Bike",
        "opening_hours": "Su-Sa 06:00-22:00",
        "operator": "Caju Bike",
        "phone": "+55 4003 9891",
        "ref": "04",
        "website": "http://www.cajubike.com"
      },
      "type": "Feature"
    },
    {
      "geometry": {
        "coordinates": [
          -37.041221,
          -10.9783536
        ],
        "type": "Point"
      },
      "id": 2895729637,
      "properties": {
        "addr:city": "Aracaju",
        "addr:street": "Avenida Santos Dumont",
        "amenity": "bicycle_rental",
        "capacity": "12",
        "name": "Caju Bike",
        "network": "Caju Bike",
        "opening_hours": "Su-Sa 06:00-22:00",
        "operator": "Caju Bike",
        "phone": "+55 4003 9891",
        "ref": "03",
        "website": "http://www.cajubike.com"
      },
      "type": "Feature"
    },
    {
      "geometry": {
        "coordinates": [
          -37.0472277,
          -10.98697
        ],
        "type": "Point"
      },
      "id": 2895729638,
      "properties": {
        "addr:city": "Aracaju",
        "addr:street": "Avenida Santos Dumont",
        "amenity": "bicycle_rental",
        "capacity": "12",
        "name": "Caju Bike",
        "network": "Caju Bike",
        "opening_hours": "Su-Sa 06:00-22:00",
        "operator": "Caju Bike",
        "phone": "+55 4003 9891",
        "ref": "02",
        "website": "http://www.cajubike.com"
      },
      "type": "Feature"
    },
    {
      "geometry": {
        "coordinates": [
          -37.0518916,
          -10.9872576
        ],
        "type": "Point"
      },
      "id": 2895729639,
      "properties": {
        "addr:street": "Avenida Rotary",
        "amenity": "bicycle_rental",
        "capacity": "12",
        "name": "Caju Bike",
        "network": "Caju Bike",
        "opening_hours": "Su-Sa 06:00-22:00",
        "operator": "Caju Bike",
        "phone": "+55 4003 9891",
        "ref": "01",
        "website": "http://www.cajubike.com"
      },
      "type": "Feature"
    },
    {
      "geometry": {
        "coordinates": [
          -37.0483371,
          -10.9074674
        ],
        "type": "Point"
      },
      "id": 2953638687,
      "properties": {
        "addr:street": "Pra\u00e7a do Mercado",
        "amenity": "bicycle_rental",
        "capacity": "12",
        "name": "Caju Bike",
        "network": "Caju Bike",
        "opening_hours": "Su-Sa 06:00-22:00",
        "operator": "Caju Bike",
        "phone": "+55 4003 9891",
        "ref": "13",
        "website": "http://www.cajubike.com"
      },
      "type": "Feature"
    },
    {
      "geometry": {
        "coordinates": [
          -37.0521058,
          -10.9441497
        ],
        "type": "Point"
      },
      "id": 3023126224,
      "properties": {
        "addr:city": "Aracaju",
        "addr:street": "Avenida Santos Dumont",
        "amenity": "bicycle_rental",
        "capacity": "12",
        "name": "Caju Bike",
        "network": "Caju Bike",
        "opening_hours": "Su-Sa 06:00-22:00",
        "operator": "Caju Bike",
        "phone": "+55 4003 9891",
        "website": "http://www.cajubike.com"
      },
      "type": "Feature"
    },
    {
      "geometry": {
        "coordinates": [
          -37.0504456,
          -10.9407459
        ],
        "type": "Point"
      },
      "id": 3098614156,
      "properties": {
        "addr:city": "Aracaju",
        "addr:street": "Avenida Santos Dumont",
        "amenity": "bicycle_rental",
        "capacity": "12",
        "name": "Caju Bike Beira Mar",
        "network": "Caju Bike",
        "opening_hours": "Su-Sa 06:00-22:00",
        "operator": "Caju Bike",
        "phone": "+55 4003 9891",
        "website": "http://www.cajubike.com"
      },
      "type": "Feature"
    },
    {
      "geometry": {
        "coordinates": [
          -37.0474135,
          -10.9315842
        ],
        "type": "Point"
      },
      "id": 3098614157,
      "properties": {
        "addr:city": "Aracaju",
        "addr:street": "Avenida Beira Mar",
        "amenity": "bicycle_rental",
        "capacity": "12",
        "name": "Caju Bike Mirante",
        "network": "Caju Bike",
        "opening_hours": "Su-Sa 06:00-22:00",
        "operator": "Caju Bike",
        "phone": "+55 4003 9891",
        "ref": "16",
        "website": "http://www.cajubike.com"
      },
      "type": "Feature"
    }
  ],
  "type": "FeatureCollection"
}