{
  "features": [
    {
      "geometry": {
        "coordinates": [
          -43.1804481,
          -22.9648042
        ],
        "type": "Point"
      },
      "id": 332238489,
      "properties": {
        "amenity": "bicycle_rental",
        "capacity": "14",
        "name": "Cardeal Arcoverde",
        "operator": "BikeRio",
        "ref": "02",
        "source": "survey"
      },
      "type": "Feature"
    },
    {
      "geometry": {
        "coordinates": [
          -43.1653841,
          -22.962024
        ],
        "type": "Point"
      },
      "id": 365737776,
      "properties": {
        "amenity": "bicycle_rental",
        "capacity": "12",
        "name": "Pedra do Leme",
        "network": "BikeRio",
        "operator": "Serttel",
        "ref": "97"
      },
      "type": "Feature"
    },
    {
      "geometry": {
        "coordinates": [
          -43.1731798,
          -22.9647356
        ],
        "type": "Point"
      },
      "id": 378687378,
      "properties": {
        "amenity": "bicycle_rental",
        "capacity": "14",
        "name": "Princesa Isabel",
        "operator": "BikeRio",
        "ref": "05",
        "source": "survey"
      },
      "type": "Feature"
    },
    {
      "geometry": {
        "coordinates": [
          -43.1876157,
          -22.9676612
        ],
        "type": "Point"
      },
      "id": 378688422,
      "properties": {
        "amenity": "bicycle_rental",
        "capacity": "12",
        "name": "Siqueira Campos",
        "operator": "BikeRio",
        "ref": "07",
        "source": "survey"
      },
      "type": "Feature"
    },
    {
      "geometry": {
        "coordinates": [
          -43.1859335,
          -22.9732839
        ],
        "type": "Point"
      },
      "id": 378689007,
      "properties": {
        "amenity": "bicycle_rental",
        "capacity": "14",
        "name": "Santa Clara",
        "operator": "BikeRio",
        "ref": "06",
        "source": "survey"
      },
      "type": "Feature"
    },
    {
      "geometry": {
        "coordinates": [
          -43.1890126,
          -22.9785819
        ],
        "type": "Point"
      },
      "id": 378689662,
      "properties": {
        "amenity": "bicycle_rental",
        "capacity": "14",
        "name": "Miguel Lemos",
        "operator": "BikeRio",
        "ref": "03",
        "source": "survey"
      },
      "type": "Feature"
    },
    {
      "geometry": {
        "coordinates": [
          -43.1885899,
          -22.9859745
        ],
        "type": "Point"
      },
      "id": 378690135,
      "properties": {
        "amenity": "bicycle_rental",
        "capacity": "12",
        "name": "Posto 6",
        "operator": "BikeRio",
        "ref": "04",
        "source": "survey"
      },
      "type": "Feature"
    },
    {
      "geometry": {
        "coordinates": [
          -43.1905681,
          -22.9867153
        ],
        "type": "Point"
      },
      "id": 412310720,
      "properties": {
        "amenity": "bicycle_rental",
        "name": "Cicle Calle",
        "shop": "bicycle"
      },
      "type": "Feature"
    },
    {
      "geometry": {
        "coordinates": [
          -43.2232659,
          -22.9845932
        ],
        "type": "Point"
      },
      "id": 1493825875,
      "properties": {
        "amenity": "bicycle_rental"
      },
      "type": "Feature"
    },
    {
      "geometry": {
        "coordinates": [
          -43.2114767,
          -22.9861699
        ],
        "type": "Point"
      },
      "id": 1494285481,
      "properties": {
        "amenity": "bicycle_rental",
        "capacity": "12",
        "name": "An\u00edbal de Mendon\u00e7a",
        "operator": "BikeRio",
        "ref": "08",
        "source": "survey"
      },
      "type": "Feature"
    },
    {
      "geometry": {
        "coordinates": [
          -43.1922718,
          -22.9885905
        ],
        "type": "Point"
      },
      "id": 1495570404,
      "properties": {
        "amenity": "bicycle_rental",
        "capacity": "12",
        "name": "Pedra do Arpoador",
        "operator": "BikeRio",
        "ref": "25",
        "source": "survey"
      },
      "type": "Feature"
    },
    {
      "geometry": {
        "coordinates": [
          -43.1971024,
          -22.9848442
        ],
        "type": "Point"
      },
      "id": 1513980194,
      "properties": {
        "amenity": "bicycle_rental",
        "capacity": "12",
        "name": "General Os\u00f3rio",
        "operator": "BikeRio",
        "ref": "09",
        "source": "survey"
      },
      "type": "Feature"
    },
    {
      "geometry": {
        "coordinates": [
          -43.2007732,
          -22.9864795
        ],
        "type": "Point"
      },
      "id": 1513980195,
      "properties": {
        "amenity": "bicycle_rental",
        "capacity": "12",
        "name": "Posto 9",
        "operator": "BikeRio",
        "ref": "26",
        "source": "survey"
      },
      "type": "Feature"
    },
    {
      "geometry": {
        "coordinates": [
          -43.1741588,
          -22.9291889
        ],
        "type": "Point"
      },
      "id": 1565182295,
      "properties": {
        "addr:housenumber": "128",
        "addr:street": "Praia do Flamengo",
        "amenity": "bicycle_rental",
        "name": "Ferreira Viana",
        "operator": "BikeRio",
        "ref": "45"
      },
      "type": "Feature"
    },
    {
      "geometry": {
        "coordinates": [
          -43.1778508,
          -22.9306081
        ],
        "type": "Point"
      },
      "id": 1565182303,
      "properties": {
        "amenity": "bicycle_rental",
        "capacity": "14",
        "name": "Largo do Machado",
        "operator": "BikeRio",
        "ref": "40",
        "website": "http://www.mobilicidade.com.br/bikerio.asp"
      },
      "type": "Feature"
    },
    {
      "geometry": {
        "coordinates": [
          -43.1656089,
          -22.9550046
        ],
        "type": "Point"
      },
      "id": 1579719428,
      "properties": {
        "amenity": "bicycle_rental",
        "capacity": "14",
        "name": "P\u00e3o-de-A\u00e7\u00facar",
        "operator": "BikeRio",
        "ref": "56",
        "website": "http://www.mobilicidade.com.br/bikerio.asp"
      },
      "type": "Feature"
    },
    {
      "geometry": {
        "coordinates": [
          -43.1763342,
          -22.9528449
        ],
        "type": "Point"
      },
      "id": 1579749719,
      "properties": {
        "amenity": "bicycle_rental",
        "capacity": "12",
        "name": "UFRJ Praia Vermelha",
        "operator": "BikeRio",
        "ref": "57",
        "website": "http://www.mobilicidade.com.br/bikerio.asp"
      },
      "type": "Feature"
    },
    {
      "geometry": {
        "coordinates": [
          -43.1684126,
          -22.9541607
        ],
        "type": "Point"
      },
      "id": 1672903651,
      "properties": {
        "amenity": "bicycle_rental",
        "capacity": "12",
        "name": "UNIRIO",
        "network": "BikeRio",
        "operator": "Serttel",
        "ref": "58",
        "website": "http://www.mobilicidade.com.br/bikerio.asp"
      },
      "type": "Feature"
    },
    {
      "geometry": {
        "coordinates": [
          -43.2225105,
          -22.9652738
        ],
        "type": "Point"
      },
      "id": 1701761169,
      "properties": {
        "amenity": "bicycle_rental",
        "capacity": "12",
        "name": "Pacheco Le\u00e3o",
        "operator": "BikeRio",
        "ref": "36",
        "website": "http://www.mobilicidade.com.br/bikerio.asp"
      },
      "type": "Feature"
    },
    {
      "geometry": {
        "coordinates": [
          -43.1938074,
          -22.9765348
        ],
        "type": "Point"
      },
      "id": 1765091206,
      "properties": {
        "amenity": "bicycle_rental",
        "capacity": "12",
        "name": "Cantagalo",
        "operator": "BikeRio",
        "ref": "01",
        "source": "survey"
      },
      "type": "Feature"
    },
    {
      "geometry": {
        "coordinates": [
          -43.2282748,
          -22.9860071
        ],
        "type": "Point"
      },
      "id": 1912281840,
      "properties": {
        "amenity": "bicycle_rental",
        "capacity": "12",
        "name": "Pra\u00e7a Cazuza",
        "operator": "BikeRio",
        "ref": "28",
        "source": "survey"
      },
      "type": "Feature"
    },
    {
      "geometry": {
        "coordinates": [
          -43.1752875,
          -22.9116945
        ],
        "type": "Point"
      },
      "id": 1981177106,
      "properties": {
        "amenity": "bicycle_rental",
        "capacity": "12",
        "name": "Cinel\u00e2ndia",
        "operator": "BikeRio",
        "ref": "59",
        "website": "http://www.mobilicidade.com.br/bikerio.asp"
      },
      "type": "Feature"
    },
    {
      "geometry": {
        "coordinates": [
          -43.1726369,
          -22.9027301
        ],
        "type": "Point"
      },
      "id": 1981180754,
      "properties": {
        "addr:housenumber": "s/n",
        "addr:street": "Pra\u00e7a XV",
        "amenity": "bicycle_rental",
        "capacity": "12",
        "layer": "1",
        "name": "Pra\u00e7a XV",
        "network": "BikeRio",
        "ref": "60",
        "website": "http://www.movesamba.com.br/bikerio/"
      },
      "type": "Feature"
    },
    {
      "geometry": {
        "coordinates": [
          -43.1854852,
          -22.9331324
        ],
        "type": "Point"
      },
      "id": 1981184140,
      "properties": {
        "amenity": "bicycle_rental",
        "capacity": "14",
        "name": "Pereira da Silva",
        "operator": "BikeRio",
        "ref": "41",
        "website": "http://www.mobilicidade.com.br/bikerio.asp"
      },
      "type": "Feature"
    },
    {
      "geometry": {
        "coordinates": [
          -43.1916992,
          -22.9565236
        ],
        "type": "Point"
      },
      "id": 2000100468,
      "properties": {
        "amenity": "bicycle_rental",
        "capacity": "12",
        "name": "Furnas",
        "operator": "BikeRio",
        "ref": "52",
        "website": "http://www.mobilicidade.com.br/bikerio.asp"
      },
      "type": "Feature"
    },
    {
      "geometry": {
        "coordinates": [
          -43.2280762,
          -22.965516
        ],
        "type": "Point"
      },
      "id": 2012410884,
      "properties": {
        "amenity": "bicycle_rental",
        "capacity": "12",
        "name": "Pacheco Le\u00e3o - Horto",
        "operator": "BikeRio",
        "ref": "38",
        "website": "http://www.mobilicidade.com.br/bikerio.asp"
      },
      "type": "Feature"
    },
    {
      "geometry": {
        "coordinates": [
          -43.1777069,
          -22.9558075
        ],
        "type": "Point"
      },
      "id": 2012413009,
      "properties": {
        "amenity": "bicycle_rental",
        "capacity": "14",
        "name": "Rio Sul",
        "operator": "BikeRio",
        "ref": "50",
        "website": "http://www.mobilicidade.com.br/bikerio.asp"
      },
      "type": "Feature"
    },
    {
      "geometry": {
        "coordinates": [
          -43.1843032,
          -22.951085
        ],
        "type": "Point"
      },
      "id": 2012414426,
      "properties": {
        "amenity": "bicycle_rental",
        "capacity": "14",
        "name": "Metr\u00f4 Botafogo",
        "operator": "BikeRio",
        "ref": "48",
        "website": "http://www.mobilicidade.com.br/bikerio.asp"
      },
      "type": "Feature"
    },
    {
      "geometry": {
        "coordinates": [
          -43.1823529,
          -22.952394
        ],
        "type": "Point"
      },
      "id": 2012416375,
      "properties": {
        "amenity": "bicycle_rental",
        "capacity": "14",
        "name": "Rua da Passagem",
        "operator": "BikeRio",
        "ref": "54",
        "website": "http://www.mobilicidade.com.br/bikerio.asp"
      },
      "type": "Feature"
    },
    {
      "geometry": {
        "coordinates": [
          -43.1826447,
          -22.9470991
        ],
        "type": "Point"
      },
      "id": 2012417266,
      "properties": {
        "amenity": "bicycle_rental",
        "capacity": "14",
        "name": "Botafogo Praia Shopping",
        "operator": "BikeRio",
        "ref": "49",
        "website": "http://www.mobilicidade.com.br/bikerio.asp"
      },
      "type": "Feature"
    },
    {
      "geometry": {
        "coordinates": [
          -43.1867755,
          -22.9521568
        ],
        "type": "Point"
      },
      "id": 2014139053,
      "properties": {
        "amenity": "bicycle_rental",
        "capacity": "14",
        "name": "Volunt\u00e1rios da P\u00e1tria",
        "operator": "BikeRio",
        "ref": "55",
        "source": "survey"
      },
      "type": "Feature"
    },
    {
      "geometry": {
        "coordinates": [
          -43.2096543,
          -22.9629265
        ],
        "type": "Point"
      },
      "id": 2014187944,
      "properties": {
        "amenity": "bicycle_rental",
        "capacity": "14",
        "name": "Lagoa - Vasco da Gama",
        "operator": "BikeRio",
        "ref": "37",
        "source": "survey",
        "website": "http://www.mobilicidade.com.br/bikerio.asp"
      },
      "type": "Feature"
    },
    {
      "geometry": {
        "coordinates": [
          -43.225645,
          -22.9730849
        ],
        "type": "Point"
      },
      "id": 2014580269,
      "properties": {
        "amenity": "bicycle_rental",
        "capacity": "14",
        "name": "Baixo G\u00e1vea",
        "operator": "BikeRio",
        "ref": "34",
        "source": "survey",
        "website": "http://www.mobilicidade.com.br/bikerio.asp"
      },
      "type": "Feature"
    },
    {
      "geometry": {
        "coordinates": [
          -43.2263835,
          -22.9777767
        ],
        "type": "Point"
      },
      "id": 2014581703,
      "properties": {
        "amenity": "bicycle_rental",
        "capacity": "14",
        "name": "Pra\u00e7a Sib\u00e9lius",
        "operator": "BikeRio",
        "ref": "30",
        "source": "survey",
        "website": "http://www.mobilicidade.com.br/bikerio.asp"
      },
      "type": "Feature"
    },
    {
      "geometry": {
        "coordinates": [
          -43.2173106,
          -22.9680489
        ],
        "type": "Point"
      },
      "id": 2015485999,
      "properties": {
        "amenity": "bicycle_rental",
        "capacity": "12",
        "name": "Borges de Medeiros",
        "operator": "BikeRio",
        "ref": "11",
        "source": "survey",
        "website": "http://www.mobilicidade.com.br/bikerio.asp"
      },
      "type": "Feature"
    },
    {
      "geometry": {
        "coordinates": [
          -43.2025909,
          -22.9605009
        ],
        "type": "Point"
      },
      "id": 2015487178,
      "properties": {
        "amenity": "bicycle_rental",
        "capacity": "14",
        "name": "Humait\u00e1",
        "operator": "BikeRio",
        "ref": "17",
        "website": "http://www.mobilicidade.com.br/bikerio.asp"
      },
      "type": "Feature"
    },
    {
      "geometry": {
        "coordinates": [
          -43.3401007,
          -22.8702708
        ],
        "type": "Point"
      },
      "id": 2096963696,
      "properties": {
        "amenity": "bicycle_rental",
        "capacity": "12",
        "name": "Soares Caldeira",
        "operator": "BikeRio",
        "ref": "401",
        "source": "survey"
      },
      "type": "Feature"
    },
    {
      "geometry": {
        "coordinates": [
          -43.3411673,
          -22.8683826
        ],
        "type": "Point"
      },
      "id": 2096963966,
      "properties": {
        "amenity": "bicycle_rental",
        "name": "Quadriciclo do Pinel",
        "source": "survey"
      },
      "type": "Feature"
    },
    {
      "geometry": {
        "coordinates": [
          -43.3412044,
          -22.8682569
        ],
        "type": "Point"
      },
      "id": 2096963988,
      "properties": {
        "amenity": "bicycle_rental",
        "capacity": "12",
        "name": "Manoel Marques",
        "operator": "BikeRio",
        "ref": "402",
        "source": "survey"
      },
      "type": "Feature"
    },
    {
      "geometry": {
        "coordinates": [
          -43.34682,
          -22.862001
        ],
        "type": "Point"
      },
      "id": 2096965425,
      "properties": {
        "amenity": "bicycle_rental",
        "capacity": "12",
        "name": "Bernardino de Andrade",
        "operator": "BikeRio",
        "ref": "404",
        "source": "survey"
      },
      "type": "Feature"
    },
    {
      "geometry": {
        "coordinates": [
          -43.3463535,
          -22.8618261
        ],
        "type": "Point"
      },
      "id": 2096965589,
      "properties": {
        "amenity": "bicycle_rental",
        "name": "Quadriciclo do Pinel",
        "source": "survey"
      },
      "type": "Feature"
    },
    {
      "geometry": {
        "coordinates": [
          -43.1753266,
          -22.961954
        ],
        "type": "Point"
      },
      "id": 2170235789,
      "properties": {
        "amenity": "bicycle_rental",
        "capacity": "14",
        "name": "T\u00fanel Novo",
        "operator": "BikeRio",
        "ref": "15",
        "source": "survey"
      },
      "type": "Feature"
    },
    {
      "geometry": {
        "coordinates": [
          -43.2167933,
          -22.9720225
        ],
        "type": "Point"
      },
      "id": 2182332437,
      "properties": {
        "amenity": "bicycle_rental",
        "source": "survey"
      },
      "type": "Feature"
    },
    {
      "geometry": {
        "coordinates": [
          -43.2162934,
          -22.9727198
        ],
        "type": "Point"
      },
      "id": 2182332457,
      "properties": {
        "amenity": "bicycle_rental",
        "note": "Foldable Bicycles",
        "source": "survey"
      },
      "type": "Feature"
    },
    {
      "geometry": {
        "coordinates": [
          -43.2171828,
          -22.9725187
        ],
        "type": "Point"
      },
      "id": 2182333000,
      "properties": {
        "amenity": "bicycle_rental",
        "source": "survey"
      },
      "type": "Feature"
    },
    {
      "geometry": {
        "coordinates": [
          -43.2167016,
          -22.9725132
        ],
        "type": "Point"
      },
      "id": 2182333100,
      "properties": {
        "amenity": "bicycle_rental",
        "name": "Obstaklo Trikes",
        "source": "survey"
      },
      "type": "Feature"
    },
    {
      "geometry": {
        "coordinates": [
          -43.2123608,
          -22.9801922
        ],
        "type": "Point"
      },
      "id": 2182536303,
      "properties": {
        "amenity": "bicycle_rental",
        "capacity": "12",
        "name": "Cai\u00e7aras",
        "operator": "BikeRio",
        "ref": "31",
        "source": "survey"
      },
      "type": "Feature"
    },
    {
      "geometry": {
        "coordinates": [
          -43.1969557,
          -22.9538829
        ],
        "type": "Point"
      },
      "id": 2322559938,
      "properties": {
        "amenity": "bicycle_rental",
        "capacity": "14",
        "name": "Cobal",
        "operator": "BikeRio",
        "ref": "47",
        "source": "survey"
      },
      "type": "Feature"
    },
    {
      "geometry": {
        "coordinates": [
          -43.1789332,
          -22.9413878
        ],
        "type": "Point"
      },
      "id": 2359476686,
      "properties": {
        "amenity": "bicycle_rental",
        "capacity": "14",
        "name": "Marqu\u00eas de Abrantes",
        "operator": "BikeRio",
        "ref": "53",
        "source": "survey"
      },
      "type": "Feature"
    },
    {
      "geometry": {
        "coordinates": [
          -43.1708519,
          -22.9387569
        ],
        "type": "Point"
      },
      "id": 2359477299,
      "properties": {
        "amenity": "bicycle_rental",
        "capacity": "12",
        "name": "Morro da Vi\u00fava",
        "operator": "BikeRio",
        "ref": "44",
        "source": "survey"
      },
      "type": "Feature"
    },
    {
      "geometry": {
        "coordinates": [
          -43.1924005,
          -22.9503041
        ],
        "type": "Point"
      },
      "id": 2359479513,
      "properties": {
        "amenity": "bicycle_rental",
        "capacity": "12",
        "name": "Santa Marta",
        "operator": "BikeRio",
        "ref": "51",
        "source": "survey"
      },
      "type": "Feature"
    },
    {
      "geometry": {
        "coordinates": [
          -43.2075712,
          -22.9620186
        ],
        "type": "Point"
      },
      "id": 2359480195,
      "properties": {
        "amenity": "bicycle_rental",
        "capacity": "14",
        "name": "Maria Ang\u00e9lica",
        "operator": "BikeRio",
        "ref": "35",
        "source": "survey"
      },
      "type": "Feature"
    },
    {
      "geometry": {
        "coordinates": [
          -43.2055544,
          -22.9695808
        ],
        "type": "Point"
      },
      "id": 2359481402,
      "properties": {
        "amenity": "bicycle_rental",
        "capacity": "14",
        "name": "Epit\u00e1cio Pessoa 4224",
        "operator": "BikeRio",
        "ref": "33",
        "source": "survey"
      },
      "type": "Feature"
    },
    {
      "geometry": {
        "coordinates": [
          -43.2009193,
          -22.9787275
        ],
        "type": "Point"
      },
      "id": 2359482312,
      "properties": {
        "amenity": "bicycle_rental",
        "capacity": "14",
        "name": "Epit\u00e1cio Pessoa",
        "operator": "BikeRio",
        "ref": "12",
        "source": "survey"
      },
      "type": "Feature"
    },
    {
      "geometry": {
        "coordinates": [
          -43.2070125,
          -22.9808808
        ],
        "type": "Point"
      },
      "id": 2359482534,
      "properties": {
        "amenity": "bicycle_rental",
        "capacity": "14",
        "name": "Maria Quit\u00e9ria",
        "operator": "BikeRio",
        "ref": "13",
        "source": "survey"
      },
      "type": "Feature"
    },
    {
      "geometry": {
        "coordinates": [
          -43.2278425,
          -22.975467
        ],
        "type": "Point"
      },
      "id": 2362462047,
      "properties": {
        "amenity": "bicycle_rental",
        "capacity": "12",
        "name": "Shopping da G\u00e1vea",
        "operator": "BikeRio",
        "ref": "16",
        "source": "survey"
      },
      "type": "Feature"
    },
    {
      "geometry": {
        "coordinates": [
          -43.229525,
          -22.978856
        ],
        "type": "Point"
      },
      "id": 2362466422,
      "properties": {
        "amenity": "bicycle_rental",
        "capacity": "12",
        "name": "Terminal PUC",
        "operator": "BikeRio",
        "ref": "14",
        "source": "survey"
      },
      "type": "Feature"
    },
    {
      "geometry": {
        "coordinates": [
          -43.2513876,
          -22.9922024
        ],
        "type": "Point"
      },
      "id": 2362473627,
      "properties": {
        "amenity": "bicycle_rental",
        "capacity": "12",
        "name": "Largo do Boiadeiro",
        "operator": "BikeRio",
        "ref": "43",
        "source": "survey"
      },
      "type": "Feature"
    },
    {
      "geometry": {
        "coordinates": [
          -43.223956,
          -22.9799108
        ],
        "type": "Point"
      },
      "id": 2362497362,
      "properties": {
        "amenity": "bicycle_rental",
        "capacity": "12",
        "name": "Largo da Mem\u00f3ria",
        "operator": "BikeRio",
        "ref": "18",
        "source": "survey"
      },
      "type": "Feature"
    },
    {
      "geometry": {
        "coordinates": [
          -43.2210169,
          -22.9812733
        ],
        "type": "Point"
      },
      "id": 2362501773,
      "properties": {
        "amenity": "bicycle_rental",
        "capacity": "12",
        "name": "Cine Leblon",
        "operator": "BikeRio",
        "ref": "29",
        "source": "survey"
      },
      "type": "Feature"
    },
    {
      "geometry": {
        "coordinates": [
          -43.2263198,
          -22.9876787
        ],
        "type": "Point"
      },
      "id": 2362506902,
      "properties": {
        "amenity": "bicycle_rental",
        "capacity": "12",
        "name": "Visconde de Albuquerque",
        "operator": "BikeRio",
        "ref": "27",
        "source": "survey"
      },
      "type": "Feature"
    },
    {
      "geometry": {
        "coordinates": [
          -43.2209553,
          -22.9866194
        ],
        "type": "Point"
      },
      "id": 2362513050,
      "properties": {
        "amenity": "bicycle_rental",
        "capacity": "14",
        "name": "Jos\u00e9 Linhares",
        "operator": "BikeRio",
        "ref": "19",
        "source": "survey"
      },
      "type": "Feature"
    },
    {
      "geometry": {
        "coordinates": [
          -43.1952247,
          -22.9820464
        ],
        "type": "Point"
      },
      "id": 2362533397,
      "properties": {
        "amenity": "bicycle_rental",
        "capacity": "12",
        "name": "S\u00e1 Ferreira",
        "operator": "BikeRio",
        "ref": "21",
        "source": "survey"
      },
      "type": "Feature"
    },
    {
      "geometry": {
        "coordinates": [
          -43.1885596,
          -22.9731616
        ],
        "type": "Point"
      },
      "id": 2362549175,
      "properties": {
        "amenity": "bicycle_rental",
        "capacity": "14",
        "name": "Dias da Rocha",
        "operator": "BikeRio",
        "ref": "22",
        "source": "survey"
      },
      "type": "Feature"
    },
    {
      "geometry": {
        "coordinates": [
          -43.183547,
          -22.9687237
        ],
        "type": "Point"
      },
      "id": 2362550175,
      "properties": {
        "amenity": "bicycle_rental",
        "capacity": "12",
        "name": "Serzedelo Correa",
        "operator": "BikeRio",
        "ref": "23",
        "source": "survey"
      },
      "type": "Feature"
    },
    {
      "geometry": {
        "coordinates": [
          -43.1783783,
          -22.9675755
        ],
        "type": "Point"
      },
      "id": 2362550607,
      "properties": {
        "amenity": "bicycle_rental",
        "capacity": "14",
        "name": "Copacabana Palace",
        "operator": "BikeRio",
        "ref": "20",
        "source": "survey"
      },
      "type": "Feature"
    },
    {
      "geometry": {
        "coordinates": [
          -43.2025158,
          -22.9740151
        ],
        "type": "Point"
      },
      "id": 2649791044,
      "properties": {
        "amenity": "bicycle_rental",
        "capacity": "20"
      },
      "type": "Feature"
    },
    {
      "geometry": {
        "coordinates": [
          -43.1787199,
          -22.9138935
        ],
        "type": "Point"
      },
      "id": 2752865552,
      "properties": {
        "amenity": "bicycle_rental",
        "capacity": "14",
        "name": "Sala Cec\u00edlia Meireles",
        "network": "BikeRio",
        "ref": "145",
        "website": "http://www.movesamba.com.br/bikerio/"
      },
      "type": "Feature"
    },
    {
      "geometry": {
        "coordinates": [
          -43.1829877,
          -22.9126458
        ],
        "type": "Point"
      },
      "id": 2752865574,
      "properties": {
        "amenity": "bicycle_rental",
        "capacity": "12",
        "name": "Gomes Freire",
        "network": "BikeRio",
        "ref": "148",
        "website": "http://www.movesamba.com.br/bikerio/"
      },
      "type": "Feature"
    },
    {
      "geometry": {
        "coordinates": [
          -43.1833339,
          -22.9092963
        ],
        "type": "Point"
      },
      "id": 2752865580,
      "properties": {
        "amenity": "bicycle_rental",
        "capacity": "13",
        "name": "Lavradio",
        "network": "BikeRio",
        "ref": "143",
        "website": "http://www.movesamba.com.br/bikerio/"
      },
      "type": "Feature"
    },
    {
      "geometry": {
        "coordinates": [
          -43.1821624,
          -22.9068938
        ],
        "type": "Point"
      },
      "id": 2752865587,
      "properties": {
        "amenity": "bicycle_rental",
        "capacity": "14",
        "name": "Pra\u00e7a Tiradentes",
        "network": "BikeRio",
        "ref": "141",
        "website": "http://www.movesamba.com.br/bikerio/"
      },
      "type": "Feature"
    },
    {
      "geometry": {
        "coordinates": [
          -43.1898779,
          -22.9074914
        ],
        "type": "Point"
      },
      "id": 2752865603,
      "properties": {
        "amenity": "bicycle_rental",
        "capacity": "12",
        "name": "Pra\u00e7a da Rep\u00fablica",
        "network": "BikeRio",
        "ref": "153",
        "website": "http://www.movesamba.com.br/bikerio/"
      },
      "type": "Feature"
    },
    {
      "geometry": {
        "coordinates": [
          -43.1827655,
          -22.9021275
        ],
        "type": "Point"
      },
      "id": 2752865640,
      "properties": {
        "amenity": "bicycle_rental",
        "capacity": "12",
        "name": "Banco Central",
        "network": "BikeRio",
        "ref": "135",
        "website": "http://www.movesamba.com.br/bikerio/"
      },
      "type": "Feature"
    },
    {
      "geometry": {
        "coordinates": [
          -43.1868851,
          -22.8964294
        ],
        "type": "Point"
      },
      "id": 2752865656,
      "properties": {
        "amenity": "bicycle_rental",
        "capacity": "12",
        "name": "Bar\u00e3o de Tef\u00e9",
        "network": "BikeRio",
        "ref": "133",
        "website": "http://www.movesamba.com.br/bikerio/"
      },
      "type": "Feature"
    },
    {
      "geometry": {
        "coordinates": [
          -43.1822635,
          -22.8971115
        ],
        "type": "Point"
      },
      "id": 2752865668,
      "properties": {
        "amenity": "bicycle_rental",
        "capacity": "12",
        "name": "MAR",
        "network": "BikeRio",
        "ref": "132",
        "website": "http://www.movesamba.com.br/bikerio/"
      },
      "type": "Feature"
    },
    {
      "geometry": {
        "coordinates": [
          -43.1782306,
          -22.9030829
        ],
        "type": "Point"
      },
      "id": 2752865692,
      "properties": {
        "amenity": "bicycle_rental",
        "capacity": "12",
        "name": "Ros\u00e1rio",
        "network": "BikeRio",
        "ref": "137",
        "website": "http://www.movesamba.com.br/bikerio/"
      },
      "type": "Feature"
    },
    {
      "geometry": {
        "coordinates": [
          -43.1765617,
          -22.903948
        ],
        "type": "Point"
      },
      "id": 2752865708,
      "properties": {
        "amenity": "bicycle_rental",
        "capacity": "12",
        "name": "Quitanda",
        "network": "BikeRio",
        "ref": "127",
        "website": "http://www.movesamba.com.br/bikerio/"
      },
      "type": "Feature"
    },
    {
      "geometry": {
        "coordinates": [
          -43.1778485,
          -22.9074281
        ],
        "type": "Point"
      },
      "id": 2752892907,
      "properties": {
        "amenity": "bicycle_rental",
        "capacity": "12",
        "name": "Largo da Carioca",
        "network": "BikeRio",
        "ref": "142",
        "website": "http://www.movesamba.com.br/bikerio/"
      },
      "type": "Feature"
    },
    {
      "geometry": {
        "coordinates": [
          -43.1758288,
          -22.9058691
        ],
        "type": "Point"
      },
      "id": 2752892911,
      "properties": {
        "amenity": "bicycle_rental",
        "capacity": "12",
        "name": "Buraco do Lume",
        "network": "BikeRio",
        "ref": "125",
        "website": "http://www.movesamba.com.br/bikerio/"
      },
      "type": "Feature"
    },
    {
      "geometry": {
        "coordinates": [
          -43.175044,
          -22.904939
        ],
        "type": "Point"
      },
      "id": 2752892916,
      "properties": {
        "amenity": "bicycle_rental",
        "capacity": "12",
        "name": "Menezes C\u00f4rtes",
        "network": "BikeRio",
        "ref": "126",
        "website": "http://www.movesamba.com.br/bikerio/"
      },
      "type": "Feature"
    },
    {
      "geometry": {
        "coordinates": [
          -43.1736308,
          -22.9059008
        ],
        "type": "Point"
      },
      "id": 2752892920,
      "properties": {
        "amenity": "bicycle_rental",
        "capacity": "12",
        "name": "Nilo Pe\u00e7anha",
        "network": "BikeRio",
        "operator": "Serttel",
        "ref": "124"
      },
      "type": "Feature"
    },
    {
      "geometry": {
        "coordinates": [
          -43.1751512,
          -22.9075478
        ],
        "type": "Point"
      },
      "id": 2752892924,
      "properties": {
        "amenity": "bicycle_rental",
        "capacity": "12",
        "name": "Almirante Barroso",
        "network": "BikeRio",
        "ref": "123",
        "website": "http://www.movesamba.com.br/bikerio/"
      },
      "type": "Feature"
    },
    {
      "geometry": {
        "coordinates": [
          -43.1718236,
          -22.9056004
        ],
        "type": "Point"
      },
      "id": 2752892930,
      "properties": {
        "amenity": "bicycle_rental",
        "capacity": "12",
        "name": "F\u00f3rum",
        "network": "BikeRio",
        "ref": "122",
        "website": "http://www.movesamba.com.br/bikerio/"
      },
      "type": "Feature"
    },
    {
      "geometry": {
        "coordinates": [
          -43.1703743,
          -22.9087293
        ],
        "type": "Point"
      },
      "id": 2752892953,
      "properties": {
        "amenity": "bicycle_rental",
        "capacity": "12",
        "name": "Churchil",
        "network": "BikeRio",
        "ref": "121",
        "website": "http://www.movesamba.com.br/bikerio/"
      },
      "type": "Feature"
    },
    {
      "geometry": {
        "coordinates": [
          -43.171846,
          -22.9103957
        ],
        "type": "Point"
      },
      "id": 2752892958,
      "properties": {
        "amenity": "bicycle_rental",
        "capacity": "14",
        "name": "Maison de France",
        "network": "BikeRio",
        "ref": "120",
        "website": "http://www.movesamba.com.br/bikerio/"
      },
      "type": "Feature"
    },
    {
      "geometry": {
        "coordinates": [
          -43.1673031,
          -22.9104975
        ],
        "type": "Point"
      },
      "id": 2752892963,
      "properties": {
        "amenity": "bicycle_rental",
        "capacity": "12",
        "name": "Aeroporto Santos Dumont",
        "network": "BikeRio",
        "ref": "166",
        "website": "http://www.movesamba.com.br/bikerio/"
      },
      "type": "Feature"
    },
    {
      "geometry": {
        "coordinates": [
          -43.1721485,
          -22.9127377
        ],
        "type": "Point"
      },
      "id": 2752892968,
      "properties": {
        "amenity": "bicycle_rental",
        "capacity": "12",
        "name": "MAM",
        "network": "BikeRio",
        "ref": "119",
        "website": "http://www.movesamba.com.br/bikerio/"
      },
      "type": "Feature"
    },
    {
      "geometry": {
        "coordinates": [
          -43.1860952,
          -22.9436625
        ],
        "type": "Point"
      },
      "id": 2857242402,
      "properties": {
        "amenity": "bicycle_rental",
        "capacity": "12",
        "name": "Assun\u00e7\u00e3o",
        "network": "BikeRio",
        "ref": "80"
      },
      "type": "Feature"
    },
    {
      "geometry": {
        "coordinates": [
          -43.1771937,
          -22.9234784
        ],
        "type": "Point"
      },
      "id": 2857263301,
      "properties": {
        "amenity": "bicycle_rental",
        "capacity": "14",
        "name": "Rua do Catete",
        "network": "BikeRio",
        "ref": "61"
      },
      "type": "Feature"
    },
    {
      "geometry": {
        "coordinates": [
          -43.1845398,
          -22.9107181
        ],
        "type": "Point"
      },
      "id": 2941415468,
      "properties": {
        "amenity": "bicycle_rental",
        "capacity": "12",
        "name": "Rela\u00e7\u00e3o",
        "network": "BikeRio",
        "ref": "152",
        "website": "http://www.movesamba.com.br/bikerio/"
      },
      "type": "Feature"
    },
    {
      "geometry": {
        "coordinates": [
          -43.221601,
          -22.9218337
        ],
        "type": "Point"
      },
      "id": 3054537094,
      "properties": {
        "amenity": "bicycle_rental",
        "capacity": "12",
        "name": "Largo da Segunda Feira",
        "network": "BikeRio",
        "note": "Localiza\u00e7\u00e3o aproximada, pendente de confirma\u00e7\u00e3o visual.",
        "operator": "Mobilicidade",
        "ref": "177",
        "source": "http://www.movesamba.com.br/bikerio/"
      },
      "type": "Feature"
    },
    {
      "geometry": {
        "coordinates": [
          -43.1912106,
          -22.9640531
        ],
        "type": "Point"
      },
      "id": 3070809564,
      "properties": {
        "amenity": "bicycle_rental",
        "capacity": "12",
        "name": "T\u00fanel Velho",
        "network": "BikeRio",
        "ref": "101"
      },
      "type": "Feature"
    },
    {
      "geometry": {
        "coordinates": [
          -43.1831012,
          -22.9656277
        ],
        "type": "Point"
      },
      "id": 3070821702,
      "properties": {
        "amenity": "bicycle_rental",
        "capacity": "12",
        "name": "Tonelero",
        "network": "BikeRio",
        "ref": "100"
      },
      "type": "Feature"
    },
    {
      "geometry": {
        "coordinates": [
          -43.1757829,
          -22.9647977
        ],
        "type": "Point"
      },
      "id": 3070827898,
      "properties": {
        "amenity": "bicycle_rental",
        "capacity": "12",
        "name": "Pra\u00e7a do Lido",
        "network": "BikeRio",
        "operator": "Serttel",
        "ref": "99"
      },
      "type": "Feature"
    },
    {
      "geometry": {
        "coordinates": [
          -43.1772419,
          -22.9562214
        ],
        "type": "Point"
      },
      "id": 3070840899,
      "properties": {
        "amenity": "bicycle_rental",
        "capacity": "12",
        "name": "Lauro Muller",
        "network": "BikeRio",
        "ref": "89"
      },
      "type": "Feature"
    },
    {
      "geometry": {
        "coordinates": [
          -43.1860085,
          -22.9493252
        ],
        "type": "Point"
      },
      "id": 3070948170,
      "properties": {
        "amenity": "bicycle_rental",
        "capacity": "12",
        "name": "S\u00e3o Clemente",
        "network": "BikeRio",
        "ref": "81"
      },
      "type": "Feature"
    },
    {
      "geometry": {
        "coordinates": [
          -43.1841898,
          -22.9488563
        ],
        "type": "Point"
      },
      "id": 3071000550,
      "properties": {
        "amenity": "bicycle_rental",
        "capacity": "12",
        "name": "Muniz Barreto",
        "network": "BikeRio",
        "ref": "79"
      },
      "type": "Feature"
    },
    {
      "geometry": {
        "coordinates": [
          -43.1810982,
          -22.9488276
        ],
        "type": "Point"
      },
      "id": 3071002848,
      "properties": {
        "amenity": "bicycle_rental",
        "capacity": "12",
        "name": "Mourisco Mar",
        "network": "BikeRio",
        "ref": "82"
      },
      "type": "Feature"
    },
    {
      "geometry": {
        "coordinates": [
          -43.1839762,
          -22.9452665
        ],
        "type": "Point"
      },
      "id": 3071008479,
      "properties": {
        "amenity": "bicycle_rental",
        "capacity": "12",
        "name": "Pra\u00e7a Joia Valansi",
        "network": "BikeRio",
        "ref": "78"
      },
      "type": "Feature"
    },
    {
      "geometry": {
        "coordinates": [
          -43.1937336,
          -22.9386226
        ],
        "type": "Point"
      },
      "id": 3071029151,
      "properties": {
        "amenity": "bicycle_rental",
        "capacity": "12",
        "name": "Alegrete",
        "network": "BikeRio",
        "operator": "Serttel",
        "ref": "70"
      },
      "type": "Feature"
    },
    {
      "geometry": {
        "coordinates": [
          -43.1807898,
          -22.9433255
        ],
        "type": "Point"
      },
      "id": 3071031211,
      "properties": {
        "amenity": "bicycle_rental",
        "capacity": "12",
        "name": "Edif\u00edcio Argentina",
        "network": "BikeRio",
        "ref": "77"
      },
      "type": "Feature"
    },
    {
      "geometry": {
        "coordinates": [
          -43.1771679,
          -22.9421793
        ],
        "type": "Point"
      },
      "id": 3071055362,
      "properties": {
        "amenity": "bicycle_rental",
        "capacity": "12",
        "name": "Pra\u00e7a Nicar\u00e1gua",
        "network": "BikeRio",
        "ref": "76"
      },
      "type": "Feature"
    },
    {
      "geometry": {
        "coordinates": [
          -43.1738962,
          -22.9389163
        ],
        "type": "Point"
      },
      "id": 3071072336,
      "properties": {
        "amenity": "bicycle_rental",
        "capacity": "12",
        "name": "Oswaldo Cruz",
        "network": "BikeRio",
        "ref": "75"
      },
      "type": "Feature"
    },
    {
      "geometry": {
        "coordinates": [
          -43.189962,
          -22.9366133
        ],
        "type": "Point"
      },
      "id": 3071076730,
      "properties": {
        "amenity": "bicycle_rental",
        "capacity": "12",
        "name": "Sebasti\u00e3o Lacerda",
        "network": "BikeRio",
        "ref": "68"
      },
      "type": "Feature"
    },
    {
      "geometry": {
        "coordinates": [
          -43.1979849,
          -22.9406465
        ],
        "type": "Point"
      },
      "id": 3071083426,
      "properties": {
        "amenity": "bicycle_rental",
        "capacity": "12",
        "name": "Pra\u00e7a S\u00e3o Judas Tadeu",
        "network": "BikeRio",
        "ref": "71"
      },
      "type": "Feature"
    },
    {
      "geometry": {
        "coordinates": [
          -43.1792567,
          -22.928528
        ],
        "type": "Point"
      },
      "id": 3071091278,
      "properties": {
        "amenity": "bicycle_rental",
        "capacity": "12",
        "name": "Artur Bernardes",
        "network": "BikeRio",
        "ref": "65"
      },
      "type": "Feature"
    },
    {
      "geometry": {
        "coordinates": [
          -43.1765267,
          -22.9269323
        ],
        "type": "Point"
      },
      "id": 3071100613,
      "properties": {
        "amenity": "bicycle_rental",
        "capacity": "12",
        "name": "Pal\u00e1cio do Catete",
        "network": "BikeRio",
        "ref": "64"
      },
      "type": "Feature"
    },
    {
      "geometry": {
        "coordinates": [
          -43.1745583,
          -22.9206992
        ],
        "type": "Point"
      },
      "id": 3071119842,
      "properties": {
        "amenity": "bicycle_rental",
        "capacity": "14",
        "name": "Pra\u00e7a Lu\u00eds de Cam\u00f5es",
        "network": "BikeRio",
        "ref": "63"
      },
      "type": "Feature"
    },
    {
      "geometry": {
        "coordinates": [
          -43.1767575,
          -22.9201078
        ],
        "type": "Point"
      },
      "id": 3071122714,
      "properties": {
        "amenity": "bicycle_rental",
        "capacity": "12",
        "name": "Largo da Gl\u00f3ria",
        "network": "BikeRio",
        "operator": "BikeRio",
        "ref": "118"
      },
      "type": "Feature"
    },
    {
      "geometry": {
        "coordinates": [
          -43.1808267,
          -22.9126543
        ],
        "type": "Point"
      },
      "id": 3071126282,
      "properties": {
        "amenity": "bicycle_rental",
        "capacity": "12",
        "name": "Circo Voador",
        "network": "BikeRio",
        "ref": "146"
      },
      "type": "Feature"
    },
    {
      "geometry": {
        "coordinates": [
          -43.1784521,
          -22.9097675
        ],
        "type": "Point"
      },
      "id": 3071142447,
      "properties": {
        "amenity": "bicycle_rental",
        "capacity": "12",
        "name": "Esta\u00e7\u00e3o de Bondes",
        "network": "BikeRio",
        "ref": "144"
      },
      "type": "Feature"
    },
    {
      "geometry": {
        "coordinates": [
          -43.1760948,
          -22.9018551
        ],
        "type": "Point"
      },
      "id": 3071143915,
      "properties": {
        "amenity": "bicycle_rental",
        "capacity": "12",
        "name": "Primeiro de Mar\u00e7o",
        "network": "BikeRio",
        "ref": "128"
      },
      "type": "Feature"
    },
    {
      "geometry": {
        "coordinates": [
          -43.1788133,
          -22.9055784
        ],
        "type": "Point"
      },
      "id": 3071143984,
      "properties": {
        "amenity": "bicycle_rental",
        "capacity": "12",
        "name": "Sete de Setembro",
        "network": "BikeRio",
        "ref": "138"
      },
      "type": "Feature"
    },
    {
      "geometry": {
        "coordinates": [
          -43.1914576,
          -22.9046489
        ],
        "type": "Point"
      },
      "id": 3071289260,
      "properties": {
        "amenity": "bicycle_rental",
        "capacity": "12",
        "name": "Pra\u00e7a Proc\u00f3pio Ferreira",
        "network": "BikeRio",
        "operator": "Serttel",
        "ref": "168"
      },
      "type": "Feature"
    },
    {
      "geometry": {
        "coordinates": [
          -43.1946052,
          -22.9066699
        ],
        "type": "Point"
      },
      "id": 3071289639,
      "properties": {
        "amenity": "bicycle_rental",
        "capacity": "12",
        "name": "Santana",
        "network": "BikeRio",
        "ref": "169"
      },
      "type": "Feature"
    },
    {
      "geometry": {
        "coordinates": [
          -43.1980257,
          -22.9120127
        ],
        "type": "Point"
      },
      "id": 3071298336,
      "properties": {
        "amenity": "bicycle_rental",
        "capacity": "12",
        "name": "Pra\u00e7a Coronel Castelo Branco",
        "network": "BikeRio",
        "ref": "173"
      },
      "type": "Feature"
    },
    {
      "geometry": {
        "coordinates": [
          -43.2056425,
          -22.9141139
        ],
        "type": "Point"
      },
      "id": 3071328688,
      "properties": {
        "amenity": "bicycle_rental",
        "capacity": "12",
        "name": "Est\u00e1cio de S\u00e1",
        "network": "BikeRio",
        "ref": "174"
      },
      "type": "Feature"
    },
    {
      "geometry": {
        "coordinates": [
          -43.2247855,
          -22.9207027
        ],
        "type": "Point"
      },
      "id": 3071333534,
      "properties": {
        "amenity": "bicycle_rental",
        "capacity": "14",
        "name": "Metr\u00f4 S\u00e3o Francisco Xavier",
        "network": "BikeRio",
        "operator": "Serttel",
        "ref": "181"
      },
      "type": "Feature"
    },
    {
      "geometry": {
        "coordinates": [
          -43.2335709,
          -22.9193591
        ],
        "type": "Point"
      },
      "id": 3071333555,
      "properties": {
        "amenity": "bicycle_rental",
        "capacity": "13",
        "name": "Varnhagem",
        "network": "BikeRio",
        "ref": "180"
      },
      "type": "Feature"
    },
    {
      "geometry": {
        "coordinates": [
          -43.2396323,
          -22.9320444
        ],
        "type": "Point"
      },
      "id": 3071335672,
      "properties": {
        "amenity": "bicycle_rental",
        "capacity": "12",
        "name": "Metr\u00f4 Uruguai",
        "network": "BikeRio",
        "operator": "Serttel",
        "ref": "185"
      },
      "type": "Feature"
    },
    {
      "geometry": {
        "coordinates": [
          -43.2428621,
          -22.9319702
        ],
        "type": "Point"
      },
      "id": 3071336333,
      "properties": {
        "amenity": "bicycle_rental",
        "capacity": "12",
        "name": "Xavier de Brito",
        "network": "BikeRio",
        "ref": "188"
      },
      "type": "Feature"
    },
    {
      "geometry": {
        "coordinates": [
          -43.2056198,
          -22.9105032
        ],
        "type": "Point"
      },
      "id": 3120543529,
      "properties": {
        "amenity": "bicycle_rental",
        "capacity": "12",
        "name": "Metr\u00f4 Cidade Nova",
        "network": "BikeRio",
        "operator": "Serttel",
        "ref": "167"
      },
      "type": "Feature"
    },
    {
      "geometry": {
        "coordinates": [
          -43.1802729,
          -22.9209856
        ],
        "type": "Point"
      },
      "id": 3120557069,
      "properties": {
        "amenity": "bicycle_rental",
        "capacity": "12",
        "name": "Benefic\u00eancia Portuguesa",
        "network": "BikeRio",
        "operator": "Serttel",
        "ref": "62"
      },
      "type": "Feature"
    },
    {
      "geometry": {
        "coordinates": [
          -43.1784227,
          -22.9385513
        ],
        "type": "Point"
      },
      "id": 3120566512,
      "properties": {
        "amenity": "bicycle_rental",
        "capacity": "14",
        "name": "Metr\u00f4 Flamengo",
        "network": "BikeRio",
        "operator": "Serttel",
        "ref": "74"
      },
      "type": "Feature"
    },
    {
      "geometry": {
        "coordinates": [
          -43.1625282,
          -22.9483189
        ],
        "type": "Point"
      },
      "id": 3120579730,
      "properties": {
        "amenity": "bicycle_rental",
        "capacity": "12",
        "name": "IED Urca",
        "network": "BikeRio",
        "operator": "Serttel",
        "ref": "12"
      },
      "type": "Feature"
    },
    {
      "geometry": {
        "coordinates": [
          -43.2002093,
          -22.975668
        ],
        "type": "Point"
      },
      "id": 3120592137,
      "properties": {
        "amenity": "bicycle_rental",
        "capacity": "14",
        "name": "Parque da Catacumba",
        "network": "BikeRio",
        "operator": "Serttel",
        "ref": "117"
      },
      "type": "Feature"
    },
    {
      "geometry": {
        "coordinates": [
          -43.2192351,
          -22.9665938
        ],
        "type": "Point"
      },
      "id": 3120907345,
      "properties": {
        "amenity": "bicycle_rental",
        "capacity": "12",
        "name": "Jardim Bot\u00e2nico",
        "network": "BikeRio",
        "operator": "Serttel",
        "ref": "113"
      },
      "type": "Feature"
    },
    {
      "geometry": {
        "coordinates": [
          -43.1802158,
          -22.9055612
        ],
        "type": "Point"
      },
      "id": 3120921312,
      "properties": {
        "amenity": "bicycle_rental",
        "capacity": "12",
        "name": "Largo de S\u00e3o Francisco",
        "network": "BikeRio",
        "operator": "Serttel",
        "ref": "139"
      },
      "type": "Feature"
    },
    {
      "geometry": {
        "coordinates": [
          -43.2326678,
          -22.9244648
        ],
        "type": "Point"
      },
      "id": 3121105141,
      "properties": {
        "amenity": "bicycle_rental",
        "capacity": "12",
        "name": "Metr\u00f4 Saens Pe\u00f1a",
        "network": "BikeRio",
        "operator": "Serttel",
        "ref": "182"
      },
      "type": "Feature"
    },
    {
      "geometry": {
        "coordinates": [
          -43.2345191,
          -22.922983
        ],
        "type": "Point"
      },
      "id": 3121116355,
      "properties": {
        "amenity": "bicycle_rental",
        "capacity": "12",
        "name": "Shopping Tijuca",
        "network": "BikeRio",
        "operator": "Serttel",
        "ref": "183"
      },
      "type": "Feature"
    },
    {
      "geometry": {
        "coordinates": [
          -43.2261038,
          -22.9124378
        ],
        "type": "Point"
      },
      "id": 3121191395,
      "properties": {
        "amenity": "bicycle_rental",
        "capacity": "14",
        "name": "Mata Machado",
        "network": "BikeRio",
        "operator": "Serttel",
        "ref": "195"
      },
      "type": "Feature"
    },
    {
      "geometry": {
        "coordinates": [
          -43.2339123,
          -22.9123785
        ],
        "type": "Point"
      },
      "id": 3121216473,
      "properties": {
        "amenity": "bicycle_rental",
        "capacity": "12",
        "name": "Est\u00e1dio C\u00e9lio de Barros",
        "network": "BikeRio",
        "operator": "Serttel",
        "ref": "198"
      },
      "type": "Feature"
    },
    {
      "geometry": {
        "coordinates": [
          -43.2220924,
          -22.9124476
        ],
        "type": "Point"
      },
      "id": 3148315899,
      "properties": {
        "amenity": "bicycle_rental",
        "capacity": "12",
        "name": "Morais e Silva",
        "network": "BikeRio",
        "operator": "Serttel",
        "ref": "190"
      },
      "type": "Feature"
    },
    {
      "geometry": {
        "coordinates": [
          -43.2215881,
          -22.9158422
        ],
        "type": "Point"
      },
      "id": 3148320712,
      "properties": {
        "amenity": "bicycle_rental",
        "capacity": "12",
        "name": "Gafr\u00e9e e Guinle",
        "network": "BikeRio",
        "operator": "Serttel",
        "ref": "191"
      },
      "type": "Feature"
    },
    {
      "geometry": {
        "coordinates": [
          -43.2150865,
          -22.9121413
        ],
        "type": "Point"
      },
      "id": 3148350412,
      "properties": {
        "amenity": "bicycle_rental",
        "capacity": "12",
        "name": "Pra\u00e7a da Bandeira",
        "network": "BikeRio",
        "operator": "Serttel",
        "ref": "197"
      },
      "type": "Feature"
    },
    {
      "geometry": {
        "coordinates": [
          -43.212254,
          -22.9156569
        ],
        "type": "Point"
      },
      "id": 3148350670,
      "properties": {
        "amenity": "bicycle_rental",
        "capacity": "14",
        "name": "Pra\u00e7a da Medalha Milagrosa",
        "network": "BikeRio",
        "operator": "Serttel",
        "ref": "176"
      },
      "type": "Feature"
    },
    {
      "geometry": {
        "coordinates": [
          -43.207005,
          -22.9130727
        ],
        "type": "Point"
      },
      "id": 3148352341,
      "properties": {
        "amenity": "bicycle_rental",
        "capacity": "12",
        "name": "Centro de Conven\u00e7\u00f5es",
        "network": "BikeRio",
        "operator": "Serttel",
        "ref": "174"
      },
      "type": "Feature"
    },
    {
      "geometry": {
        "coordinates": [
          -43.1906006,
          -22.9042179
        ],
        "type": "Point"
      },
      "id": 3148354861,
      "properties": {
        "amenity": "bicycle_rental",
        "capacity": "14",
        "name": "Central do Brasil",
        "network": "BikeRio",
        "operator": "Serttel",
        "ref": "154"
      },
      "type": "Feature"
    },
    {
      "geometry": {
        "coordinates": [
          -43.1919524,
          -22.8958406
        ],
        "type": "Point"
      },
      "id": 3148357341,
      "properties": {
        "amenity": "bicycle_rental",
        "capacity": "12",
        "name": "Pra\u00e7a da Harmonia",
        "network": "BikeRio",
        "operator": "Serttel",
        "ref": "158"
      },
      "type": "Feature"
    },
    {
      "geometry": {
        "coordinates": [
          -43.1809989,
          -22.9001189
        ],
        "type": "Point"
      },
      "id": 3148362282,
      "properties": {
        "amenity": "bicycle_rental",
        "capacity": "14",
        "name": "Largo de Santa Rita",
        "network": "BikeRio",
        "operator": "Serttel",
        "ref": "131"
      },
      "type": "Feature"
    },
    {
      "geometry": {
        "coordinates": [
          -43.1775255,
          -22.9003734
        ],
        "type": "Point"
      },
      "id": 3148364029,
      "properties": {
        "amenity": "bicycle_rental",
        "capacity": "14",
        "name": "Pra\u00e7a Pio X",
        "network": "BikeRio",
        "operator": "Serttel",
        "ref": "129"
      },
      "type": "Feature"
    },
    {
      "geometry": {
        "coordinates": [
          -43.1906689,
          -22.9817491
        ],
        "type": "Point"
      },
      "id": 3148373741,
      "properties": {
        "amenity": "bicycle_rental",
        "capacity": "12",
        "name": "Souza Lima",
        "network": "BikeRio",
        "operator": "Serttel",
        "ref": "105"
      },
      "type": "Feature"
    },
    {
      "geometry": {
        "coordinates": [
          -43.1987997,
          -22.9571356
        ],
        "type": "Point"
      },
      "id": 3148379479,
      "properties": {
        "amenity": "bicycle_rental",
        "capacity": "14",
        "name": "Vi\u00fava Lacerda",
        "network": "BikeRio",
        "operator": "Serttel",
        "ref": "95"
      },
      "type": "Feature"
    },
    {
      "geometry": {
        "coordinates": [
          -43.2153252,
          -22.9857588
        ],
        "type": "Point"
      },
      "id": 3148386504,
      "properties": {
        "amenity": "bicycle_rental",
        "capacity": "14",
        "name": "Jardim de Alah",
        "network": "BikeRio",
        "operator": "Serttel",
        "ref": "110"
      },
      "type": "Feature"
    },
    {
      "geometry": {
        "coordinates": [
          -43.2437855,
          -22.9200753
        ],
        "type": "Point"
      },
      "id": 3163183218,
      "properties": {
        "amenity": "bicycle_rental",
        "capacity": "12",
        "name": "Maxwell",
        "network": "BikeRio",
        "operator": "Serttel",
        "ref": "200"
      },
      "type": "Feature"
    },
    {
      "geometry": {
        "coordinates": [
          -43.2513467,
          -22.9162707
        ],
        "type": "Point"
      },
      "id": 3163325572,
      "properties": {
        "amenity": "bicycle_rental",
        "capacity": "14",
        "name": "Pra\u00e7a Bar\u00e3o de Drumont",
        "network": "BikeRio",
        "operator": "Serttel",
        "ref": "192"
      },
      "type": "Feature"
    },
    {
      "geometry": {
        "coordinates": [
          -43.2009283,
          -22.9099528
        ],
        "type": "Point"
      },
      "id": 3163350831,
      "properties": {
        "amenity": "bicycle_rental",
        "name": "Metr\u00f4 Pra\u00e7a XI",
        "network": "BikeRio",
        "operator": "Serttel",
        "ref": "172"
      },
      "type": "Feature"
    },
    {
      "geometry": {
        "coordinates": [
          -43.1822286,
          -22.9026233
        ],
        "type": "Point"
      },
      "id": 3163360739,
      "properties": {
        "amenity": "bicycle_rental",
        "capacity": "12",
        "name": "Metr\u00f4 Uruguaiana",
        "network": "BikeRio",
        "operator": "Serttel",
        "ref": "136"
      },
      "type": "Feature"
    },
    {
      "geometry": {
        "coordinates": [
          -43.1719827,
          -22.9225527
        ],
        "type": "Point"
      },
      "id": 3163380707,
      "properties": {
        "amenity": "bicycle_rental",
        "capacity": "12",
        "name": "Hotel Gl\u00f3ria",
        "network": "BikeRio",
        "operator": "Serttel",
        "ref": "66"
      },
      "type": "Feature"
    },
    {
      "geometry": {
        "coordinates": [
          -43.1929595,
          -22.9540287
        ],
        "type": "Point"
      },
      "id": 3163401075,
      "properties": {
        "amenity": "bicycle_rental",
        "capacity": "12",
        "name": "Real Grandeza",
        "network": "BikeRio",
        "operator": "Serttel",
        "ref": "93"
      },
      "type": "Feature"
    },
    {
      "geometry": {
        "coordinates": [
          -43.2028108,
          -22.9812065
        ],
        "type": "Point"
      },
      "id": 3163412423,
      "properties": {
        "amenity": "bicycle_rental",
        "capacity": "12",
        "name": "Vin\u00edcius de Moraes",
        "network": "BikeRio",
        "operator": "Serttel",
        "ref": "107"
      },
      "type": "Feature"
    },
    {
      "geometry": {
        "coordinates": [
          -43.2147189,
          -22.9637466
        ],
        "type": "Point"
      },
      "id": 3163624889,
      "properties": {
        "amenity": "bicycle_rental",
        "capacity": "12",
        "name": "Hospital da Lagoa",
        "network": "BikeRio",
        "operator": "Serttel",
        "ref": "114"
      },
      "type": "Feature"
    },
    {
      "geometry": {
        "coordinates": [
          -43.1804928,
          -22.9338044
        ],
        "type": "Point"
      },
      "id": 3188966454,
      "properties": {
        "amenity": "bicycle_rental",
        "capacity": "12",
        "name": "Pra\u00e7a S\u00e3o Salvador",
        "network": "BikeRio",
        "operator": "Serttel",
        "ref": "67"
      },
      "type": "Feature"
    },
    {
      "geometry": {
        "coordinates": [
          -43.3017193,
          -23.0147028
        ],
        "type": "Point"
      },
      "id": 3189005660,
      "properties": {
        "amenity": "bicycle_rental",
        "capacity": "12",
        "name": "Praia do Pep\u00ea",
        "network": "BikeRio",
        "operator": "Serttel",
        "ref": "201"
      },
      "type": "Feature"
    },
    {
      "geometry": {
        "coordinates": [
          -43.3482635,
          -23.0099979
        ],
        "type": "Point"
      },
      "id": 3189428346,
      "properties": {
        "amenity": "bicycle_rental",
        "capacity": "14",
        "name": "Golden Green",
        "network": "BikeRio",
        "operator": "Serttel",
        "ref": "220"
      },
      "type": "Feature"
    },
    {
      "geometry": {
        "coordinates": [
          -43.3500686,
          -23.0056379
        ],
        "type": "Point"
      },
      "id": 3189443685,
      "properties": {
        "amenity": "bicycle_rental",
        "capacity": "12",
        "name": "Est\u00e1cio",
        "network": "BikeRio",
        "operator": "Serttel",
        "ref": "228"
      },
      "type": "Feature"
    },
    {
      "geometry": {
        "coordinates": [
          -43.3525094,
          -23.002532
        ],
        "type": "Point"
      },
      "id": 3189448796,
      "properties": {
        "amenity": "bicycle_rental",
        "capacity": "12",
        "name": "Veiga de Almeida",
        "network": "BikeRio",
        "operator": "Serttel",
        "ref": "229"
      },
      "type": "Feature"
    },
    {
      "geometry": {
        "coordinates": [
          -43.3516623,
          -23.0009156
        ],
        "type": "Point"
      },
      "id": 3189508489,
      "properties": {
        "amenity": "bicycle_rental",
        "capacity": "12",
        "name": "Esplanada da Barra",
        "network": "BikeRio",
        "operator": "Serttel",
        "ref": "239"
      },
      "type": "Feature"
    },
    {
      "geometry": {
        "coordinates": [
          -43.3682637,
          -23.0011709
        ],
        "type": "Point"
      },
      "id": 3189518062,
      "properties": {
        "amenity": "bicycle_rental",
        "capacity": "12",
        "name": "Terminal Alvorada-Oeste",
        "network": "BikeRio",
        "operator": "Serttel",
        "ref": "234"
      },
      "type": "Feature"
    },
    {
      "geometry": {
        "coordinates": [
          -43.2347027,
          -22.9168386
        ],
        "type": "Point"
      },
      "id": 3243245383,
      "properties": {
        "amenity": "bicycle_rental",
        "capacity": "12",
        "name": "Pra\u00e7a Niter\u00f3i",
        "network": "BikeRio",
        "operator": "Serttel",
        "ref": "199"
      },
      "type": "Feature"
    },
    {
      "geometry": {
        "coordinates": [
          -43.2401502,
          -22.914793
        ],
        "type": "Point"
      },
      "id": 3243245384,
      "properties": {
        "amenity": "bicycle_rental",
        "capacity": "12",
        "name": "BLV. 28 de Setembro 157",
        "network": "BikeRio",
        "operator": "Serttel",
        "ref": "189"
      },
      "type": "Feature"
    },
    {
      "geometry": {
        "coordinates": [
          -43.2182183,
          -22.9184212
        ],
        "type": "Point"
      },
      "id": 3243248495,
      "properties": {
        "amenity": "bicycle_rental",
        "capacity": "12",
        "name": "Afonso Pena",
        "network": "BikeRio",
        "operator": "Serttel",
        "ref": "178"
      },
      "type": "Feature"
    },
    {
      "geometry": {
        "coordinates": [
          -43.2022412,
          -22.8979309
        ],
        "type": "Point"
      },
      "id": 3243263070,
      "properties": {
        "amenity": "bicycle_rental",
        "capacity": "12",
        "name": "Pra\u00e7a Santo Cristo",
        "network": "BikeRio",
        "operator": "Serttel",
        "ref": "161"
      },
      "type": "Feature"
    },
    {
      "geometry": {
        "coordinates": [
          -43.1874261,
          -22.9115262
        ],
        "type": "Point"
      },
      "id": 3243288832,
      "properties": {
        "amenity": "bicycle_rental",
        "capacity": "12",
        "name": "Pra\u00e7a da Cruz Vermelha",
        "network": "BikeRio",
        "operator": "Serttel",
        "ref": "151"
      },
      "type": "Feature"
    },
    {
      "geometry": {
        "coordinates": [
          -43.1852246,
          -22.9053885
        ],
        "type": "Point"
      },
      "id": 3243294105,
      "properties": {
        "amenity": "bicycle_rental",
        "capacity": "12",
        "name": "Buenos Aires",
        "network": "BikeRio",
        "operator": "Serttel",
        "ref": "140"
      },
      "type": "Feature"
    },
    {
      "geometry": {
        "coordinates": [
          -43.1898271,
          -22.9050847
        ],
        "type": "Point"
      },
      "id": 3267418542,
      "properties": {
        "amenity": "bicycle_rental",
        "capacity": "14",
        "name": "Campo de Santana",
        "network": "BikeRio",
        "operator": "Serttel",
        "ref": "155"
      },
      "type": "Feature"
    },
    {
      "geometry": {
        "coordinates": [
          -43.1878929,
          -22.9745173
        ],
        "type": "Point"
      },
      "id": 3267448999,
      "properties": {
        "amenity": "bicycle_rental",
        "capacity": "12",
        "name": "Constante Ramos",
        "network": "BikeRio",
        "operator": "Serttel",
        "ref": "103"
      },
      "type": "Feature"
    },
    {
      "geometry": {
        "coordinates": [
          -43.1962051,
          -22.9587825
        ],
        "type": "Point"
      },
      "id": 3267452374,
      "properties": {
        "amenity": "bicycle_rental",
        "capacity": "12",
        "name": "Pinheiro Guimar\u00e3es",
        "network": "BikeRio",
        "operator": "Serttel",
        "ref": "92"
      },
      "type": "Feature"
    },
    {
      "geometry": {
        "coordinates": [
          -43.21169,
          -22.961293
        ],
        "type": "Point"
      },
      "id": 3267493095,
      "properties": {
        "amenity": "bicycle_rental",
        "capacity": "14",
        "name": "Parque Lage",
        "network": "BikeRio",
        "operator": "Serttel",
        "ref": "115"
      },
      "type": "Feature"
    },
    {
      "geometry": {
        "coordinates": [
          -43.2035725,
          -22.9654685
        ],
        "type": "Point"
      },
      "id": 3267503469,
      "properties": {
        "amenity": "bicycle_rental",
        "capacity": "14",
        "name": "Epit\u00e1cio Pessoa 4794",
        "network": "BikeRio",
        "operator": "Serttel",
        "ref": "116"
      },
      "type": "Feature"
    },
    {
      "geometry": {
        "coordinates": [
          -43.2266561,
          -22.9835365
        ],
        "type": "Point"
      },
      "id": 3267534117,
      "properties": {
        "amenity": "bicycle_rental",
        "capacity": "12",
        "name": "Dias Ferreira",
        "network": "BikeRio",
        "operator": "Serttel",
        "ref": "112"
      },
      "type": "Feature"
    },
    {
      "geometry": {
        "coordinates": [
          -43.2173455,
          -22.972326
        ],
        "type": "Point"
      },
      "id": 3267561166,
      "properties": {
        "amenity": "bicycle_rental",
        "capacity": "14",
        "name": "Parque dos Patins",
        "network": "BikeRio",
        "operator": "Serttel",
        "ref": "108"
      },
      "type": "Feature"
    },
    {
      "geometry": {
        "coordinates": [
          -43.2979704,
          -23.0144094
        ],
        "type": "Point"
      },
      "id": 3267572931,
      "properties": {
        "amenity": "bicycle_rental",
        "capacity": "12",
        "name": "Quebra Mar",
        "network": "BikeRio",
        "operator": "Serttel",
        "ref": "204"
      },
      "type": "Feature"
    },
    {
      "geometry": {
        "coordinates": [
          -43.3050516,
          -23.0125625
        ],
        "type": "Point"
      },
      "id": 3267580868,
      "properties": {
        "amenity": "bicycle_rental",
        "capacity": "14",
        "name": "Oleg\u00e1rio Maciel",
        "network": "BikeRio",
        "operator": "Serttel",
        "ref": "206"
      },
      "type": "Feature"
    },
    {
      "geometry": {
        "coordinates": [
          -43.3168297,
          -23.0072049
        ],
        "type": "Point"
      },
      "id": 3267605962,
      "properties": {
        "amenity": "bicycle_rental",
        "capacity": "12",
        "name": "Professor Souza Ara\u00fajo",
        "network": "BikeRio",
        "operator": "Serttel",
        "ref": "215"
      },
      "type": "Feature"
    },
    {
      "geometry": {
        "coordinates": [
          -43.3172548,
          -23.0127947
        ],
        "type": "Point"
      },
      "id": 3267635438,
      "properties": {
        "amenity": "bicycle_rental",
        "capacity": "14",
        "name": "Pra\u00e7a do \u00d3",
        "network": "BikeRio",
        "operator": "Serttel",
        "ref": "214"
      },
      "type": "Feature"
    },
    {
      "geometry": {
        "coordinates": [
          -43.3188461,
          -23.0071934
        ],
        "type": "Point"
      },
      "id": 3267642900,
      "properties": {
        "amenity": "bicycle_rental",
        "capacity": "12",
        "name": "Grande Canal",
        "network": "BikeRio",
        "operator": "Serttel",
        "ref": "224"
      },
      "type": "Feature"
    },
    {
      "geometry": {
        "coordinates": [
          -43.3215381,
          -23.0119554
        ],
        "type": "Point"
      },
      "id": 3267657835,
      "properties": {
        "amenity": "bicycle_rental",
        "capacity": "12",
        "name": "Windsor Barra",
        "network": "BikeRio",
        "operator": "Serttel",
        "ref": "202"
      },
      "type": "Feature"
    },
    {
      "geometry": {
        "coordinates": [
          -43.3261162,
          -23.011166
        ],
        "type": "Point"
      },
      "id": 3267674761,
      "properties": {
        "amenity": "bicycle_rental",
        "capacity": "12",
        "name": "Radisson",
        "network": "BikeRio",
        "operator": "Serttel",
        "ref": "216"
      },
      "type": "Feature"
    },
    {
      "geometry": {
        "coordinates": [
          -43.3302585,
          -23.0106454
        ],
        "type": "Point"
      },
      "id": 3267695088,
      "properties": {
        "amenity": "bicycle_rental",
        "capacity": "12",
        "name": "Barra Summer Dream",
        "network": "BikeRio",
        "operator": "Serttel",
        "ref": "217"
      },
      "type": "Feature"
    },
    {
      "geometry": {
        "coordinates": [
          -43.328698,
          -23.0018092
        ],
        "type": "Point"
      },
      "id": 3267711454,
      "properties": {
        "amenity": "bicycle_rental",
        "capacity": "12",
        "name": "Athaydeville",
        "network": "BikeRio",
        "operator": "Serttel",
        "ref": "232"
      },
      "type": "Feature"
    },
    {
      "geometry": {
        "coordinates": [
          -43.3367231,
          -23.0008422
        ],
        "type": "Point"
      },
      "id": 3275342974,
      "properties": {
        "amenity": "bicycle_rental",
        "capacity": "12",
        "name": "Guanabara",
        "network": "BikeRio",
        "operator": "Serttel",
        "ref": "233"
      },
      "type": "Feature"
    },
    {
      "geometry": {
        "coordinates": [
          -43.3421143,
          -23.0101672
        ],
        "type": "Point"
      },
      "id": 3275349561,
      "properties": {
        "amenity": "bicycle_rental",
        "capacity": "12",
        "name": "L\u00facio Costa 4500",
        "network": "BikeRio",
        "operator": "Serttel",
        "ref": "219"
      },
      "type": "Feature"
    },
    {
      "geometry": {
        "coordinates": [
          -43.3476638,
          -23.0005632
        ],
        "type": "Point"
      },
      "id": 3275372649,
      "properties": {
        "amenity": "bicycle_rental",
        "capacity": "12",
        "name": "Barra Business Center",
        "network": "BikeRio",
        "operator": "Serttel",
        "ref": "237"
      },
      "type": "Feature"
    },
    {
      "geometry": {
        "coordinates": [
          -43.3548347,
          -22.9974189
        ],
        "type": "Point"
      },
      "id": 3276747961,
      "properties": {
        "amenity": "bicycle_rental",
        "capacity": "14",
        "name": "F\u00f3rum da Barra",
        "network": "BikeRio",
        "operator": "Serttel",
        "ref": "240"
      },
      "type": "Feature"
    },
    {
      "geometry": {
        "coordinates": [
          -43.3586086,
          -23.000446
        ],
        "type": "Point"
      },
      "id": 3276763039,
      "properties": {
        "amenity": "bicycle_rental",
        "capacity": "12",
        "name": "Zoila de Abreu",
        "network": "BikeRio",
        "operator": "Serttel",
        "ref": "207"
      },
      "type": "Feature"
    },
    {
      "geometry": {
        "coordinates": [
          -43.3606471,
          -22.9999571
        ],
        "type": "Point"
      },
      "id": 3276773876,
      "properties": {
        "amenity": "bicycle_rental",
        "capacity": "12",
        "name": "NYC Center",
        "network": "BikeRio",
        "operator": "Serttel",
        "ref": "241"
      },
      "type": "Feature"
    },
    {
      "geometry": {
        "coordinates": [
          -43.3654348,
          -22.9952832
        ],
        "type": "Point"
      },
      "id": 3276824744,
      "properties": {
        "amenity": "bicycle_rental",
        "capacity": "12",
        "name": "Hospital Louren\u00e7o Jorge",
        "network": "BikeRio",
        "operator": "Serttel",
        "ref": "242"
      },
      "type": "Feature"
    },
    {
      "geometry": {
        "coordinates": [
          -43.3662797,
          -22.9925203
        ],
        "type": "Point"
      },
      "id": 3276836207,
      "properties": {
        "amenity": "bicycle_rental",
        "capacity": "12",
        "name": "Centro Metropolitano",
        "network": "BikeRio",
        "operator": "Serttel",
        "ref": "247"
      },
      "type": "Feature"
    },
    {
      "geometry": {
        "coordinates": [
          -43.3638523,
          -23.0009348
        ],
        "type": "Point"
      },
      "id": 3276846364,
      "properties": {
        "amenity": "bicycle_rental",
        "capacity": "12",
        "name": "Terminal Alvorada Leste",
        "network": "BikeRio",
        "operator": "Serttel",
        "ref": "243"
      },
      "type": "Feature"
    },
    {
      "geometry": {
        "coordinates": [
          -43.3550636,
          -23.0100855
        ],
        "type": "Point"
      },
      "id": 3276851111,
      "properties": {
        "amenity": "bicycle_rental",
        "capacity": "14",
        "name": "L\u00facio Costa 5750",
        "network": "BikeRio",
        "operator": "Serttel",
        "ref": "221"
      },
      "type": "Feature"
    },
    {
      "geometry": {
        "coordinates": [
          -43.3664791,
          -23.0047355
        ],
        "type": "Point"
      },
      "id": 3276851199,
      "properties": {
        "amenity": "bicycle_rental",
        "capacity": "12",
        "name": "Dulc\u00eddio Cardoso 3080",
        "network": "BikeRio",
        "operator": "Serttel",
        "ref": "230"
      },
      "type": "Feature"
    },
    {
      "geometry": {
        "coordinates": [
          -43.3570619,
          -23.0101645
        ],
        "type": "Point"
      },
      "id": 3276858121,
      "properties": {
        "amenity": "bicycle_rental",
        "capacity": "14",
        "name": "L\u00facio Costa 6200",
        "network": "BikeRio",
        "operator": "Serttel",
        "ref": "203"
      },
      "type": "Feature"
    },
    {
      "geometry": {
        "coordinates": [
          -43.3709048,
          -23.0107496
        ],
        "type": "Point"
      },
      "id": 3276864749,
      "properties": {
        "amenity": "bicycle_rental",
        "capacity": "12",
        "name": "L\u00facio Costa 9500",
        "network": "BikeRio",
        "operator": "Serttel",
        "ref": "223"
      },
      "type": "Feature"
    },
    {
      "geometry": {
        "coordinates": [
          -43.3732035,
          -23.0031446
        ],
        "type": "Point"
      },
      "id": 3280323461,
      "properties": {
        "amenity": "bicycle_rental",
        "capacity": "12",
        "name": "Olyntho Pillar",
        "network": "BikeRio",
        "operator": "Serttel",
        "ref": "245"
      },
      "type": "Feature"
    },
    {
      "geometry": {
        "coordinates": [
          -43.3759045,
          -23.0036606
        ],
        "type": "Point"
      },
      "id": 3280329437,
      "properties": {
        "amenity": "bicycle_rental",
        "capacity": "14",
        "name": "Mandala",
        "network": "BikeRio",
        "operator": "Serttel",
        "ref": "213"
      },
      "type": "Feature"
    },
    {
      "geometry": {
        "coordinates": [
          -43.441039,
          -23.0098267
        ],
        "type": "Point"
      },
      "id": 3280355913,
      "properties": {
        "amenity": "bicycle_rental",
        "capacity": "12",
        "name": "Barra World",
        "network": "BikeRio",
        "operator": "Serttel",
        "ref": "257"
      },
      "type": "Feature"
    },
    {
      "geometry": {
        "coordinates": [
          -43.4430252,
          -23.0079232
        ],
        "type": "Point"
      },
      "id": 3280363207,
      "properties": {
        "amenity": "bicycle_rental",
        "capacity": "12",
        "name": "Salvador Allende BRT",
        "network": "BikeRio",
        "note": "Posi\u00e7\u00e3o aproximada, verificar em campo.",
        "operator": "Serttel",
        "ref": "256"
      },
      "type": "Feature"
    },
    {
      "geometry": {
        "coordinates": [
          -43.4508172,
          -23.0133871
        ],
        "type": "Point"
      },
      "id": 3280390129,
      "properties": {
        "amenity": "bicycle_rental",
        "capacity": "12",
        "name": "Pra\u00e7a Miguel Os\u00f3rio",
        "network": "BikeRio",
        "operator": "Serttel",
        "ref": "258"
      },
      "type": "Feature"
    },
    {
      "geometry": {
        "coordinates": [
          -43.4578781,
          -23.0147165
        ],
        "type": "Point"
      },
      "id": 3280399252,
      "properties": {
        "amenity": "bicycle_rental",
        "capacity": "12",
        "name": "Pra\u00e7a Restier Gon\u00e7alves",
        "network": "BikeRio",
        "operator": "Serttel",
        "ref": "249"
      },
      "type": "Feature"
    },
    {
      "geometry": {
        "coordinates": [
          -43.4674777,
          -23.0156621
        ],
        "type": "Point"
      },
      "id": 3280428463,
      "properties": {
        "amenity": "bicycle_rental",
        "capacity": "12",
        "name": "Benvindo Novaes",
        "network": "BikeRio",
        "operator": "Serttel",
        "ref": "251"
      },
      "type": "Feature"
    },
    {
      "geometry": {
        "coordinates": [
          -43.3149647,
          -23.0139075
        ],
        "type": "Point"
      },
      "id": 3284765135,
      "properties": {
        "amenity": "bicycle_rental",
        "capacity": "12",
        "name": "General Ivan Raposo",
        "network": "BikeRio",
        "operator": "Serttel",
        "ref": "212"
      },
      "type": "Feature"
    },
    {
      "geometry": {
        "coordinates": [
          -43.3410104,
          -23.0007748
        ],
        "type": "Point"
      },
      "id": 3284793117,
      "properties": {
        "amenity": "bicycle_rental",
        "capacity": "12",
        "name": "Barra Garden",
        "network": "BikeRio",
        "operator": "Serttel",
        "ref": "235"
      },
      "type": "Feature"
    },
    {
      "geometry": {
        "coordinates": [
          -43.4567006,
          -23.0181959
        ],
        "type": "Point"
      },
      "id": 3286811663,
      "properties": {
        "amenity": "bicycle_rental",
        "capacity": "12",
        "name": "Gl\u00e1ucio Gil",
        "network": "BikeRio",
        "operator": "Serttel",
        "ref": "260"
      },
      "type": "Feature"
    },
    {
      "geometry": {
        "coordinates": [
          -43.4707246,
          -23.0220741
        ],
        "type": "Point"
      },
      "id": 3286868300,
      "properties": {
        "amenity": "bicycle_rental",
        "capacity": "12",
        "name": "Parque Chico Mendes",
        "network": "BikeRio",
        "operator": "Serttel",
        "ref": "254"
      },
      "type": "Feature"
    },
    {
      "geometry": {
        "coordinates": [
          -43.4689972,
          -23.0303053
        ],
        "type": "Point"
      },
      "id": 3286869880,
      "properties": {
        "amenity": "bicycle_rental",
        "capacity": "12",
        "name": "Pontal",
        "network": "BikeRio",
        "operator": "Serttel",
        "ref": "255"
      },
      "type": "Feature"
    },
    {
      "geometry": {
        "coordinates": [
          -43.4633234,
          -23.027217
        ],
        "type": "Point"
      },
      "id": 3288448371,
      "properties": {
        "amenity": "bicycle_rental",
        "capacity": "14",
        "name": "L\u00facio Costa 17194",
        "network": "BikeRio",
        "operator": "Serttel",
        "ref": "252"
      },
      "type": "Feature"
    },
    {
      "geometry": {
        "coordinates": [
          -43.4570497,
          -23.0246991
        ],
        "type": "Point"
      },
      "id": 3288491727,
      "properties": {
        "amenity": "bicycle_rental",
        "capacity": "12",
        "name": "Gl\u00e1ucio Gil Praia",
        "network": "BikeRio",
        "operator": "Serttel",
        "ref": "250"
      },
      "type": "Feature"
    },
    {
      "geometry": {
        "coordinates": [
          -43.4494108,
          -23.0228526
        ],
        "type": "Point"
      },
      "id": 3288519826,
      "properties": {
        "amenity": "bicycle_rental",
        "capacity": "14",
        "name": "Posto 9 Barra",
        "network": "BikeRio",
        "operator": "Serttel",
        "ref": "248"
      },
      "type": "Feature"
    },
    {
      "geometry": {
        "coordinates": [
          -43.1733631,
          -22.9539972
        ],
        "type": "Point"
      },
      "id": 3288677721,
      "properties": {
        "amenity": "bicycle_rental",
        "capacity": "12",
        "name": "Iate Clube",
        "network": "BikeRio",
        "operator": "Serttel",
        "ref": "86"
      },
      "type": "Feature"
    },
    {
      "geometry": {
        "coordinates": [
          -43.1888478,
          -22.9571483
        ],
        "type": "Point"
      },
      "id": 3288728764,
      "properties": {
        "amenity": "bicycle_rental",
        "capacity": "12",
        "name": "General Polidoro",
        "network": "BikeRio",
        "operator": "Serttel",
        "ref": "90"
      },
      "type": "Feature"
    }
  ],
  "type": "FeatureCollection"
}