{
  "features": [
    {
      "geometry": {
        "coordinates": [
          -51.2319906,
          -30.0292351
        ],
        "type": "Point"
      },
      "id": 1990419336,
      "properties": {
        "amenity": "bicycle_rental",
        "capacity": "12",
        "name": "Bike PoA Pra\u00e7a da Alf\u00e2ndega",
        "network": "Bike PoA",
        "opening_hours": "Su-Sa 06:00-22:00",
        "phone": "+55 51 40636299",
        "ref": "2",
        "website": "http://www.movesamba.com.br/bikepoa/"
      },
      "type": "Feature"
    },
    {
      "geometry": {
        "coordinates": [
          -51.226905,
          -30.0281847
        ],
        "type": "Point"
      },
      "id": 1990425242,
      "properties": {
        "addr:housenumber": "66",
        "addr:postcode": "90020-061",
        "addr:street": "Rua Marechal Floriano",
        "amenity": "bicycle_rental",
        "capacity": "12",
        "fixme": "Possivelmente impreciso.",
        "name": "Bike PoA Mercado",
        "network": "Bike PoA",
        "opening_hours": "Su-Sa 06:00-22:00",
        "phone": "+55 51 40636299",
        "ref": "1",
        "website": "http://www.movesamba.com.br/bikepoa/"
      },
      "type": "Feature"
    },
    {
      "geometry": {
        "coordinates": [
          -51.2314412,
          -30.0376111
        ],
        "type": "Point"
      },
      "id": 1994048764,
      "properties": {
        "addr:housenumber": "945",
        "addr:postcode": "90010-420",
        "addr:street": "Avenida Loureiro da Silva",
        "amenity": "bicycle_rental",
        "capacity": "12",
        "fixme": "Possivelmente impreciso.",
        "name": "Bike PoA Escola Parob\u00e9",
        "network": "Bike PoA",
        "opening_hours": "Su-Sa 06:00-22:00",
        "phone": "+55 51 40636299",
        "ref": "35",
        "website": "http://www.movesamba.com.br/bikepoa/"
      },
      "type": "Feature"
    },
    {
      "geometry": {
        "coordinates": [
          -51.2485762,
          -30.0972918
        ],
        "type": "Point"
      },
      "id": 1998043927,
      "properties": {
        "amenity": "bicycle_rental",
        "capacity": "12",
        "name": "Bike PoA Di\u00e1rio de Not\u00edcias",
        "network": "Bike PoA",
        "opening_hours": "Su-Sa 06:00-22:00",
        "phone": "+55 51 40636299",
        "ref": "20",
        "website": "http://www.movesamba.com.br/bikepoa/"
      },
      "type": "Feature"
    },
    {
      "geometry": {
        "coordinates": [
          -51.2374753,
          -30.0378516
        ],
        "type": "Point"
      },
      "id": 2032032686,
      "properties": {
        "amenity": "bicycle_rental",
        "capacity": "12",
        "description": "Esta\u00e7\u00e3o 5",
        "name": "Bike PoA C\u00e2mara de Vereadores",
        "network": "Bike PoA",
        "opening_hours": "Su-Sa 06:00-22:00",
        "phone": "+55 51 40636299",
        "ref": "5",
        "website": "http://www.movesamba.com.br/bikepoa/"
      },
      "type": "Feature"
    },
    {
      "geometry": {
        "coordinates": [
          -51.2472294,
          -30.0831073
        ],
        "type": "Point"
      },
      "id": 2163724150,
      "properties": {
        "amenity": "bicycle_rental",
        "capacity": "14",
        "name": "Bike PoA BarraShopping",
        "network": "Bike PoA",
        "opening_hours": "Su-Sa 06:00-22:00",
        "phone": "+55 51 40636299",
        "ref": "34",
        "website": "http://www.movesamba.com.br/bikepoa/"
      },
      "type": "Feature"
    },
    {
      "geometry": {
        "coordinates": [
          -51.2350593,
          -30.0309618
        ],
        "type": "Point"
      },
      "id": 2163724156,
      "properties": {
        "addr:housenumber": "539",
        "addr:postcode": "90010-190",
        "addr:street": "Rua 7 de Setembro",
        "amenity": "bicycle_rental",
        "capacity": "12",
        "fixme": "Possivelmente impreciso.",
        "name": "Bike PoA Casa de Cultura M\u00e1rio Quintana",
        "network": "Bike PoA",
        "opening_hours": "Su-Sa 06:00-22:00",
        "phone": "+55 51 40636299",
        "ref": "3",
        "website": "http://www.movesamba.com.br/bikepoa/"
      },
      "type": "Feature"
    },
    {
      "geometry": {
        "coordinates": [
          -51.2234477,
          -30.0326785
        ],
        "type": "Point"
      },
      "id": 2163724165,
      "properties": {
        "amenity": "bicycle_rental",
        "capacity": "12",
        "name": "Bike PoA Casa do Estudante",
        "network": "Bike PoA",
        "opening_hours": "Su-Sa 06:00-22:00",
        "phone": "+55 51 40636299",
        "ref": "36",
        "website": "http://www.movesamba.com.br/bikepoa/"
      },
      "type": "Feature"
    },
    {
      "geometry": {
        "coordinates": [
          -51.219574,
          -30.0452778
        ],
        "type": "Point"
      },
      "id": 2163724179,
      "properties": {
        "amenity": "bicycle_rental",
        "capacity": "12",
        "fixme": "Possivelmente impreciso.",
        "name": "Bike PoA Gin\u00e1sio Tesourinha",
        "network": "Bike PoA",
        "opening_hours": "Su-Sa 06:00-22:00",
        "phone": "+55 51 40636299",
        "ref": "11",
        "website": "http://www.movesamba.com.br/bikepoa/"
      },
      "type": "Feature"
    },
    {
      "geometry": {
        "coordinates": [
          -51.2079615,
          -30.0394857
        ],
        "type": "Point"
      },
      "id": 2163724184,
      "properties": {
        "addr:housenumber": "2350",
        "addr:postcode": "90040-340",
        "addr:street": "Avenida Jer\u00f4nimo de Ornelas",
        "amenity": "bicycle_rental",
        "capacity": "14",
        "fixme": "Possivelmente impreciso.",
        "name": "Bike PoA Hospital de Cl\u00ednicas",
        "network": "Bike PoA",
        "opening_hours": "Su-Sa 06:00-22:00",
        "phone": "+55 51 40636299",
        "ref": "13",
        "website": "http://www.movesamba.com.br/bikepoa/"
      },
      "type": "Feature"
    },
    {
      "geometry": {
        "coordinates": [
          -51.2258845,
          -30.0383593
        ],
        "type": "Point"
      },
      "id": 2163724189,
      "properties": {
        "addr:housenumber": "76",
        "addr:postcode": "90050-210",
        "addr:street": "Travessa do Carmo",
        "amenity": "bicycle_rental",
        "capacity": "14",
        "fixme": "Possivelmente impreciso.",
        "name": "Bike PoA Largo Zumbi",
        "network": "Bike PoA",
        "opening_hours": "Su-Sa 06:00-22:00",
        "phone": "+55 51 40636299",
        "ref": "6",
        "website": "http://www.movesamba.com.br/bikepoa/"
      },
      "type": "Feature"
    },
    {
      "geometry": {
        "coordinates": [
          -51.2080763,
          -30.0442127
        ],
        "type": "Point"
      },
      "id": 2163724212,
      "properties": {
        "amenity": "bicycle_rental",
        "capacity": "12",
        "fixme": "Possivelmente impreciso.",
        "name": "Bike PoA Planet\u00e1rio",
        "network": "Bike PoA",
        "opening_hours": "Su-Sa 06:00-22:00",
        "phone": "+55 51 40636299",
        "ref": "14",
        "website": "http://www.movesamba.com.br/bikepoa/"
      },
      "type": "Feature"
    },
    {
      "geometry": {
        "coordinates": [
          -51.2209638,
          -30.0419051
        ],
        "type": "Point"
      },
      "id": 2163724222,
      "properties": {
        "amenity": "bicycle_rental",
        "capacity": "12",
        "fixme": "Possivelmente impreciso.",
        "name": "Bike PoA Opini\u00e3o",
        "network": "Bike PoA",
        "opening_hours": "Su-Sa 06:00-22:00",
        "phone": "+55 51 40636299",
        "ref": "15",
        "website": "http://www.movesamba.com.br/bikepoa/"
      },
      "type": "Feature"
    },
    {
      "geometry": {
        "coordinates": [
          -51.2143965,
          -30.0384523
        ],
        "type": "Point"
      },
      "id": 2163724228,
      "properties": {
        "amenity": "bicycle_rental",
        "capacity": "2",
        "fixme": "Possivelmente impreciso.",
        "name": "Bike PoA Reden\u00e7\u00e3o Ara\u00fajo Viana",
        "network": "Bike PoA",
        "opening_hours": "Su-Sa 06:00-22:00",
        "phone": "+55 51 40636299",
        "ref": "7",
        "website": "http://www.movesamba.com.br/bikepoa/"
      },
      "type": "Feature"
    },
    {
      "geometry": {
        "coordinates": [
          -51.2176956,
          -30.0350793
        ],
        "type": "Point"
      },
      "id": 2163724234,
      "properties": {
        "amenity": "bicycle_rental",
        "capacity": "14",
        "fixme": "Possivelmente impreciso.",
        "name": "Bike PoA Reden\u00e7\u00e3o UFRGS",
        "network": "Bike PoA",
        "opening_hours": "Su-Sa 06:00-22:00",
        "phone": "+55 51 40636299",
        "ref": "8",
        "website": "http://www.movesamba.com.br/bikepoa/"
      },
      "type": "Feature"
    },
    {
      "geometry": {
        "coordinates": [
          -51.229145,
          -30.042841
        ],
        "type": "Point"
      },
      "id": 2163724240,
      "properties": {
        "amenity": "bicycle_rental",
        "capacity": "12",
        "name": "Bike PoA Regi\u00e3o dos Tribunais",
        "network": "Bike PoA",
        "opening_hours": "Su-Sa 06:00-22:00",
        "phone": "+55 51 40636299",
        "ref": "36",
        "website": "http://www.movesamba.com.br/bikepoa/"
      },
      "type": "Feature"
    },
    {
      "geometry": {
        "coordinates": [
          -51.2290631,
          -30.0482528
        ],
        "type": "Point"
      },
      "id": 2163724241,
      "properties": {
        "amenity": "bicycle_rental",
        "capacity": "12",
        "name": "Bike PoA Shopping Praia de Belas",
        "network": "Bike PoA",
        "opening_hours": "Su-Sa 06:00-22:00",
        "phone": "+55 51 40636299",
        "ref": "12",
        "website": "http://www.movesamba.com.br/bikepoa/"
      },
      "type": "Feature"
    },
    {
      "geometry": {
        "coordinates": [
          -51.2096697,
          -30.0501122
        ],
        "type": "Point"
      },
      "id": 2163724246,
      "properties": {
        "amenity": "bicycle_rental",
        "capacity": "12",
        "fixme": "Possivelmente impreciso.",
        "name": "Bike PoA Terminal Azenha",
        "network": "Bike PoA",
        "opening_hours": "Su-Sa 06:00-22:00",
        "phone": "+55 51 40636299",
        "ref": "18",
        "website": "http://www.movesamba.com.br/bikepoa/"
      },
      "type": "Feature"
    },
    {
      "geometry": {
        "coordinates": [
          -51.2407242,
          -30.0344221
        ],
        "type": "Point"
      },
      "id": 2163724251,
      "properties": {
        "addr:housenumber": "551",
        "addr:postcode": "90010-120",
        "addr:street": "Avenida Presidente Jo\u00e3o Goulart",
        "amenity": "bicycle_rental",
        "capacity": "12",
        "fixme": "Possivelmente impreciso.",
        "name": "Bike PoA Usina do Gas\u00f4metro",
        "network": "Bike PoA",
        "opening_hours": "Su-Sa 06:00-22:00",
        "phone": "+55 51 40636299",
        "ref": "4",
        "website": "http://www.movesamba.com.br/bikepoa/"
      },
      "type": "Feature"
    },
    {
      "geometry": {
        "coordinates": [
          -51.2086991,
          -30.0291069
        ],
        "type": "Point"
      },
      "id": 2165260133,
      "properties": {
        "amenity": "bicycle_rental",
        "capacity": "2",
        "fixme": "Possivelmente impreciso.",
        "name": "Bike PoA Avenida Independ\u00eancia",
        "network": "Bike PoA",
        "opening_hours": "Su-Sa 06:00-22:00",
        "phone": "+55 51 40636299",
        "ref": "26",
        "website": "http://www.movesamba.com.br/bikepoa/"
      },
      "type": "Feature"
    },
    {
      "geometry": {
        "coordinates": [
          -51.2038324,
          -30.0384423
        ],
        "type": "Point"
      },
      "id": 2165260134,
      "properties": {
        "amenity": "bicycle_rental",
        "capacity": "2",
        "fixme": "Possivelmente impreciso.",
        "name": "Bike PoA Avenida Prot\u00e1sio Alves",
        "network": "Bike PoA",
        "opening_hours": "Su-Sa 06:00-22:00",
        "phone": "+55 51 40636299",
        "ref": "27",
        "website": "http://www.movesamba.com.br/bikepoa/"
      },
      "type": "Feature"
    },
    {
      "geometry": {
        "coordinates": [
          -51.2107941,
          -30.0318676
        ],
        "type": "Point"
      },
      "id": 2165260135,
      "properties": {
        "amenity": "bicycle_rental",
        "bicycle": "yes",
        "capacity": "10",
        "crossing": "traffic_signals",
        "fixme": "Possivelmente impreciso.",
        "highway": "crossing",
        "name": "Bike PoA Avenida Vasco da Gama",
        "network": "Bike PoA",
        "opening_hours": "Su-Sa 06:00-22:00",
        "operator": "Samba",
        "phone": "+55 51 40636299",
        "ref": "38",
        "website": "http://www.movesamba.com.br/bikepoa/"
      },
      "type": "Feature"
    },
    {
      "geometry": {
        "coordinates": [
          -51.1189467,
          -30.0729566
        ],
        "type": "Point"
      },
      "id": 2165260136,
      "properties": {
        "amenity": "bicycle_rental",
        "capacity": "2",
        "fixme": "Possivelmente impreciso.",
        "name": "Bike PoA Campus da UFRGS Agronomia",
        "network": "Bike PoA",
        "opening_hours": "Su-Sa 06:00-22:00",
        "phone": "+55 51 40636299",
        "ref": "24",
        "website": "http://www.movesamba.com.br/bikepoa/"
      },
      "type": "Feature"
    },
    {
      "geometry": {
        "coordinates": [
          -51.1228529,
          -30.0766137
        ],
        "type": "Point"
      },
      "id": 2165260137,
      "properties": {
        "amenity": "bicycle_rental",
        "capacity": "2",
        "fixme": "Possivelmente impreciso.",
        "name": "Bike PoA Campus da UFRGS Veterin\u00e1ria",
        "network": "Bike PoA",
        "opening_hours": "Su-Sa 06:00-22:00",
        "phone": "+55 51 40636299",
        "ref": "25",
        "website": "http://www.movesamba.com.br/bikepoa/"
      },
      "type": "Feature"
    },
    {
      "geometry": {
        "coordinates": [
          -51.2213457,
          -30.0338001
        ],
        "type": "Point"
      },
      "id": 2165260138,
      "properties": {
        "amenity": "bicycle_rental",
        "capacity": "2",
        "fixme": "Possivelmente impreciso.",
        "name": "Bike PoA Campus da UFRGS",
        "network": "Bike PoA",
        "opening_hours": "Su-Sa 06:00-22:00",
        "phone": "+55 51 40636299",
        "ref": "23",
        "website": "http://www.movesamba.com.br/bikepoa/"
      },
      "type": "Feature"
    },
    {
      "geometry": {
        "coordinates": [
          -51.1736178,
          -30.056258
        ],
        "type": "Point"
      },
      "id": 2165260139,
      "properties": {
        "amenity": "bicycle_rental",
        "capacity": "2",
        "fixme": "Possivelmente impreciso.",
        "name": "Bike PoA Complexo PUC",
        "network": "Bike PoA",
        "opening_hours": "Su-Sa 06:00-22:00",
        "phone": "+55 51 40636299",
        "ref": "21",
        "website": "http://www.movesamba.com.br/bikepoa/"
      },
      "type": "Feature"
    },
    {
      "geometry": {
        "coordinates": [
          -51.173436,
          -30.0599406
        ],
        "type": "Point"
      },
      "id": 2165260140,
      "properties": {
        "amenity": "bicycle_rental",
        "capacity": "2",
        "fixme": "Possivelmente impreciso.",
        "name": "Bike PoA Complexo PUC",
        "network": "Bike PoA",
        "opening_hours": "Su-Sa 06:00-22:00",
        "phone": "+55 51 40636299",
        "ref": "22",
        "website": "http://www.movesamba.com.br/bikepoa/"
      },
      "type": "Feature"
    },
    {
      "geometry": {
        "coordinates": [
          -51.16336,
          -30.0250844
        ],
        "type": "Point"
      },
      "id": 2165260141,
      "properties": {
        "amenity": "bicycle_rental",
        "capacity": "2",
        "fixme": "Possivelmente impreciso.",
        "name": "Bike PoA Iguatemi Shopping",
        "network": "Bike PoA",
        "opening_hours": "Su-Sa 06:00-22:00",
        "phone": "+55 51 40636299",
        "ref": "30",
        "website": "http://www.movesamba.com.br/bikepoa/"
      },
      "type": "Feature"
    },
    {
      "geometry": {
        "coordinates": [
          -51.2271552,
          -30.0540844
        ],
        "type": "Point"
      },
      "id": 2165260142,
      "properties": {
        "amenity": "bicycle_rental",
        "capacity": "12",
        "name": "Bike PoA Menino Deus - Botafogo",
        "network": "Bike PoA",
        "opening_hours": "Su-Sa 06:00-22:00",
        "phone": "+55 51 40636299",
        "ref": "16",
        "website": "http://www.movesamba.com.br/bikepoa/"
      },
      "type": "Feature"
    },
    {
      "geometry": {
        "coordinates": [
          -51.2005562,
          -30.0253092
        ],
        "type": "Point"
      },
      "id": 2165260143,
      "properties": {
        "amenity": "bicycle_rental",
        "capacity": "2",
        "fixme": "Possivelmente impreciso.",
        "name": "Bike PoA Parc\u00e3o",
        "network": "Bike PoA",
        "opening_hours": "Su-Sa 06:00-22:00",
        "phone": "+55 51 40636299",
        "ref": "32",
        "website": "http://www.movesamba.com.br/bikepoa/"
      },
      "type": "Feature"
    },
    {
      "geometry": {
        "coordinates": [
          -51.2005857,
          -30.0284055
        ],
        "type": "Point"
      },
      "id": 2165260144,
      "properties": {
        "amenity": "bicycle_rental",
        "capacity": "2",
        "fixme": "Possivelmente impreciso.",
        "name": "Bike PoA Parc\u00e3o",
        "network": "Bike PoA",
        "opening_hours": "Su-Sa 06:00-22:00",
        "phone": "+55 51 40636299",
        "ref": "31",
        "website": "http://www.movesamba.com.br/bikepoa/"
      },
      "type": "Feature"
    },
    {
      "geometry": {
        "coordinates": [
          -51.1868541,
          -30.036654
        ],
        "type": "Point"
      },
      "id": 2165260145,
      "properties": {
        "amenity": "bicycle_rental",
        "capacity": "2",
        "fixme": "Possivelmente impreciso.",
        "name": "Bike PoA Pra\u00e7a da Encol",
        "network": "Bike PoA",
        "opening_hours": "Su-Sa 06:00-22:00",
        "phone": "+55 51 40636299",
        "ref": "39",
        "website": "http://www.movesamba.com.br/bikepoa/"
      },
      "type": "Feature"
    },
    {
      "geometry": {
        "coordinates": [
          -51.2249309,
          -30.0358127
        ],
        "type": "Point"
      },
      "id": 2165260146,
      "properties": {
        "amenity": "bicycle_rental",
        "capacity": "2",
        "fixme": "Possivelmente impreciso.",
        "name": "Bike PoA Reden\u00e7\u00e3o Brique",
        "network": "Bike PoA",
        "opening_hours": "Su-Sa 06:00-22:00",
        "phone": "+55 51 40636299",
        "ref": "9",
        "website": "http://www.movesamba.com.br/bikepoa/"
      },
      "type": "Feature"
    },
    {
      "geometry": {
        "coordinates": [
          -51.2189723,
          -30.0234581
        ],
        "type": "Point"
      },
      "id": 2165260147,
      "properties": {
        "amenity": "bicycle_rental",
        "capacity": "2",
        "fixme": "Possivelmente impreciso.",
        "name": "Bike PoA Rodovi\u00e1ria",
        "network": "Bike PoA",
        "opening_hours": "Su-Sa 06:00-22:00",
        "phone": "+55 51 40636299",
        "ref": "19",
        "website": "http://www.movesamba.com.br/bikepoa/"
      },
      "type": "Feature"
    },
    {
      "geometry": {
        "coordinates": [
          -51.2109656,
          -30.0361035
        ],
        "type": "Point"
      },
      "id": 2165260148,
      "properties": {
        "amenity": "bicycle_rental",
        "capacity": "12",
        "fixme": "Possivelmente impreciso.",
        "name": "Bike PoA Reden\u00e7\u00e3o Mercadinho",
        "network": "Bike PoA",
        "opening_hours": "Su-Sa 06:00-22:00",
        "phone": "+55 51 40636299",
        "ref": "10",
        "website": "http://www.movesamba.com.br/bikepoa/"
      },
      "type": "Feature"
    },
    {
      "geometry": {
        "coordinates": [
          -51.2216077,
          -30.0477894
        ],
        "type": "Point"
      },
      "id": 2165260149,
      "properties": {
        "amenity": "bicycle_rental",
        "capacity": "2",
        "fixme": "Possivelmente impreciso.",
        "name": "Bike PoA Shopping Jo\u00e3o Pessoa",
        "network": "Bike PoA",
        "opening_hours": "Su-Sa 06:00-22:00",
        "phone": "+55 51 40636299",
        "ref": "33",
        "website": "http://www.movesamba.com.br/bikepoa/"
      },
      "type": "Feature"
    },
    {
      "geometry": {
        "coordinates": [
          -51.1502131,
          -30.0661381
        ],
        "type": "Point"
      },
      "id": 2165260152,
      "properties": {
        "amenity": "bicycle_rental",
        "capacity": "2",
        "fixme": "Possivelmente impreciso.",
        "name": "Bike PoA Terminal Ant\u00f4nio de Carvalho",
        "network": "Bike PoA",
        "opening_hours": "Su-Sa 06:00-22:00",
        "phone": "+55 51 40636299",
        "ref": "29",
        "website": "http://www.movesamba.com.br/bikepoa/"
      },
      "type": "Feature"
    },
    {
      "geometry": {
        "coordinates": [
          -51.2012741,
          -30.0442345
        ],
        "type": "Point"
      },
      "id": 2165260153,
      "properties": {
        "amenity": "bicycle_rental",
        "capacity": "2",
        "fixme": "Possivelmente impreciso.",
        "name": "Bike PoA Zaffari Ipiranga",
        "network": "Bike PoA",
        "opening_hours": "Su-Sa 06:00-22:00",
        "phone": "+55 51 40636299",
        "ref": "28",
        "website": "http://www.movesamba.com.br/bikepoa/"
      },
      "type": "Feature"
    },
    {
      "geometry": {
        "coordinates": [
          -51.2308317,
          -30.0595715
        ],
        "type": "Point"
      },
      "id": 2418558652,
      "properties": {
        "amenity": "bicycle_rental",
        "capacity": "14",
        "name": "Bike PoA Menino Deus",
        "network": "Bike PoA",
        "opening_hours": "Su-Sa 06:00-22:00",
        "phone": "+55 51 40636299",
        "ref": "17",
        "website": "http://www.movesamba.com.br/bikepoa/"
      },
      "type": "Feature"
    },
    {
      "geometry": {
        "coordinates": [
          -51.2220879,
          -30.0544214
        ],
        "type": "Point"
      },
      "id": 2574331669,
      "properties": {
        "amenity": "bicycle_rental",
        "capacity": "12",
        "name": "BikePOA - Getulio Vargas"
      },
      "type": "Feature"
    },
    {
      "geometry": {
        "coordinates": [
          -51.2449687,
          -30.0771764
        ],
        "type": "Point"
      },
      "id": 2657588729,
      "properties": {
        "amenity": "bicycle_rental"
      },
      "type": "Feature"
    },
    {
      "geometry": {
        "coordinates": [
          -51.241134,
          -30.0834541
        ],
        "type": "Point"
      },
      "id": 2933400800,
      "properties": {
        "amenity": "bicycle_rental",
        "capacity": "12",
        "name": "Bike Poa"
      },
      "type": "Feature"
    }
  ],
  "type": "FeatureCollection"
}