{
  "features": [
    {
      "geometry": {
        "coordinates": [
          -48.4907059,
          -27.6833696
        ],
        "type": "Point"
      },
      "id": 1453300935,
      "properties": {
        "addr:housenumber": "2176",
        "addr:street": "Avenida Pequeno Pr\u00edncipe",
        "name": "Cicle Campeche",
        "opening_hours": "Mo-Fr 09:00-12:00,14:00-19:00; Sa 09:00-16:00",
        "shop": "bicycle"
      },
      "type": "Feature"
    },
    {
      "geometry": {
        "coordinates": [
          -48.5077987,
          -27.6000042
        ],
        "type": "Point"
      },
      "id": 1454993657,
      "properties": {
        "name": "Valdir Bikes",
        "shop": "bicycle"
      },
      "type": "Feature"
    },
    {
      "geometry": {
        "coordinates": [
          -48.5495898,
          -27.5859933
        ],
        "type": "Point"
      },
      "id": 1492870690,
      "properties": {
        "addr:housenumber": "2134",
        "addr:street": "Avenida Jornalista Rubens de Arruda Ramos",
        "name": "Bike Dream",
        "shop": "bicycle",
        "website": "http://www.bikedream.com.br"
      },
      "type": "Feature"
    },
    {
      "geometry": {
        "coordinates": [
          -48.5212023,
          -27.5864207
        ],
        "type": "Point"
      },
      "id": 1737663553,
      "properties": {
        "addr:housenumber": "269",
        "addr:postcode": "88036-270",
        "addr:street": "Rua Juv\u00eancio Costa",
        "name": "Della Bikes",
        "opening_hours": "Mo-Fr 08:30-19:00; Sa 08:30-13:00",
        "phone": "0055-48-3234-5000",
        "service:bicycle:retail": "yes",
        "shop": "bicycle",
        "website": "http://www.dellabikes.com.br"
      },
      "type": "Feature"
    },
    {
      "geometry": {
        "coordinates": [
          -48.5241789,
          -27.5801572
        ],
        "type": "Point"
      },
      "id": 1749056011,
      "properties": {
        "name": "Ciclobike Trindade",
        "service:bicycle:repair": "yes",
        "shop": "bicycle"
      },
      "type": "Feature"
    },
    {
      "geometry": {
        "coordinates": [
          -48.5215298,
          -27.5951018
        ],
        "type": "Point"
      },
      "id": 3075472394,
      "properties": {
        "addr:city": "Florian\u00f3polis",
        "addr:housenumber": "42",
        "addr:street": "Rua Francisco Goulart",
        "name": "Garupa",
        "opening_hours": "Mo-Fr 10:00-20:00; Sa 10:00-14:00",
        "shop": "bicycle",
        "website": "http://garupa.bike/"
      },
      "type": "Feature"
    }
  ],
  "type": "FeatureCollection"
}