{
  "features": [
    {
      "geometry": {
        "coordinates": [
          -49.2678432,
          -25.4237831
        ],
        "type": "Point"
      },
      "id": 692766520,
      "properties": {
        "addr:city": "Curitiba",
        "addr:country": "BR",
        "addr:housenumber": "130",
        "addr:street": "Avenida Jo\u00e3o Gualberto",
        "name": "Cicles Jaime",
        "service:bicycle:cleaning": "yes",
        "service:bicycle:diy": "no",
        "service:bicycle:pump": "yes",
        "service:bicycle:rental": "yes",
        "service:bicycle:repair": "yes",
        "service:bicycle:retail": "yes",
        "service:bicycle:second_hand": "yes",
        "shop": "bicycle"
      },
      "type": "Feature"
    },
    {
      "geometry": {
        "coordinates": [
          -49.2593641,
          -25.4442578
        ],
        "type": "Point"
      },
      "id": 839605954,
      "properties": {
        "name": "Cicles Jaime",
        "shop": "bicycle"
      },
      "type": "Feature"
    },
    {
      "geometry": {
        "coordinates": [
          -49.3323469,
          -25.4839088
        ],
        "type": "Point"
      },
      "id": 3032576505,
      "properties": {
        "addr:city": "Curitiba",
        "addr:country": "BR",
        "addr:housename": "Loja 02",
        "addr:housenumber": "847",
        "addr:street": "Rua Arnaldo Th\u00e1",
        "name": "New Center Bike",
        "phone": "(41) 3288-1112",
        "service:bicycle:cleaning": "yes",
        "service:bicycle:diy": "no",
        "service:bicycle:pump": "yes",
        "service:bicycle:rental": "no",
        "service:bicycle:repair": "yes",
        "service:bicycle:retail": "no",
        "service:bicycle:second_hand": "yes",
        "shop": "bicycle"
      },
      "type": "Feature"
    },
    {
      "geometry": {
        "coordinates": [
          -49.3234623,
          -25.4805107
        ],
        "type": "Point"
      },
      "id": 3086805369,
      "properties": {
        "addr:city": "Curitiba",
        "addr:country": "BR",
        "addr:housenumber": "39",
        "addr:street": "Avenida Frederico Lambertucci",
        "name": "Cicles Souza",
        "phone": "41 30397856",
        "service:bicycle:cleaning": "yes",
        "service:bicycle:diy": "no",
        "service:bicycle:pump": "yes",
        "service:bicycle:rental": "no",
        "service:bicycle:repair": "yes",
        "service:bicycle:retail": "no",
        "service:bicycle:second_hand": "yes",
        "shop": "bicycle",
        "website": "www.ciclessouza.com.br"
      },
      "type": "Feature"
    },
    {
      "geometry": {
        "coordinates": [
          -49.2451333,
          -25.4719935
        ],
        "type": "Point"
      },
      "id": 3101885279,
      "properties": {
        "addr:city": "Curitiba",
        "addr:country": "BR",
        "addr:housenumber": "4827",
        "addr:street": "Rua Canal Bel\u00e9m",
        "name": "Ara\u00fajo Bike",
        "phone": "41 3296 1253",
        "service:bicycle:cleaning": "yes",
        "service:bicycle:diy": "no",
        "service:bicycle:pump": "yes",
        "service:bicycle:rental": "no",
        "service:bicycle:repair": "yes",
        "service:bicycle:retail": "no",
        "service:bicycle:second_hand": "yes",
        "shop": "bicycle"
      },
      "type": "Feature"
    },
    {
      "geometry": {
        "coordinates": [
          -49.2501831,
          -25.489927
        ],
        "type": "Point"
      },
      "id": 3146255189,
      "properties": {
        "addr:city": "Curitiba",
        "addr:country": "BR",
        "addr:housenumber": "1878",
        "addr:street": "Rua Professor Jo\u00e3o Soares Barcelos",
        "name": "Cicles Barcelos",
        "phone": "+55 (41) 3276-0227",
        "service:bicycle:cleaning": "yes",
        "service:bicycle:diy": "no",
        "service:bicycle:pump": "yes",
        "service:bicycle:rental": "no",
        "service:bicycle:repair": "yes",
        "service:bicycle:retail": "no",
        "service:bicycle:second_hand": "yes",
        "shop": "bicycle"
      },
      "type": "Feature"
    },
    {
      "geometry": {
        "coordinates": [
          -49.2507589,
          -25.4739186
        ],
        "type": "Point"
      },
      "id": 3185524347,
      "properties": {
        "addr:city": "Curitiba",
        "addr:country": "BR",
        "addr:housenumber": "5233",
        "addr:street": "Avenida Marechal Floriano Peixoto",
        "name": "D Fabris",
        "phone": "+554132764551",
        "service:bicycle:cleaning": "yes",
        "service:bicycle:diy": "no",
        "service:bicycle:pump": "yes",
        "service:bicycle:rental": "no",
        "service:bicycle:repair": "yes",
        "service:bicycle:retail": "no",
        "service:bicycle:second_hand": "yes",
        "shop": "bicycle"
      },
      "type": "Feature"
    },
    {
      "geometry": {
        "coordinates": [
          -49.2466464,
          -25.4791488
        ],
        "type": "Point"
      },
      "id": 3224359953,
      "properties": {
        "addr:city": "Curitiba",
        "addr:country": "BR",
        "addr:housenumber": "564",
        "addr:street": "Rua J\u00falio Cesar Ribeiro de Sousa",
        "name": "RL Bikes",
        "phone": "55 41 30273566",
        "service:bicycle:cleaning": "yes",
        "service:bicycle:diy": "no",
        "service:bicycle:pump": "yes",
        "service:bicycle:rental": "no",
        "service:bicycle:repair": "yes",
        "service:bicycle:retail": "no",
        "service:bicycle:second_hand": "yes",
        "shop": "bicycle"
      },
      "type": "Feature"
    },
    {
      "geometry": {
        "coordinates": [
          -49.2456307,
          -25.4172657
        ],
        "type": "Point"
      },
      "id": 3235479281,
      "properties": {
        "addr:city": "Curitiba",
        "addr:country": "BR",
        "addr:housenumber": "1559",
        "addr:state": "PR",
        "addr:street": "Rua Fernandes de Barros",
        "name": "Jamur Bikes",
        "service:bicycle:cleaning": "yes",
        "service:bicycle:diy": "no",
        "service:bicycle:pump": "yes",
        "service:bicycle:rental": "no",
        "service:bicycle:repair": "yes",
        "service:bicycle:retail": "yes",
        "service:bicycle:second_hand": "no",
        "shop": "bicycle",
        "website": "http://www.jamurbikes.com.br"
      },
      "type": "Feature"
    },
    {
      "geometry": {
        "coordinates": [
          -49.2476207,
          -25.4176057
        ],
        "type": "Point"
      },
      "id": 3254702383,
      "properties": {
        "addr:city": "Curitiba",
        "addr:country": "BR",
        "addr:housenumber": "1450",
        "addr:street": "Avenida Augusto Stresser",
        "name": "Bike Portella",
        "phone": "55 41 3262 3707",
        "service:bicycle:cleaning": "yes",
        "service:bicycle:diy": "no",
        "service:bicycle:pump": "yes",
        "service:bicycle:rental": "no",
        "service:bicycle:repair": "yes",
        "service:bicycle:retail": "yes",
        "service:bicycle:second_hand": "yes",
        "shop": "bicycle",
        "website": "http://www.bikeportella.com.br"
      },
      "type": "Feature"
    },
    {
      "geometry": {
        "coordinates": [
          -49.2974365,
          -25.4252834
        ],
        "type": "Point"
      },
      "id": 3274591344,
      "properties": {
        "addr:city": "Curitiba",
        "addr:country": "BR",
        "addr:housenumber": "231",
        "addr:street": "Rua Jacarezinho",
        "email": "s.bikesespecializadas@yahoo.com.br",
        "name": "S Bikes",
        "phone": "55 41 3339 9615",
        "service:bicycle:cleaning": "yes",
        "service:bicycle:diy": "no",
        "service:bicycle:pump": "yes",
        "service:bicycle:rental": "no",
        "service:bicycle:repair": "yes",
        "service:bicycle:retail": "yes",
        "service:bicycle:second_hand": "yes",
        "shop": "bicycle"
      },
      "type": "Feature"
    },
    {
      "geometry": {
        "coordinates": [
          -49.3098963,
          -25.4890672
        ],
        "type": "Point"
      },
      "id": 3304167063,
      "properties": {
        "addr:city": "Curitiba",
        "addr:country": "BR",
        "addr:housenumber": "1578",
        "addr:street": "Rua Pedro Zagonel",
        "name": "Bike Sport",
        "phone": "+55 41 32480535",
        "service:bicycle:cleaning": "yes",
        "service:bicycle:diy": "no",
        "service:bicycle:pump": "yes",
        "service:bicycle:rental": "no",
        "service:bicycle:repair": "yes",
        "service:bicycle:retail": "no",
        "service:bicycle:second_hand": "yes",
        "shop": "bicycle"
      },
      "type": "Feature"
    },
    {
      "geometry": {
        "coordinates": [
          -49.2942215,
          -25.4823433
        ],
        "type": "Point"
      },
      "id": 3329708563,
      "properties": {
        "addr:city": "Curitiba",
        "addr:housenumber": "133",
        "addr:street": "Rua Jo\u00e3o Palomeque",
        "name": "Cicles Muchau",
        "phone": "55 42 3246-2154",
        "service:bicycle:cleaning": "yes",
        "service:bicycle:diy": "no",
        "service:bicycle:pump": "yes",
        "service:bicycle:rental": "no",
        "service:bicycle:repair": "yes",
        "service:bicycle:retail": "no",
        "service:bicycle:second_hand": "yes",
        "shop": "bicycle"
      },
      "type": "Feature"
    }
  ],
  "type": "FeatureCollection"
}