{
  "features": [
    {
      "geometry": {
        "coordinates": [
          -47.8510752,
          -15.7918197
        ],
        "type": "Point"
      },
      "id": 2252951234,
      "properties": {
        "shop": "bicycle"
      },
      "type": "Feature"
    },
    {
      "geometry": {
        "coordinates": [
          -47.8882043,
          -15.7588565
        ],
        "type": "Point"
      },
      "id": 2867872022,
      "properties": {
        "addr:city": "Bras\u00edlia",
        "addr:postcode": "70753-040",
        "addr:street": "CLN 110 Bloco D loja 18",
        "name": "Cycling Bike Shop",
        "opening_hours": "Mo-Fr 09:00-19:00;Sa 09:00-15:00",
        "phone": "+55 61 32740591",
        "shop": "bicycle",
        "website": "http://www.cycling.com.br"
      },
      "type": "Feature"
    },
    {
      "geometry": {
        "coordinates": [
          -47.923147,
          -15.8270593
        ],
        "type": "Point"
      },
      "id": 2867872023,
      "properties": {
        "addr:city": "Bras\u00edlia",
        "addr:street": "CLS 315 Bloco C loja 37",
        "name": "Commute Bike Studio",
        "opening_hours": "Mo-Fr 09:00-19:00; Sa 09:00-14:00",
        "shop": "bicycle"
      },
      "type": "Feature"
    },
    {
      "geometry": {
        "coordinates": [
          -47.9122492,
          -15.8190698
        ],
        "type": "Point"
      },
      "id": 2867872024,
      "properties": {
        "addr:city": "Bras\u00edlia",
        "addr:postcode": "70363-530",
        "addr:street": "CLS 310 Bloco C lojas 32/34",
        "name": "Sport Cicle 310",
        "shop": "bicycle"
      },
      "type": "Feature"
    },
    {
      "geometry": {
        "coordinates": [
          -47.8802117,
          -15.7602646
        ],
        "type": "Point"
      },
      "id": 2882764038,
      "properties": {
        "addr:street": "CLN 408",
        "name": "Biciclopecas",
        "shop": "bicycle"
      },
      "type": "Feature"
    },
    {
      "geometry": {
        "coordinates": [
          -47.8969079,
          -15.7462528
        ],
        "type": "Point"
      },
      "id": 2894699122,
      "properties": {
        "addr:city": "Bras\u00edlia",
        "addr:place": "CLRN 714 bloco D loja 57",
        "addr:postcode": "70760-554",
        "name": "Bike Sport",
        "shop": "bicycle",
        "website": "http://www.bikesportbr.com.br"
      },
      "type": "Feature"
    },
    {
      "geometry": {
        "coordinates": [
          -47.8996473,
          -15.8194232
        ],
        "type": "Point"
      },
      "id": 2894699123,
      "properties": {
        "addr:city": "Bras\u00edlia",
        "addr:street": "CLS 208 bloco B loja 22",
        "name": "Bike Tech Bras\u00edlia",
        "opening_hours": "Mo-Fr 08:00-20:00; Sa 08:00-18:00",
        "shop": "bicycle",
        "website": "http://www.biketechbrasilia.com.br"
      },
      "type": "Feature"
    },
    {
      "geometry": {
        "coordinates": [
          -47.9158036,
          -15.8311054
        ],
        "type": "Point"
      },
      "id": 2894699124,
      "properties": {
        "addr:city": "Bras\u00edlia",
        "addr:street": "CLS 214 bloco B loja 22 sobreloja",
        "name": "Norte Cicle",
        "shop": "bicycle",
        "website": "http://nortecicle.com.br"
      },
      "type": "Feature"
    },
    {
      "geometry": {
        "coordinates": [
          -47.8915583,
          -15.7460815
        ],
        "type": "Point"
      },
      "id": 2894699168,
      "properties": {
        "addr:street": "CLN 114 bloco B loja 36",
        "name": "Unibike",
        "shop": "bicycle",
        "website": "http://www.unibike.com.br"
      },
      "type": "Feature"
    },
    {
      "geometry": {
        "coordinates": [
          -47.8781845,
          -15.7663192
        ],
        "type": "Point"
      },
      "id": 2934591480,
      "properties": {
        "addr:postcode": "70847-520",
        "addr:street": "CLN 407",
        "name": "Girabike",
        "phone": "+55 61 30456166",
        "shop": "bicycle",
        "website": "http://www.girabike.com.br"
      },
      "type": "Feature"
    },
    {
      "geometry": {
        "coordinates": [
          -47.8490832,
          -15.7946717
        ],
        "type": "Point"
      },
      "id": 3021297808,
      "properties": {
        "name": "New Bike",
        "opening_hours": "Mo-Sa 08:00-18:00",
        "shop": "bicycle"
      },
      "type": "Feature"
    },
    {
      "geometry": {
        "coordinates": [
          -47.8754039,
          -15.7796949
        ],
        "type": "Point"
      },
      "id": 3037052688,
      "properties": {
        "addr:city": "Bras\u00edlia",
        "addr:street": "CLN 403 Bloco B Loja 33",
        "addr:suburb": "Asa Norte",
        "name": "bike'n FIX",
        "phone": "+55 61 3327-1604",
        "shop": "bicycle",
        "website": "http://www.popobrasil.com"
      },
      "type": "Feature"
    },
    {
      "geometry": {
        "coordinates": [
          -47.8830204,
          -15.7775569
        ],
        "type": "Point"
      },
      "id": 3069564629,
      "properties": {
        "name": "Bike Brothers",
        "opening_hours": "Mo-Fr 08:00-19:00;Sa 08:00-14:00",
        "phone": "+55 61 33269170",
        "shop": "bicycle"
      },
      "type": "Feature"
    },
    {
      "geometry": {
        "coordinates": [
          -47.8816456,
          -15.75335
        ],
        "type": "Point"
      },
      "id": 3222516872,
      "properties": {
        "name": "JC Bikes",
        "shop": "bicycle"
      },
      "type": "Feature"
    },
    {
      "geometry": {
        "coordinates": [
          -47.8998514,
          -15.7357196
        ],
        "type": "Point"
      },
      "id": 3223541614,
      "properties": {
        "name": "Transforme Bike",
        "shop": "bicycle"
      },
      "type": "Feature"
    },
    {
      "geometry": {
        "coordinates": [
          -47.8938513,
          -15.7404337
        ],
        "type": "Point"
      },
      "id": 3223541618,
      "properties": {
        "name": "Disk Bike",
        "shop": "bicycle"
      },
      "type": "Feature"
    },
    {
      "geometry": {
        "coordinates": [
          -47.8888417,
          -15.7762117
        ],
        "type": "Point"
      },
      "id": 3250198680,
      "properties": {
        "name": "Ciclista Canarinho",
        "shop": "bicycle"
      },
      "type": "Feature"
    }
  ],
  "type": "FeatureCollection"
}