{
  "features": [
    {
      "geometry": {
        "coordinates": [
          -51.2204853,
          -30.036153
        ],
        "type": "Point"
      },
      "id": 1243941793,
      "properties": {
        "addr:housenumber": "449",
        "addr:street": "Avenida Jo\u00e3o Pessoa",
        "name": "Ciclel\u00e2ndia",
        "opening_hours": "Mo-Fr 08:30-19:00; Sa 08:30-17:30; Su 10:00-16:00",
        "phone": "+55 51 32126955",
        "service:bicycle:repair": "yes",
        "service:bicycle:retail": "yes",
        "shop": "bicycle",
        "website": "http://www.ciclelandia.com.br"
      },
      "type": "Feature"
    },
    {
      "geometry": {
        "coordinates": [
          -51.1977209,
          -30.023312
        ],
        "type": "Point"
      },
      "id": 2168287721,
      "properties": {
        "addr:housenumber": "1090",
        "addr:postcode": "90510-003",
        "addr:street": "Avenida 24 de Outubro",
        "email": "biketech@biketech-rs.com.br",
        "name": "BikeTech",
        "opening_hours": "Mo-Fr 09:30-19:00; Sa 09:00-17:00",
        "phone": "+55 51 33467533",
        "service:bicycle:cleaning": "yes",
        "service:bicycle:repair": "yes",
        "service:bicycle:retail": "yes",
        "shop": "bicycle",
        "start_date": "1991",
        "website": "http://www.biketech-rs.com.br"
      },
      "type": "Feature"
    },
    {
      "geometry": {
        "coordinates": [
          -51.1888287,
          -30.0103367
        ],
        "type": "Point"
      },
      "id": 2168287728,
      "properties": {
        "addr:housenumber": "390",
        "addr:postcode": "90550-142",
        "addr:street": "Rua Dom Pedro II",
        "email": "atendimento@espacodociclista.com.br",
        "name": "Espa\u00e7o do Ciclista",
        "opening_hours": "Mo-Fr 09:00-18:30; Sa 09:00-16:00",
        "phone": "+55 51 30845545",
        "service:bicycle:retail": "yes",
        "shop": "bicycle",
        "start_date": "2010",
        "website": "http://www.espacodociclista.com.br",
        "wheelchair": "yes"
      },
      "type": "Feature"
    },
    {
      "geometry": {
        "coordinates": [
          -51.205731,
          -30.043786
        ],
        "type": "Point"
      },
      "id": 2168882747,
      "properties": {
        "addr:housename": "Loja 7",
        "addr:housenumber": "2727",
        "addr:postcode": "90160-091",
        "addr:street": "Avenida Ipiranga",
        "name": "Adventure Bike Shop",
        "opening_hours": "Mo-Fr 09:00-12:00,13:30-18:30; Sa 09:00-18:00",
        "phone": "+55 51 32196245",
        "service:bicycle:repair": "yes",
        "service:bicycle:retail": "yes",
        "shop": "bicycle",
        "start_date": "2010",
        "website": "http://www.adventurebike.com.br",
        "wheelchair": "yes"
      },
      "type": "Feature"
    },
    {
      "geometry": {
        "coordinates": [
          -51.1496052,
          -30.0634861
        ],
        "type": "Point"
      },
      "id": 2168882748,
      "properties": {
        "addr:housenumber": "331",
        "addr:postcode": "91430-000",
        "addr:street": "Avenida Ant\u00f4nio de Carvalho",
        "name": "Adventure Bike Shop",
        "phone": "+55 51 33345593",
        "service:bicycle:repair": "yes",
        "shop": "bicycle",
        "website": "http://www.adventurebike.com.br"
      },
      "type": "Feature"
    },
    {
      "geometry": {
        "coordinates": [
          -51.1519196,
          -30.0047224
        ],
        "type": "Point"
      },
      "id": 2168882749,
      "properties": {
        "addr:housenumber": "125",
        "addr:postcode": "91050-340",
        "addr:street": "Avenida Quito",
        "name": "Bicicletas Lind\u00f3ia",
        "opening_hours": "Mo-Sa 09:00-20:00",
        "phone": "+55 51 33446546",
        "service:bicycle:repair": "yes",
        "shop": "bicycle",
        "wheelchair": "yes"
      },
      "type": "Feature"
    },
    {
      "geometry": {
        "coordinates": [
          -51.1957262,
          -30.0386625
        ],
        "type": "Point"
      },
      "id": 2168882750,
      "properties": {
        "addr:housenumber": "2665",
        "addr:postcode": "90640-003",
        "addr:street": "Rua Vicente da Fontoura",
        "name": "Bike Point",
        "phone": "+55 51 33308984",
        "shop": "bicycle"
      },
      "type": "Feature"
    },
    {
      "geometry": {
        "coordinates": [
          -51.253148,
          -30.104441
        ],
        "type": "Point"
      },
      "id": 2168882751,
      "properties": {
        "addr:housenumber": "1798",
        "addr:postcode": "91900-000",
        "addr:street": "Avenida Wenceslau Escobar",
        "name": "Boutique Moto e Bike",
        "opening_hours": "Mo-Fr 08:00-18:30; Sa 08:00-13:30",
        "phone": "+55 51 32688458",
        "service:bicycle:repair": "yes",
        "service:motorcycle:parts": "yes",
        "service:motorcycle:repair": "yes",
        "shop": "bicycle",
        "wheelchair": "yes"
      },
      "type": "Feature"
    },
    {
      "geometry": {
        "coordinates": [
          -51.141568,
          -30.0445609
        ],
        "type": "Point"
      },
      "id": 2168882752,
      "properties": {
        "addr:housename": "Loja 10",
        "addr:housenumber": "7191",
        "addr:postcode": "91310-001",
        "addr:street": "Avenida Prot\u00e1sio Alves",
        "alt_name": "Companhia do Ciclista Filial",
        "fixme": "Onde fica isto exatamente?",
        "name": "Cia do Ciclista Filial",
        "phone": "+55 51 39070920",
        "service:bicycle:repair": "yes",
        "service:bicycle:retail": "yes",
        "shop": "bicycle",
        "website": "http://www.ciadociclista.com.br"
      },
      "type": "Feature"
    },
    {
      "geometry": {
        "coordinates": [
          -51.2543285,
          -30.1082778
        ],
        "type": "Point"
      },
      "id": 2168882753,
      "properties": {
        "addr:housename": "Loja 30",
        "addr:housenumber": "2247",
        "addr:postcode": "91900-000",
        "addr:street": "Avenida Wenceslau Escobar",
        "email": "dudubiketeam@hotmail.com",
        "name": "Dudu Bike Team",
        "opening_hours": "Mo-Fr 08:00-12:00,14:00-18:30",
        "phone": "+55 51 32692369",
        "service:bicycle:repair": "yes",
        "service:bicycle:retail": "yes",
        "service:bicycle:second_hand": "yes",
        "shop": "bicycle",
        "website": "http://www.dudubike.com.br"
      },
      "type": "Feature"
    },
    {
      "geometry": {
        "coordinates": [
          -51.2120037,
          -30.0642035
        ],
        "type": "Point"
      },
      "id": 2171611647,
      "properties": {
        "addr:housenumber": "990",
        "addr:postcode": "90880-001",
        "addr:street": "Avenida Doutor Carlos Barbosa",
        "name": "LB Bike",
        "opening_hours": "Mo-Fr 08:00-12:00,13:00-18:30; Sa 08:00-13:00",
        "phone": "+55 51 32197325",
        "service:bicycle:repair": "yes",
        "shop": "bicycle"
      },
      "type": "Feature"
    },
    {
      "geometry": {
        "coordinates": [
          -51.1848339,
          -30.0081276
        ],
        "type": "Point"
      },
      "id": 2171611659,
      "properties": {
        "addr:housename": "Loja 3",
        "addr:housenumber": "95",
        "addr:postcode": "91010-000",
        "addr:street": "Avenida Assis Brasil",
        "name": "M. Bike Loja 1",
        "opening_hours": "Mo-Fr 09:00-18:30; Sa 09:00-16:00",
        "phone": "+55 51 33422237",
        "service:bicycle:repair": "yes",
        "service:bicycle:retail": "yes",
        "shop": "bicycle",
        "website": "http://www.mbike.com.br"
      },
      "type": "Feature"
    },
    {
      "geometry": {
        "coordinates": [
          -51.1964813,
          -30.0155556
        ],
        "type": "Point"
      },
      "id": 2171611673,
      "properties": {
        "addr:housenumber": "1645",
        "addr:postcode": "90550-002",
        "addr:street": "Avenida Benjamin Constant",
        "name": "M. Bike Loja 2",
        "opening_hours": "Mo-Fr 09:00-18:30; Sa 09:00-16:00",
        "phone": "+55 51 33256904",
        "service:bicycle:repair": "yes",
        "service:bicycle:retail": "yes",
        "shop": "bicycle",
        "website": "http://www.mbike.com.br"
      },
      "type": "Feature"
    },
    {
      "geometry": {
        "coordinates": [
          -51.2148249,
          -30.048076
        ],
        "type": "Point"
      },
      "id": 2171611683,
      "properties": {
        "addr:housename": "Loja 113",
        "addr:housenumber": "1445",
        "addr:postcode": "90160-091",
        "addr:street": "Avenida Ipiranga",
        "name": "M. Bike Loja 4",
        "opening_hours": "Mo-Fr 09:00-18:30; Sa 09:00-16:00",
        "phone": "+55 51 30127211",
        "service:bicycle:repair": "yes",
        "service:bicycle:retail": "yes",
        "shop": "bicycle",
        "website": "http://www.mbike.com.br"
      },
      "type": "Feature"
    },
    {
      "geometry": {
        "coordinates": [
          -51.2306684,
          -30.1025846
        ],
        "type": "Point"
      },
      "id": 2171733305,
      "properties": {
        "addr:housenumber": "3000",
        "addr:postcode": "91740-000",
        "addr:street": "Avenida da Cavalhada",
        "name": "Macedo Bike",
        "phone": "+55 51 32764775",
        "service:bicycle:repair": "yes",
        "service:bicycle:retail": "yes",
        "shop": "bicycle",
        "start_date": "1937",
        "website": "http://www.macedobike.blogspot.com.br"
      },
      "type": "Feature"
    },
    {
      "geometry": {
        "coordinates": [
          -51.2117842,
          -30.0506337
        ],
        "type": "Point"
      },
      "id": 2171733311,
      "properties": {
        "addr:housenumber": "99",
        "addr:postcode": "90620-001",
        "addr:street": "Avenida Princesa Isabel",
        "name": "Paladini Bicicletas",
        "opening_hours": "Mo-Fr 09:00-18:30; Sa 09:00-17:00",
        "phone": "+55 51 30193773",
        "service:bicycle:repair": "yes",
        "service:bicycle:retail": "yes",
        "shop": "bicycle"
      },
      "type": "Feature"
    },
    {
      "geometry": {
        "coordinates": [
          -51.2256337,
          -30.0379955
        ],
        "type": "Point"
      },
      "id": 2171733318,
      "properties": {
        "addr:housenumber": "26",
        "addr:postcode": "90050-210",
        "addr:street": "Travessa do Carmo",
        "email": "sunsetbikes@hotmail.com",
        "name": "Sunset Bikes",
        "opening_hours": "Mo-Fr 09:00-18:30; Sa 09:00-16:00",
        "phone": "+55 51 33721244",
        "service:bicycle:repair": "yes",
        "service:bicycle:retail": "yes",
        "shop": "bicycle",
        "website": "http://www.sunsetbikes.com.br"
      },
      "type": "Feature"
    },
    {
      "geometry": {
        "coordinates": [
          -51.220399,
          -30.0362636
        ],
        "type": "Point"
      },
      "id": 2994579945,
      "properties": {
        "name": "Full Bike",
        "service:bicycle:repair": "yes",
        "service:bicycle:retail": "yes",
        "shop": "bicycle"
      },
      "type": "Feature"
    }
  ],
  "type": "FeatureCollection"
}