{
  "type": "FeatureCollection",
  "generator": "overpass-turbo",
  "copyright": "The data included in this document is from www.openstreetmap.org. The data is made available under ODbL.",
  "timestamp": "2014-09-16T00:54:01Z",
  "features": [
    {
      "type": "Feature",
      "id": "node/322536550",
      "properties": {
        "@id": "node/322536550",
        "amenity": "bicycle_rental",
        "name": "Casa do Ciclistas",
        "shop": "bicycle"
      },
      "geometry": {
        "type": "Point",
        "coordinates": [
          -43.6299883,
          -19.3364352
        ]
      }
    },
    {
      "type": "Feature",
      "id": "node/332238489",
      "properties": {
        "@id": "node/332238489",
        "amenity": "bicycle_rental",
        "capacity": "14",
        "name": "Cardeal Arcoverde",
        "operator": "BikeRio",
        "ref": "02",
        "source": "survey"
      },
      "geometry": {
        "type": "Point",
        "coordinates": [
          -43.1804481,
          -22.9648042
        ]
      }
    },
    {
      "type": "Feature",
      "id": "node/339680757",
      "properties": {
        "@id": "node/339680757",
        "amenity": "bicycle_rental",
        "name": "Metro Barra Funda"
      },
      "geometry": {
        "type": "Point",
        "coordinates": [
          -46.6669239,
          -23.526324
        ]
      }
    },
    {
      "type": "Feature",
      "id": "node/339682304",
      "properties": {
        "@id": "node/339682304",
        "amenity": "bicycle_rental"
      },
      "geometry": {
        "type": "Point",
        "coordinates": [
          -46.6554111,
          -23.5342672
        ]
      }
    },
    {
      "type": "Feature",
      "id": "node/339686566",
      "properties": {
        "@id": "node/339686566",
        "amenity": "bicycle_rental"
      },
      "geometry": {
        "type": "Point",
        "coordinates": [
          -46.6242717,
          -23.501537
        ]
      }
    },
    {
      "type": "Feature",
      "id": "node/365737776",
      "properties": {
        "@id": "node/365737776",
        "amenity": "bicycle_rental",
        "capacity": "14",
        "name": "Leme",
        "operator": "Pedala Rio",
        "ref": "19"
      },
      "geometry": {
        "type": "Point",
        "coordinates": [
          -43.1651439,
          -22.9623943
        ]
      }
    },
    {
      "type": "Feature",
      "id": "node/378687378",
      "properties": {
        "@id": "node/378687378",
        "amenity": "bicycle_rental",
        "capacity": "14",
        "name": "Princesa Isabel",
        "operator": "BikeRio",
        "ref": "05",
        "source": "survey"
      },
      "geometry": {
        "type": "Point",
        "coordinates": [
          -43.1731798,
          -22.9647356
        ]
      }
    },
    {
      "type": "Feature",
      "id": "node/378688422",
      "properties": {
        "@id": "node/378688422",
        "amenity": "bicycle_rental",
        "capacity": "12",
        "name": "Siqueira Campos",
        "operator": "BikeRio",
        "ref": "07",
        "source": "survey"
      },
      "geometry": {
        "type": "Point",
        "coordinates": [
          -43.1876157,
          -22.9676612
        ]
      }
    },
    {
      "type": "Feature",
      "id": "node/378689007",
      "properties": {
        "@id": "node/378689007",
        "amenity": "bicycle_rental",
        "capacity": "14",
        "name": "Santa Clara",
        "operator": "BikeRio",
        "ref": "06",
        "source": "survey"
      },
      "geometry": {
        "type": "Point",
        "coordinates": [
          -43.1859335,
          -22.9732839
        ]
      }
    },
    {
      "type": "Feature",
      "id": "node/378689662",
      "properties": {
        "@id": "node/378689662",
        "amenity": "bicycle_rental",
        "capacity": "14",
        "name": "Miguel Lemos",
        "operator": "BikeRio",
        "ref": "03",
        "source": "survey"
      },
      "geometry": {
        "type": "Point",
        "coordinates": [
          -43.1890126,
          -22.9785819
        ]
      }
    },
    {
      "type": "Feature",
      "id": "node/378690135",
      "properties": {
        "@id": "node/378690135",
        "amenity": "bicycle_rental",
        "capacity": "12",
        "name": "Posto 6",
        "operator": "BikeRio",
        "ref": "04",
        "source": "survey"
      },
      "geometry": {
        "type": "Point",
        "coordinates": [
          -43.1885899,
          -22.9859745
        ]
      }
    },
    {
      "type": "Feature",
      "id": "node/412310720",
      "properties": {
        "@id": "node/412310720",
        "amenity": "bicycle_rental",
        "name": "Cicle Calle",
        "shop": "bicycle"
      },
      "geometry": {
        "type": "Point",
        "coordinates": [
          -43.1905681,
          -22.9867153
        ]
      }
    },
    {
      "type": "Feature",
      "id": "node/462747754",
      "properties": {
        "@id": "node/462747754",
        "amenity": "bicycle_rental"
      },
      "geometry": {
        "type": "Point",
        "coordinates": [
          -46.5648631,
          -23.5389513
        ]
      }
    },
    {
      "type": "Feature",
      "id": "node/1493825875",
      "properties": {
        "@id": "node/1493825875",
        "amenity": "bicycle_rental"
      },
      "geometry": {
        "type": "Point",
        "coordinates": [
          -43.2232659,
          -22.9845932
        ]
      }
    },
    {
      "type": "Feature",
      "id": "node/1494285481",
      "properties": {
        "@id": "node/1494285481",
        "amenity": "bicycle_rental",
        "capacity": "12",
        "name": "Aníbal de Mendonça",
        "operator": "BikeRio",
        "ref": "08",
        "source": "survey"
      },
      "geometry": {
        "type": "Point",
        "coordinates": [
          -43.2114767,
          -22.9861699
        ]
      }
    },
    {
      "type": "Feature",
      "id": "node/1495570404",
      "properties": {
        "@id": "node/1495570404",
        "amenity": "bicycle_rental",
        "capacity": "12",
        "name": "Pedra do Arpoador",
        "operator": "BikeRio",
        "ref": "25",
        "source": "survey"
      },
      "geometry": {
        "type": "Point",
        "coordinates": [
          -43.1922718,
          -22.9885905
        ]
      }
    },
    {
      "type": "Feature",
      "id": "node/1513980194",
      "properties": {
        "@id": "node/1513980194",
        "amenity": "bicycle_rental",
        "capacity": "12",
        "name": "General Osório",
        "operator": "BikeRio",
        "ref": "09",
        "source": "survey"
      },
      "geometry": {
        "type": "Point",
        "coordinates": [
          -43.1971024,
          -22.9848442
        ]
      }
    },
    {
      "type": "Feature",
      "id": "node/1513980195",
      "properties": {
        "@id": "node/1513980195",
        "amenity": "bicycle_rental",
        "capacity": "12",
        "name": "Posto 9",
        "operator": "BikeRio",
        "ref": "26",
        "source": "survey"
      },
      "geometry": {
        "type": "Point",
        "coordinates": [
          -43.2007732,
          -22.9864795
        ]
      }
    },
    {
      "type": "Feature",
      "id": "node/1565182295",
      "properties": {
        "@id": "node/1565182295",
        "addr:housenumber": "128",
        "addr:street": "Praia do Flamengo",
        "amenity": "bicycle_rental",
        "name": "Ferreira Viana",
        "operator": "BikeRio",
        "ref": "45"
      },
      "geometry": {
        "type": "Point",
        "coordinates": [
          -43.1741588,
          -22.9291889
        ]
      }
    },
    {
      "type": "Feature",
      "id": "node/1565182303",
      "properties": {
        "@id": "node/1565182303",
        "amenity": "bicycle_rental",
        "capacity": "14",
        "name": "Largo do Machado",
        "operator": "BikeRio",
        "ref": "40",
        "website": "http://www.mobilicidade.com.br/bikerio.asp"
      },
      "geometry": {
        "type": "Point",
        "coordinates": [
          -43.1778508,
          -22.9306081
        ]
      }
    },
    {
      "type": "Feature",
      "id": "node/1579719428",
      "properties": {
        "@id": "node/1579719428",
        "amenity": "bicycle_rental",
        "capacity": "14",
        "name": "Pão-de-Açúcar",
        "operator": "BikeRio",
        "ref": "56",
        "website": "http://www.mobilicidade.com.br/bikerio.asp"
      },
      "geometry": {
        "type": "Point",
        "coordinates": [
          -43.1656089,
          -22.9550046
        ]
      }
    },
    {
      "type": "Feature",
      "id": "node/1579749719",
      "properties": {
        "@id": "node/1579749719",
        "amenity": "bicycle_rental",
        "capacity": "12",
        "name": "UFRJ Praia Vermelha",
        "operator": "BikeRio",
        "ref": "57",
        "website": "http://www.mobilicidade.com.br/bikerio.asp"
      },
      "geometry": {
        "type": "Point",
        "coordinates": [
          -43.1763342,
          -22.9528449
        ]
      }
    },
    {
      "type": "Feature",
      "id": "node/1671951925",
      "properties": {
        "@id": "node/1671951925",
        "amenity": "bicycle_rental",
        "name": "Casa Amarela"
      },
      "geometry": {
        "type": "Point",
        "coordinates": [
          -37.9621806,
          -12.4920432
        ]
      }
    },
    {
      "type": "Feature",
      "id": "node/1672903651",
      "properties": {
        "@id": "node/1672903651",
        "amenity": "bicycle_rental",
        "capacity": "12",
        "name": "Avenida Portugal",
        "operator": "BikeRio",
        "ref": "58",
        "website": "http://www.mobilicidade.com.br/bikerio.asp"
      },
      "geometry": {
        "type": "Point",
        "coordinates": [
          -43.1690119,
          -22.95294
        ]
      }
    },
    {
      "type": "Feature",
      "id": "node/1701761169",
      "properties": {
        "@id": "node/1701761169",
        "amenity": "bicycle_rental",
        "capacity": "12",
        "name": "Pacheco Leão",
        "operator": "BikeRio",
        "ref": "36",
        "website": "http://www.mobilicidade.com.br/bikerio.asp"
      },
      "geometry": {
        "type": "Point",
        "coordinates": [
          -43.2225105,
          -22.9652738
        ]
      }
    },
    {
      "type": "Feature",
      "id": "node/1713528556",
      "properties": {
        "@id": "node/1713528556",
        "amenity": "bicycle_rental"
      },
      "geometry": {
        "type": "Point",
        "coordinates": [
          -35.6989831,
          -9.6539139
        ]
      }
    },
    {
      "type": "Feature",
      "id": "node/1731971676",
      "properties": {
        "@id": "node/1731971676",
        "amenity": "bicycle_rental",
        "name": "Pedalusp"
      },
      "geometry": {
        "type": "Point",
        "coordinates": [
          -46.7132329,
          -23.5642105
        ]
      }
    },
    {
      "type": "Feature",
      "id": "node/1765091206",
      "properties": {
        "@id": "node/1765091206",
        "amenity": "bicycle_rental",
        "capacity": "12",
        "name": "Cantagalo",
        "operator": "BikeRio",
        "ref": "01",
        "source": "survey"
      },
      "geometry": {
        "type": "Point",
        "coordinates": [
          -43.1938074,
          -22.9765348
        ]
      }
    },
    {
      "type": "Feature",
      "id": "node/1912281840",
      "properties": {
        "@id": "node/1912281840",
        "amenity": "bicycle_rental",
        "capacity": "12",
        "name": "Praça Cazuza",
        "operator": "BikeRio",
        "ref": "28",
        "source": "survey"
      },
      "geometry": {
        "type": "Point",
        "coordinates": [
          -43.2282748,
          -22.9860071
        ]
      }
    },
    {
      "type": "Feature",
      "id": "node/1981177106",
      "properties": {
        "@id": "node/1981177106",
        "amenity": "bicycle_rental",
        "capacity": "12",
        "name": "Cinelândia",
        "operator": "BikeRio",
        "ref": "59",
        "website": "http://www.mobilicidade.com.br/bikerio.asp"
      },
      "geometry": {
        "type": "Point",
        "coordinates": [
          -43.1752875,
          -22.9116945
        ]
      }
    },
    {
      "type": "Feature",
      "id": "node/1981180754",
      "properties": {
        "@id": "node/1981180754",
        "addr:housenumber": "s/n",
        "addr:street": "Praça XV",
        "amenity": "bicycle_rental",
        "capacity": "12",
        "layer": "1",
        "name": "Praça XV",
        "network": "BikeRio",
        "ref": "60",
        "website": "http://www.movesamba.com.br/bikerio/"
      },
      "geometry": {
        "type": "Point",
        "coordinates": [
          -43.1729271,
          -22.902187
        ]
      }
    },
    {
      "type": "Feature",
      "id": "node/1981184140",
      "properties": {
        "@id": "node/1981184140",
        "amenity": "bicycle_rental",
        "capacity": "14",
        "name": "Pereira da Silva",
        "operator": "BikeRio",
        "ref": "41",
        "website": "http://www.mobilicidade.com.br/bikerio.asp"
      },
      "geometry": {
        "type": "Point",
        "coordinates": [
          -43.1854852,
          -22.9331324
        ]
      }
    },
    {
      "type": "Feature",
      "id": "node/1990419336",
      "properties": {
        "@id": "node/1990419336",
        "amenity": "bicycle_rental",
        "capacity": "12",
        "name": "Bike PoA Praça da Alfândega",
        "network": "Bike PoA",
        "opening_hours": "Su-Sa 06:00-22:00",
        "phone": "+55 51 40636299",
        "ref": "2",
        "website": "http://www.movesamba.com.br/bikepoa/"
      },
      "geometry": {
        "type": "Point",
        "coordinates": [
          -51.2319906,
          -30.0292351
        ]
      }
    },
    {
      "type": "Feature",
      "id": "node/1990425242",
      "properties": {
        "@id": "node/1990425242",
        "addr:housenumber": "66",
        "addr:postcode": "90020-061",
        "addr:street": "Rua Marechal Floriano",
        "amenity": "bicycle_rental",
        "capacity": "12",
        "fixme": "Possivelmente impreciso.",
        "name": "Bike PoA Mercado",
        "network": "Bike PoA",
        "opening_hours": "Su-Sa 06:00-22:00",
        "phone": "+55 51 40636299",
        "ref": "1",
        "website": "http://www.movesamba.com.br/bikepoa/"
      },
      "geometry": {
        "type": "Point",
        "coordinates": [
          -51.226905,
          -30.0281847
        ]
      }
    },
    {
      "type": "Feature",
      "id": "node/1994048764",
      "properties": {
        "@id": "node/1994048764",
        "addr:housenumber": "945",
        "addr:postcode": "90010-420",
        "addr:street": "Avenida Loureiro da Silva",
        "amenity": "bicycle_rental",
        "capacity": "12",
        "fixme": "Possivelmente impreciso.",
        "name": "Bike PoA Escola Parobé",
        "network": "Bike PoA",
        "opening_hours": "Su-Sa 06:00-22:00",
        "phone": "+55 51 40636299",
        "ref": "35",
        "website": "http://www.movesamba.com.br/bikepoa/"
      },
      "geometry": {
        "type": "Point",
        "coordinates": [
          -51.2314412,
          -30.0376111
        ]
      }
    },
    {
      "type": "Feature",
      "id": "node/1998043927",
      "properties": {
        "@id": "node/1998043927",
        "amenity": "bicycle_rental",
        "capacity": "12",
        "name": "Bike PoA Diário de Notícias",
        "network": "Bike PoA",
        "opening_hours": "Su-Sa 06:00-22:00",
        "phone": "+55 51 40636299",
        "ref": "20",
        "website": "http://www.movesamba.com.br/bikepoa/"
      },
      "geometry": {
        "type": "Point",
        "coordinates": [
          -51.2485762,
          -30.0972918
        ]
      }
    },
    {
      "type": "Feature",
      "id": "node/2000100468",
      "properties": {
        "@id": "node/2000100468",
        "amenity": "bicycle_rental",
        "capacity": "12",
        "name": "Furnas",
        "operator": "BikeRio",
        "ref": "52",
        "website": "http://www.mobilicidade.com.br/bikerio.asp"
      },
      "geometry": {
        "type": "Point",
        "coordinates": [
          -43.1916992,
          -22.9565236
        ]
      }
    },
    {
      "type": "Feature",
      "id": "node/2012410884",
      "properties": {
        "@id": "node/2012410884",
        "amenity": "bicycle_rental",
        "capacity": "12",
        "name": "Pacheco Leão - Horto",
        "operator": "BikeRio",
        "ref": "38",
        "website": "http://www.mobilicidade.com.br/bikerio.asp"
      },
      "geometry": {
        "type": "Point",
        "coordinates": [
          -43.2280762,
          -22.965516
        ]
      }
    },
    {
      "type": "Feature",
      "id": "node/2012413009",
      "properties": {
        "@id": "node/2012413009",
        "amenity": "bicycle_rental",
        "capacity": "14",
        "name": "Rio Sul",
        "operator": "BikeRio",
        "ref": "50",
        "website": "http://www.mobilicidade.com.br/bikerio.asp"
      },
      "geometry": {
        "type": "Point",
        "coordinates": [
          -43.1777069,
          -22.9558075
        ]
      }
    },
    {
      "type": "Feature",
      "id": "node/2012414426",
      "properties": {
        "@id": "node/2012414426",
        "amenity": "bicycle_rental",
        "capacity": "14",
        "name": "Metrô Botafogo",
        "operator": "BikeRio",
        "ref": "48",
        "website": "http://www.mobilicidade.com.br/bikerio.asp"
      },
      "geometry": {
        "type": "Point",
        "coordinates": [
          -43.1843032,
          -22.951085
        ]
      }
    },
    {
      "type": "Feature",
      "id": "node/2012416375",
      "properties": {
        "@id": "node/2012416375",
        "amenity": "bicycle_rental",
        "capacity": "14",
        "name": "Rua da Passagem",
        "operator": "BikeRio",
        "ref": "54",
        "website": "http://www.mobilicidade.com.br/bikerio.asp"
      },
      "geometry": {
        "type": "Point",
        "coordinates": [
          -43.1823529,
          -22.952394
        ]
      }
    },
    {
      "type": "Feature",
      "id": "node/2012417266",
      "properties": {
        "@id": "node/2012417266",
        "amenity": "bicycle_rental",
        "capacity": "14",
        "name": "Botafogo Praia Shopping",
        "operator": "BikeRio",
        "ref": "49",
        "website": "http://www.mobilicidade.com.br/bikerio.asp"
      },
      "geometry": {
        "type": "Point",
        "coordinates": [
          -43.1826447,
          -22.9470991
        ]
      }
    },
    {
      "type": "Feature",
      "id": "node/2014139053",
      "properties": {
        "@id": "node/2014139053",
        "amenity": "bicycle_rental",
        "capacity": "14",
        "name": "Voluntários da Pátria",
        "operator": "BikeRio",
        "ref": "55",
        "source": "survey"
      },
      "geometry": {
        "type": "Point",
        "coordinates": [
          -43.1867755,
          -22.9521568
        ]
      }
    },
    {
      "type": "Feature",
      "id": "node/2014187944",
      "properties": {
        "@id": "node/2014187944",
        "amenity": "bicycle_rental",
        "capacity": "14",
        "name": "Lagoa - Vasco da Gama",
        "operator": "BikeRio",
        "ref": "37",
        "source": "survey",
        "website": "http://www.mobilicidade.com.br/bikerio.asp"
      },
      "geometry": {
        "type": "Point",
        "coordinates": [
          -43.2096543,
          -22.9629265
        ]
      }
    },
    {
      "type": "Feature",
      "id": "node/2014580269",
      "properties": {
        "@id": "node/2014580269",
        "amenity": "bicycle_rental",
        "capacity": "14",
        "name": "Baixo Gávea",
        "operator": "BikeRio",
        "ref": "34",
        "source": "survey",
        "website": "http://www.mobilicidade.com.br/bikerio.asp"
      },
      "geometry": {
        "type": "Point",
        "coordinates": [
          -43.225645,
          -22.9730849
        ]
      }
    },
    {
      "type": "Feature",
      "id": "node/2014581703",
      "properties": {
        "@id": "node/2014581703",
        "amenity": "bicycle_rental",
        "capacity": "14",
        "name": "Praça Sibélius",
        "operator": "BikeRio",
        "ref": "30",
        "source": "survey",
        "website": "http://www.mobilicidade.com.br/bikerio.asp"
      },
      "geometry": {
        "type": "Point",
        "coordinates": [
          -43.2263835,
          -22.9777767
        ]
      }
    },
    {
      "type": "Feature",
      "id": "node/2015485999",
      "properties": {
        "@id": "node/2015485999",
        "amenity": "bicycle_rental",
        "capacity": "12",
        "name": "Borges de Medeiros",
        "operator": "BikeRio",
        "ref": "11",
        "source": "survey",
        "website": "http://www.mobilicidade.com.br/bikerio.asp"
      },
      "geometry": {
        "type": "Point",
        "coordinates": [
          -43.2173106,
          -22.9680489
        ]
      }
    },
    {
      "type": "Feature",
      "id": "node/2015487178",
      "properties": {
        "@id": "node/2015487178",
        "amenity": "bicycle_rental",
        "capacity": "14",
        "name": "Humaitá",
        "operator": "BikeRio",
        "ref": "17",
        "website": "http://www.mobilicidade.com.br/bikerio.asp"
      },
      "geometry": {
        "type": "Point",
        "coordinates": [
          -43.2025909,
          -22.9605009
        ]
      }
    },
    {
      "type": "Feature",
      "id": "node/2032032686",
      "properties": {
        "@id": "node/2032032686",
        "amenity": "bicycle_rental",
        "capacity": "12",
        "description": "Estação 5",
        "name": "Bike PoA Câmara de Vereadores",
        "network": "Bike PoA",
        "opening_hours": "Su-Sa 06:00-22:00",
        "phone": "+55 51 40636299",
        "ref": "5",
        "website": "http://www.movesamba.com.br/bikepoa/"
      },
      "geometry": {
        "type": "Point",
        "coordinates": [
          -51.2374753,
          -30.0378516
        ]
      }
    },
    {
      "type": "Feature",
      "id": "node/2078207798",
      "properties": {
        "@id": "node/2078207798",
        "amenity": "bicycle_rental"
      },
      "geometry": {
        "type": "Point",
        "coordinates": [
          -46.2404599,
          -23.540673
        ]
      }
    },
    {
      "type": "Feature",
      "id": "node/2096963696",
      "properties": {
        "@id": "node/2096963696",
        "amenity": "bicycle_rental",
        "capacity": "12",
        "name": "Soares Caldeira",
        "operator": "BikeRio",
        "ref": "401",
        "source": "survey"
      },
      "geometry": {
        "type": "Point",
        "coordinates": [
          -43.3401007,
          -22.8702708
        ]
      }
    },
    {
      "type": "Feature",
      "id": "node/2096963966",
      "properties": {
        "@id": "node/2096963966",
        "amenity": "bicycle_rental",
        "name": "Quadriciclo do Pinel",
        "source": "survey"
      },
      "geometry": {
        "type": "Point",
        "coordinates": [
          -43.3411673,
          -22.8683826
        ]
      }
    },
    {
      "type": "Feature",
      "id": "node/2096963988",
      "properties": {
        "@id": "node/2096963988",
        "amenity": "bicycle_rental",
        "capacity": "12",
        "name": "Manoel Marques",
        "operator": "BikeRio",
        "ref": "402",
        "source": "survey"
      },
      "geometry": {
        "type": "Point",
        "coordinates": [
          -43.3412044,
          -22.8682569
        ]
      }
    },
    {
      "type": "Feature",
      "id": "node/2096965425",
      "properties": {
        "@id": "node/2096965425",
        "amenity": "bicycle_rental",
        "capacity": "12",
        "name": "Bernardino de Andrade",
        "operator": "BikeRio",
        "ref": "404",
        "source": "survey"
      },
      "geometry": {
        "type": "Point",
        "coordinates": [
          -43.34682,
          -22.862001
        ]
      }
    },
    {
      "type": "Feature",
      "id": "node/2096965589",
      "properties": {
        "@id": "node/2096965589",
        "amenity": "bicycle_rental",
        "name": "Quadriciclo do Pinel",
        "source": "survey"
      },
      "geometry": {
        "type": "Point",
        "coordinates": [
          -43.3463535,
          -22.8618261
        ]
      }
    },
    {
      "type": "Feature",
      "id": "node/2163724150",
      "properties": {
        "@id": "node/2163724150",
        "amenity": "bicycle_rental",
        "capacity": "14",
        "name": "Bike PoA BarraShopping",
        "network": "Bike PoA",
        "opening_hours": "Su-Sa 06:00-22:00",
        "phone": "+55 51 40636299",
        "ref": "34",
        "website": "http://www.movesamba.com.br/bikepoa/"
      },
      "geometry": {
        "type": "Point",
        "coordinates": [
          -51.2472294,
          -30.0831073
        ]
      }
    },
    {
      "type": "Feature",
      "id": "node/2163724156",
      "properties": {
        "@id": "node/2163724156",
        "addr:housenumber": "539",
        "addr:postcode": "90010-190",
        "addr:street": "Rua 7 de Setembro",
        "amenity": "bicycle_rental",
        "capacity": "12",
        "fixme": "Possivelmente impreciso.",
        "name": "Bike PoA Casa de Cultura Mário Quintana",
        "network": "Bike PoA",
        "opening_hours": "Su-Sa 06:00-22:00",
        "phone": "+55 51 40636299",
        "ref": "3",
        "website": "http://www.movesamba.com.br/bikepoa/"
      },
      "geometry": {
        "type": "Point",
        "coordinates": [
          -51.2350593,
          -30.0309618
        ]
      }
    },
    {
      "type": "Feature",
      "id": "node/2163724165",
      "properties": {
        "@id": "node/2163724165",
        "amenity": "bicycle_rental",
        "capacity": "12",
        "name": "Bike PoA Casa do Estudante",
        "network": "Bike PoA",
        "opening_hours": "Su-Sa 06:00-22:00",
        "phone": "+55 51 40636299",
        "ref": "36",
        "website": "http://www.movesamba.com.br/bikepoa/"
      },
      "geometry": {
        "type": "Point",
        "coordinates": [
          -51.2234477,
          -30.0326785
        ]
      }
    },
    {
      "type": "Feature",
      "id": "node/2163724179",
      "properties": {
        "@id": "node/2163724179",
        "amenity": "bicycle_rental",
        "capacity": "12",
        "fixme": "Possivelmente impreciso.",
        "name": "Bike PoA Ginásio Tesourinha",
        "network": "Bike PoA",
        "opening_hours": "Su-Sa 06:00-22:00",
        "phone": "+55 51 40636299",
        "ref": "11",
        "website": "http://www.movesamba.com.br/bikepoa/"
      },
      "geometry": {
        "type": "Point",
        "coordinates": [
          -51.219574,
          -30.0452778
        ]
      }
    },
    {
      "type": "Feature",
      "id": "node/2163724184",
      "properties": {
        "@id": "node/2163724184",
        "addr:housenumber": "2350",
        "addr:postcode": "90040-340",
        "addr:street": "Avenida Jerônimo de Ornelas",
        "amenity": "bicycle_rental",
        "capacity": "14",
        "fixme": "Possivelmente impreciso.",
        "name": "Bike PoA Hospital de Clínicas",
        "network": "Bike PoA",
        "opening_hours": "Su-Sa 06:00-22:00",
        "phone": "+55 51 40636299",
        "ref": "13",
        "website": "http://www.movesamba.com.br/bikepoa/"
      },
      "geometry": {
        "type": "Point",
        "coordinates": [
          -51.2079615,
          -30.0394857
        ]
      }
    },
    {
      "type": "Feature",
      "id": "node/2163724189",
      "properties": {
        "@id": "node/2163724189",
        "addr:housenumber": "76",
        "addr:postcode": "90050-210",
        "addr:street": "Travessa do Carmo",
        "amenity": "bicycle_rental",
        "capacity": "14",
        "fixme": "Possivelmente impreciso.",
        "name": "Bike PoA Largo Zumbi",
        "network": "Bike PoA",
        "opening_hours": "Su-Sa 06:00-22:00",
        "phone": "+55 51 40636299",
        "ref": "6",
        "website": "http://www.movesamba.com.br/bikepoa/"
      },
      "geometry": {
        "type": "Point",
        "coordinates": [
          -51.2258845,
          -30.0383593
        ]
      }
    },
    {
      "type": "Feature",
      "id": "node/2163724212",
      "properties": {
        "@id": "node/2163724212",
        "amenity": "bicycle_rental",
        "capacity": "12",
        "fixme": "Possivelmente impreciso.",
        "name": "Bike PoA Planetário",
        "network": "Bike PoA",
        "opening_hours": "Su-Sa 06:00-22:00",
        "phone": "+55 51 40636299",
        "ref": "14",
        "website": "http://www.movesamba.com.br/bikepoa/"
      },
      "geometry": {
        "type": "Point",
        "coordinates": [
          -51.2080763,
          -30.0442127
        ]
      }
    },
    {
      "type": "Feature",
      "id": "node/2163724222",
      "properties": {
        "@id": "node/2163724222",
        "amenity": "bicycle_rental",
        "capacity": "12",
        "fixme": "Possivelmente impreciso.",
        "name": "Bike PoA Opinião",
        "network": "Bike PoA",
        "opening_hours": "Su-Sa 06:00-22:00",
        "phone": "+55 51 40636299",
        "ref": "15",
        "website": "http://www.movesamba.com.br/bikepoa/"
      },
      "geometry": {
        "type": "Point",
        "coordinates": [
          -51.2209244,
          -30.0419356
        ]
      }
    },
    {
      "type": "Feature",
      "id": "node/2163724228",
      "properties": {
        "@id": "node/2163724228",
        "amenity": "bicycle_rental",
        "capacity": "2",
        "fixme": "Possivelmente impreciso.",
        "name": "Bike PoA Redenção Araújo Viana",
        "network": "Bike PoA",
        "opening_hours": "Su-Sa 06:00-22:00",
        "phone": "+55 51 40636299",
        "ref": "7",
        "website": "http://www.movesamba.com.br/bikepoa/"
      },
      "geometry": {
        "type": "Point",
        "coordinates": [
          -51.2143965,
          -30.0384523
        ]
      }
    },
    {
      "type": "Feature",
      "id": "node/2163724234",
      "properties": {
        "@id": "node/2163724234",
        "amenity": "bicycle_rental",
        "capacity": "14",
        "fixme": "Possivelmente impreciso.",
        "name": "Bike PoA Redenção UFRGS",
        "network": "Bike PoA",
        "opening_hours": "Su-Sa 06:00-22:00",
        "phone": "+55 51 40636299",
        "ref": "8",
        "website": "http://www.movesamba.com.br/bikepoa/"
      },
      "geometry": {
        "type": "Point",
        "coordinates": [
          -51.2176956,
          -30.0350793
        ]
      }
    },
    {
      "type": "Feature",
      "id": "node/2163724240",
      "properties": {
        "@id": "node/2163724240",
        "amenity": "bicycle_rental",
        "capacity": "12",
        "name": "Bike PoA Região dos Tribunais",
        "network": "Bike PoA",
        "opening_hours": "Su-Sa 06:00-22:00",
        "phone": "+55 51 40636299",
        "ref": "36",
        "website": "http://www.movesamba.com.br/bikepoa/"
      },
      "geometry": {
        "type": "Point",
        "coordinates": [
          -51.229145,
          -30.042841
        ]
      }
    },
    {
      "type": "Feature",
      "id": "node/2163724241",
      "properties": {
        "@id": "node/2163724241",
        "amenity": "bicycle_rental",
        "capacity": "12",
        "name": "Bike PoA Shopping Praia de Belas",
        "network": "Bike PoA",
        "opening_hours": "Su-Sa 06:00-22:00",
        "phone": "+55 51 40636299",
        "ref": "12",
        "website": "http://www.movesamba.com.br/bikepoa/"
      },
      "geometry": {
        "type": "Point",
        "coordinates": [
          -51.2290631,
          -30.0482528
        ]
      }
    },
    {
      "type": "Feature",
      "id": "node/2163724246",
      "properties": {
        "@id": "node/2163724246",
        "amenity": "bicycle_rental",
        "capacity": "12",
        "fixme": "Possivelmente impreciso.",
        "name": "Bike PoA Terminal Azenha",
        "network": "Bike PoA",
        "opening_hours": "Su-Sa 06:00-22:00",
        "phone": "+55 51 40636299",
        "ref": "18",
        "website": "http://www.movesamba.com.br/bikepoa/"
      },
      "geometry": {
        "type": "Point",
        "coordinates": [
          -51.2096697,
          -30.0501122
        ]
      }
    },
    {
      "type": "Feature",
      "id": "node/2163724251",
      "properties": {
        "@id": "node/2163724251",
        "addr:housenumber": "551",
        "addr:postcode": "90010-120",
        "addr:street": "Avenida Presidente João Goulart",
        "amenity": "bicycle_rental",
        "capacity": "12",
        "fixme": "Possivelmente impreciso.",
        "name": "Bike PoA Usina do Gasômetro",
        "network": "Bike PoA",
        "opening_hours": "Su-Sa 06:00-22:00",
        "phone": "+55 51 40636299",
        "ref": "4",
        "website": "http://www.movesamba.com.br/bikepoa/"
      },
      "geometry": {
        "type": "Point",
        "coordinates": [
          -51.2407242,
          -30.0344221
        ]
      }
    },
    {
      "type": "Feature",
      "id": "node/2165260133",
      "properties": {
        "@id": "node/2165260133",
        "amenity": "bicycle_rental",
        "capacity": "2",
        "fixme": "Possivelmente impreciso.",
        "name": "Bike PoA Avenida Independência",
        "network": "Bike PoA",
        "opening_hours": "Su-Sa 06:00-22:00",
        "phone": "+55 51 40636299",
        "ref": "26",
        "website": "http://www.movesamba.com.br/bikepoa/"
      },
      "geometry": {
        "type": "Point",
        "coordinates": [
          -51.2086991,
          -30.0291069
        ]
      }
    },
    {
      "type": "Feature",
      "id": "node/2165260134",
      "properties": {
        "@id": "node/2165260134",
        "amenity": "bicycle_rental",
        "capacity": "2",
        "fixme": "Possivelmente impreciso.",
        "name": "Bike PoA Avenida Protásio Alves",
        "network": "Bike PoA",
        "opening_hours": "Su-Sa 06:00-22:00",
        "phone": "+55 51 40636299",
        "ref": "27",
        "website": "http://www.movesamba.com.br/bikepoa/"
      },
      "geometry": {
        "type": "Point",
        "coordinates": [
          -51.2038324,
          -30.0384423
        ]
      }
    },
    {
      "type": "Feature",
      "id": "node/2165260135",
      "properties": {
        "@id": "node/2165260135",
        "amenity": "bicycle_rental",
        "bicycle": "yes",
        "capacity": "10",
        "crossing": "traffic_signals",
        "fixme": "Possivelmente impreciso.",
        "highway": "crossing",
        "name": "Bike PoA Avenida Vasco da Gama",
        "network": "Bike PoA",
        "opening_hours": "Su-Sa 06:00-22:00",
        "operator": "Samba",
        "phone": "+55 51 40636299",
        "ref": "38",
        "website": "http://www.movesamba.com.br/bikepoa/"
      },
      "geometry": {
        "type": "Point",
        "coordinates": [
          -51.2107941,
          -30.0318676
        ]
      }
    },
    {
      "type": "Feature",
      "id": "node/2165260136",
      "properties": {
        "@id": "node/2165260136",
        "amenity": "bicycle_rental",
        "capacity": "2",
        "fixme": "Possivelmente impreciso.",
        "name": "Bike PoA Campus da UFRGS Agronomia",
        "network": "Bike PoA",
        "opening_hours": "Su-Sa 06:00-22:00",
        "phone": "+55 51 40636299",
        "ref": "24",
        "website": "http://www.movesamba.com.br/bikepoa/"
      },
      "geometry": {
        "type": "Point",
        "coordinates": [
          -51.1189467,
          -30.0729566
        ]
      }
    },
    {
      "type": "Feature",
      "id": "node/2165260137",
      "properties": {
        "@id": "node/2165260137",
        "amenity": "bicycle_rental",
        "capacity": "2",
        "fixme": "Possivelmente impreciso.",
        "name": "Bike PoA Campus da UFRGS Veterinária",
        "network": "Bike PoA",
        "opening_hours": "Su-Sa 06:00-22:00",
        "phone": "+55 51 40636299",
        "ref": "25",
        "website": "http://www.movesamba.com.br/bikepoa/"
      },
      "geometry": {
        "type": "Point",
        "coordinates": [
          -51.1228529,
          -30.0766137
        ]
      }
    },
    {
      "type": "Feature",
      "id": "node/2165260138",
      "properties": {
        "@id": "node/2165260138",
        "amenity": "bicycle_rental",
        "capacity": "2",
        "fixme": "Possivelmente impreciso.",
        "name": "Bike PoA Campus da UFRGS",
        "network": "Bike PoA",
        "opening_hours": "Su-Sa 06:00-22:00",
        "phone": "+55 51 40636299",
        "ref": "23",
        "website": "http://www.movesamba.com.br/bikepoa/"
      },
      "geometry": {
        "type": "Point",
        "coordinates": [
          -51.2213457,
          -30.0338001
        ]
      }
    },
    {
      "type": "Feature",
      "id": "node/2165260139",
      "properties": {
        "@id": "node/2165260139",
        "amenity": "bicycle_rental",
        "capacity": "2",
        "fixme": "Possivelmente impreciso.",
        "name": "Bike PoA Complexo PUC",
        "network": "Bike PoA",
        "opening_hours": "Su-Sa 06:00-22:00",
        "phone": "+55 51 40636299",
        "ref": "21",
        "website": "http://www.movesamba.com.br/bikepoa/"
      },
      "geometry": {
        "type": "Point",
        "coordinates": [
          -51.1736178,
          -30.056258
        ]
      }
    },
    {
      "type": "Feature",
      "id": "node/2165260140",
      "properties": {
        "@id": "node/2165260140",
        "amenity": "bicycle_rental",
        "capacity": "2",
        "fixme": "Possivelmente impreciso.",
        "name": "Bike PoA Complexo PUC",
        "network": "Bike PoA",
        "opening_hours": "Su-Sa 06:00-22:00",
        "phone": "+55 51 40636299",
        "ref": "22",
        "website": "http://www.movesamba.com.br/bikepoa/"
      },
      "geometry": {
        "type": "Point",
        "coordinates": [
          -51.173436,
          -30.0599406
        ]
      }
    },
    {
      "type": "Feature",
      "id": "node/2165260141",
      "properties": {
        "@id": "node/2165260141",
        "amenity": "bicycle_rental",
        "capacity": "2",
        "fixme": "Possivelmente impreciso.",
        "name": "Bike PoA Iguatemi Shopping",
        "network": "Bike PoA",
        "opening_hours": "Su-Sa 06:00-22:00",
        "phone": "+55 51 40636299",
        "ref": "30",
        "website": "http://www.movesamba.com.br/bikepoa/"
      },
      "geometry": {
        "type": "Point",
        "coordinates": [
          -51.16336,
          -30.0250844
        ]
      }
    },
    {
      "type": "Feature",
      "id": "node/2165260142",
      "properties": {
        "@id": "node/2165260142",
        "amenity": "bicycle_rental",
        "capacity": "12",
        "name": "Bike PoA Menino Deus - Botafogo",
        "network": "Bike PoA",
        "opening_hours": "Su-Sa 06:00-22:00",
        "phone": "+55 51 40636299",
        "ref": "16",
        "website": "http://www.movesamba.com.br/bikepoa/"
      },
      "geometry": {
        "type": "Point",
        "coordinates": [
          -51.2271552,
          -30.0540844
        ]
      }
    },
    {
      "type": "Feature",
      "id": "node/2165260143",
      "properties": {
        "@id": "node/2165260143",
        "amenity": "bicycle_rental",
        "capacity": "2",
        "fixme": "Possivelmente impreciso.",
        "name": "Bike PoA Parcão",
        "network": "Bike PoA",
        "opening_hours": "Su-Sa 06:00-22:00",
        "phone": "+55 51 40636299",
        "ref": "32",
        "website": "http://www.movesamba.com.br/bikepoa/"
      },
      "geometry": {
        "type": "Point",
        "coordinates": [
          -51.2005562,
          -30.0253092
        ]
      }
    },
    {
      "type": "Feature",
      "id": "node/2165260144",
      "properties": {
        "@id": "node/2165260144",
        "amenity": "bicycle_rental",
        "capacity": "2",
        "fixme": "Possivelmente impreciso.",
        "name": "Bike PoA Parcão",
        "network": "Bike PoA",
        "opening_hours": "Su-Sa 06:00-22:00",
        "phone": "+55 51 40636299",
        "ref": "31",
        "website": "http://www.movesamba.com.br/bikepoa/"
      },
      "geometry": {
        "type": "Point",
        "coordinates": [
          -51.2005857,
          -30.0284055
        ]
      }
    },
    {
      "type": "Feature",
      "id": "node/2165260145",
      "properties": {
        "@id": "node/2165260145",
        "amenity": "bicycle_rental",
        "capacity": "2",
        "fixme": "Possivelmente impreciso.",
        "name": "Bike PoA Praça da Encol",
        "network": "Bike PoA",
        "opening_hours": "Su-Sa 06:00-22:00",
        "phone": "+55 51 40636299",
        "ref": "39",
        "website": "http://www.movesamba.com.br/bikepoa/"
      },
      "geometry": {
        "type": "Point",
        "coordinates": [
          -51.1868541,
          -30.036654
        ]
      }
    },
    {
      "type": "Feature",
      "id": "node/2165260146",
      "properties": {
        "@id": "node/2165260146",
        "amenity": "bicycle_rental",
        "capacity": "2",
        "fixme": "Possivelmente impreciso.",
        "name": "Bike PoA Redenção Brique",
        "network": "Bike PoA",
        "opening_hours": "Su-Sa 06:00-22:00",
        "phone": "+55 51 40636299",
        "ref": "9",
        "website": "http://www.movesamba.com.br/bikepoa/"
      },
      "geometry": {
        "type": "Point",
        "coordinates": [
          -51.2249309,
          -30.0358127
        ]
      }
    },
    {
      "type": "Feature",
      "id": "node/2165260147",
      "properties": {
        "@id": "node/2165260147",
        "amenity": "bicycle_rental",
        "capacity": "2",
        "fixme": "Possivelmente impreciso.",
        "name": "Bike PoA Rodoviária",
        "network": "Bike PoA",
        "opening_hours": "Su-Sa 06:00-22:00",
        "phone": "+55 51 40636299",
        "ref": "19",
        "website": "http://www.movesamba.com.br/bikepoa/"
      },
      "geometry": {
        "type": "Point",
        "coordinates": [
          -51.2189723,
          -30.0234581
        ]
      }
    },
    {
      "type": "Feature",
      "id": "node/2165260148",
      "properties": {
        "@id": "node/2165260148",
        "amenity": "bicycle_rental",
        "capacity": "12",
        "fixme": "Possivelmente impreciso.",
        "name": "Bike PoA Redenção Mercadinho",
        "network": "Bike PoA",
        "opening_hours": "Su-Sa 06:00-22:00",
        "phone": "+55 51 40636299",
        "ref": "10",
        "website": "http://www.movesamba.com.br/bikepoa/"
      },
      "geometry": {
        "type": "Point",
        "coordinates": [
          -51.2109656,
          -30.0361035
        ]
      }
    },
    {
      "type": "Feature",
      "id": "node/2165260149",
      "properties": {
        "@id": "node/2165260149",
        "amenity": "bicycle_rental",
        "capacity": "2",
        "fixme": "Possivelmente impreciso.",
        "name": "Bike PoA Shopping João Pessoa",
        "network": "Bike PoA",
        "opening_hours": "Su-Sa 06:00-22:00",
        "phone": "+55 51 40636299",
        "ref": "33",
        "website": "http://www.movesamba.com.br/bikepoa/"
      },
      "geometry": {
        "type": "Point",
        "coordinates": [
          -51.2216077,
          -30.0477894
        ]
      }
    },
    {
      "type": "Feature",
      "id": "node/2165260152",
      "properties": {
        "@id": "node/2165260152",
        "amenity": "bicycle_rental",
        "capacity": "2",
        "fixme": "Possivelmente impreciso.",
        "name": "Bike PoA Terminal Antônio de Carvalho",
        "network": "Bike PoA",
        "opening_hours": "Su-Sa 06:00-22:00",
        "phone": "+55 51 40636299",
        "ref": "29",
        "website": "http://www.movesamba.com.br/bikepoa/"
      },
      "geometry": {
        "type": "Point",
        "coordinates": [
          -51.1502131,
          -30.0661381
        ]
      }
    },
    {
      "type": "Feature",
      "id": "node/2165260153",
      "properties": {
        "@id": "node/2165260153",
        "amenity": "bicycle_rental",
        "capacity": "2",
        "fixme": "Possivelmente impreciso.",
        "name": "Bike PoA Zaffari Ipiranga",
        "network": "Bike PoA",
        "opening_hours": "Su-Sa 06:00-22:00",
        "phone": "+55 51 40636299",
        "ref": "28",
        "website": "http://www.movesamba.com.br/bikepoa/"
      },
      "geometry": {
        "type": "Point",
        "coordinates": [
          -51.2012741,
          -30.0442345
        ]
      }
    },
    {
      "type": "Feature",
      "id": "node/2170235789",
      "properties": {
        "@id": "node/2170235789",
        "amenity": "bicycle_rental",
        "capacity": "14",
        "name": "Túnel Novo",
        "operator": "BikeRio",
        "ref": "15",
        "source": "survey"
      },
      "geometry": {
        "type": "Point",
        "coordinates": [
          -43.1753266,
          -22.961954
        ]
      }
    },
    {
      "type": "Feature",
      "id": "node/2182332437",
      "properties": {
        "@id": "node/2182332437",
        "amenity": "bicycle_rental",
        "source": "survey"
      },
      "geometry": {
        "type": "Point",
        "coordinates": [
          -43.2167933,
          -22.9720225
        ]
      }
    },
    {
      "type": "Feature",
      "id": "node/2182332457",
      "properties": {
        "@id": "node/2182332457",
        "amenity": "bicycle_rental",
        "note": "Foldable Bicycles",
        "source": "survey"
      },
      "geometry": {
        "type": "Point",
        "coordinates": [
          -43.2162934,
          -22.9727198
        ]
      }
    },
    {
      "type": "Feature",
      "id": "node/2182333000",
      "properties": {
        "@id": "node/2182333000",
        "amenity": "bicycle_rental",
        "source": "survey"
      },
      "geometry": {
        "type": "Point",
        "coordinates": [
          -43.2171828,
          -22.9725187
        ]
      }
    },
    {
      "type": "Feature",
      "id": "node/2182333100",
      "properties": {
        "@id": "node/2182333100",
        "amenity": "bicycle_rental",
        "name": "Obstaklo Trikes",
        "source": "survey"
      },
      "geometry": {
        "type": "Point",
        "coordinates": [
          -43.2167016,
          -22.9725132
        ]
      }
    },
    {
      "type": "Feature",
      "id": "node/2182536303",
      "properties": {
        "@id": "node/2182536303",
        "amenity": "bicycle_rental",
        "capacity": "12",
        "name": "Caiçaras",
        "operator": "BikeRio",
        "ref": "31",
        "source": "survey"
      },
      "geometry": {
        "type": "Point",
        "coordinates": [
          -43.2123608,
          -22.9801922
        ]
      }
    },
    {
      "type": "Feature",
      "id": "node/2206234771",
      "properties": {
        "@id": "node/2206234771",
        "amenity": "bicycle_rental",
        "name": "Bicicletário da estação USP Leste"
      },
      "geometry": {
        "type": "Point",
        "coordinates": [
          -46.5033245,
          -23.4859894
        ]
      }
    },
    {
      "type": "Feature",
      "id": "node/2322559938",
      "properties": {
        "@id": "node/2322559938",
        "amenity": "bicycle_rental",
        "capacity": "14",
        "name": "Cobal",
        "operator": "BikeRio",
        "ref": "47",
        "source": "survey"
      },
      "geometry": {
        "type": "Point",
        "coordinates": [
          -43.1969557,
          -22.9538829
        ]
      }
    },
    {
      "type": "Feature",
      "id": "node/2359476686",
      "properties": {
        "@id": "node/2359476686",
        "amenity": "bicycle_rental",
        "capacity": "14",
        "name": "Marquês de Abrantes",
        "operator": "BikeRio",
        "ref": "53",
        "source": "survey"
      },
      "geometry": {
        "type": "Point",
        "coordinates": [
          -43.1789332,
          -22.9413878
        ]
      }
    },
    {
      "type": "Feature",
      "id": "node/2359477299",
      "properties": {
        "@id": "node/2359477299",
        "amenity": "bicycle_rental",
        "capacity": "12",
        "name": "Morro da Viúva",
        "operator": "BikeRio",
        "ref": "44",
        "source": "survey"
      },
      "geometry": {
        "type": "Point",
        "coordinates": [
          -43.1708519,
          -22.9387569
        ]
      }
    },
    {
      "type": "Feature",
      "id": "node/2359479513",
      "properties": {
        "@id": "node/2359479513",
        "amenity": "bicycle_rental",
        "capacity": "12",
        "name": "Santa Marta",
        "operator": "BikeRio",
        "ref": "51",
        "source": "survey"
      },
      "geometry": {
        "type": "Point",
        "coordinates": [
          -43.1924005,
          -22.9503041
        ]
      }
    },
    {
      "type": "Feature",
      "id": "node/2359480195",
      "properties": {
        "@id": "node/2359480195",
        "amenity": "bicycle_rental",
        "capacity": "14",
        "name": "Maria Angélica",
        "operator": "BikeRio",
        "ref": "35",
        "source": "survey"
      },
      "geometry": {
        "type": "Point",
        "coordinates": [
          -43.2075712,
          -22.9620186
        ]
      }
    },
    {
      "type": "Feature",
      "id": "node/2359481402",
      "properties": {
        "@id": "node/2359481402",
        "amenity": "bicycle_rental",
        "capacity": "14",
        "name": "Epitácio Pessoa 4224",
        "operator": "BikeRio",
        "ref": "33",
        "source": "survey"
      },
      "geometry": {
        "type": "Point",
        "coordinates": [
          -43.2055544,
          -22.9695808
        ]
      }
    },
    {
      "type": "Feature",
      "id": "node/2359482312",
      "properties": {
        "@id": "node/2359482312",
        "amenity": "bicycle_rental",
        "capacity": "14",
        "name": "Epitácio Pessoa",
        "operator": "BikeRio",
        "ref": "12",
        "source": "survey"
      },
      "geometry": {
        "type": "Point",
        "coordinates": [
          -43.2009193,
          -22.9787275
        ]
      }
    },
    {
      "type": "Feature",
      "id": "node/2359482534",
      "properties": {
        "@id": "node/2359482534",
        "amenity": "bicycle_rental",
        "capacity": "14",
        "name": "Maria Quitéria",
        "operator": "BikeRio",
        "ref": "13",
        "source": "survey"
      },
      "geometry": {
        "type": "Point",
        "coordinates": [
          -43.2070125,
          -22.9808808
        ]
      }
    },
    {
      "type": "Feature",
      "id": "node/2362462047",
      "properties": {
        "@id": "node/2362462047",
        "amenity": "bicycle_rental",
        "capacity": "12",
        "name": "Shopping da Gávea",
        "operator": "BikeRio",
        "ref": "16",
        "source": "survey"
      },
      "geometry": {
        "type": "Point",
        "coordinates": [
          -43.2278425,
          -22.975467
        ]
      }
    },
    {
      "type": "Feature",
      "id": "node/2362466422",
      "properties": {
        "@id": "node/2362466422",
        "amenity": "bicycle_rental",
        "capacity": "12",
        "name": "Terminal PUC",
        "operator": "BikeRio",
        "ref": "14",
        "source": "survey"
      },
      "geometry": {
        "type": "Point",
        "coordinates": [
          -43.229525,
          -22.978856
        ]
      }
    },
    {
      "type": "Feature",
      "id": "node/2362473627",
      "properties": {
        "@id": "node/2362473627",
        "amenity": "bicycle_rental",
        "capacity": "12",
        "name": "Largo do Boiadeiro",
        "operator": "BikeRio",
        "ref": "43",
        "source": "survey"
      },
      "geometry": {
        "type": "Point",
        "coordinates": [
          -43.2513876,
          -22.9922024
        ]
      }
    },
    {
      "type": "Feature",
      "id": "node/2362497362",
      "properties": {
        "@id": "node/2362497362",
        "amenity": "bicycle_rental",
        "capacity": "12",
        "name": "Largo da Memória",
        "operator": "BikeRio",
        "ref": "18",
        "source": "survey"
      },
      "geometry": {
        "type": "Point",
        "coordinates": [
          -43.223956,
          -22.9799108
        ]
      }
    },
    {
      "type": "Feature",
      "id": "node/2362501773",
      "properties": {
        "@id": "node/2362501773",
        "amenity": "bicycle_rental",
        "capacity": "12",
        "name": "Cine Leblon",
        "operator": "BikeRio",
        "ref": "29",
        "source": "survey"
      },
      "geometry": {
        "type": "Point",
        "coordinates": [
          -43.2210169,
          -22.9812733
        ]
      }
    },
    {
      "type": "Feature",
      "id": "node/2362506902",
      "properties": {
        "@id": "node/2362506902",
        "amenity": "bicycle_rental",
        "capacity": "12",
        "name": "Visconde de Albuquerque",
        "operator": "BikeRio",
        "ref": "27",
        "source": "survey"
      },
      "geometry": {
        "type": "Point",
        "coordinates": [
          -43.2263198,
          -22.9876787
        ]
      }
    },
    {
      "type": "Feature",
      "id": "node/2362513050",
      "properties": {
        "@id": "node/2362513050",
        "amenity": "bicycle_rental",
        "capacity": "14",
        "name": "José Linhares",
        "operator": "BikeRio",
        "ref": "19",
        "source": "survey"
      },
      "geometry": {
        "type": "Point",
        "coordinates": [
          -43.2209553,
          -22.9866194
        ]
      }
    },
    {
      "type": "Feature",
      "id": "node/2362533397",
      "properties": {
        "@id": "node/2362533397",
        "amenity": "bicycle_rental",
        "capacity": "12",
        "name": "Sá Ferreira",
        "operator": "BikeRio",
        "ref": "21",
        "source": "survey"
      },
      "geometry": {
        "type": "Point",
        "coordinates": [
          -43.1952247,
          -22.9820464
        ]
      }
    },
    {
      "type": "Feature",
      "id": "node/2362549175",
      "properties": {
        "@id": "node/2362549175",
        "amenity": "bicycle_rental",
        "capacity": "14",
        "name": "Dias da Rocha",
        "operator": "BikeRio",
        "ref": "22",
        "source": "survey"
      },
      "geometry": {
        "type": "Point",
        "coordinates": [
          -43.1885596,
          -22.9731616
        ]
      }
    },
    {
      "type": "Feature",
      "id": "node/2362550175",
      "properties": {
        "@id": "node/2362550175",
        "amenity": "bicycle_rental",
        "capacity": "12",
        "name": "Serzedelo Correa",
        "operator": "BikeRio",
        "ref": "23",
        "source": "survey"
      },
      "geometry": {
        "type": "Point",
        "coordinates": [
          -43.183547,
          -22.9687237
        ]
      }
    },
    {
      "type": "Feature",
      "id": "node/2362550607",
      "properties": {
        "@id": "node/2362550607",
        "amenity": "bicycle_rental",
        "capacity": "14",
        "name": "Copacabana Palace",
        "operator": "BikeRio",
        "ref": "20",
        "source": "survey"
      },
      "geometry": {
        "type": "Point",
        "coordinates": [
          -43.1783783,
          -22.9675755
        ]
      }
    },
    {
      "type": "Feature",
      "id": "node/2393462462",
      "properties": {
        "@id": "node/2393462462",
        "amenity": "bicycle_rental",
        "capacity": "10",
        "name": "estação portoleve"
      },
      "geometry": {
        "type": "Point",
        "coordinates": [
          -34.8743162,
          -8.063188
        ]
      }
    },
    {
      "type": "Feature",
      "id": "node/2418558652",
      "properties": {
        "@id": "node/2418558652",
        "amenity": "bicycle_rental",
        "capacity": "14",
        "name": "Bike PoA Menino Deus",
        "network": "Bike PoA",
        "opening_hours": "Su-Sa 06:00-22:00",
        "phone": "+55 51 40636299",
        "ref": "17",
        "website": "http://www.movesamba.com.br/bikepoa/"
      },
      "geometry": {
        "type": "Point",
        "coordinates": [
          -51.2308317,
          -30.0595715
        ]
      }
    },
    {
      "type": "Feature",
      "id": "node/2453489443",
      "properties": {
        "@id": "node/2453489443",
        "amenity": "bicycle_rental",
        "name": "Bike Santos",
        "source": "survey"
      },
      "geometry": {
        "type": "Point",
        "coordinates": [
          -46.3332176,
          -23.9688829
        ]
      }
    },
    {
      "type": "Feature",
      "id": "node/2453489468",
      "properties": {
        "@id": "node/2453489468",
        "amenity": "bicycle_rental",
        "name": "Bike Santos",
        "source": "mobilicidade"
      },
      "geometry": {
        "type": "Point",
        "coordinates": [
          -46.3289985,
          -23.9710274
        ]
      }
    },
    {
      "type": "Feature",
      "id": "node/2453489472",
      "properties": {
        "@id": "node/2453489472",
        "amenity": "bicycle_rental",
        "name": "Bike Santos (Estação 2)",
        "source": "http://bikesantos.com/"
      },
      "geometry": {
        "type": "Point",
        "coordinates": [
          -46.3393418,
          -23.9685324
        ]
      }
    },
    {
      "type": "Feature",
      "id": "node/2453489476",
      "properties": {
        "@id": "node/2453489476",
        "amenity": "bicycle_rental",
        "name": "Bike Santos",
        "source": "mobilicidade.com.br"
      },
      "geometry": {
        "type": "Point",
        "coordinates": [
          -46.3332766,
          -23.9696451
        ]
      }
    },
    {
      "type": "Feature",
      "id": "node/2453489483",
      "properties": {
        "@id": "node/2453489483",
        "amenity": "bicycle_rental",
        "name": "Bike Santos (Estação 14)",
        "source": "mobilicidade"
      },
      "geometry": {
        "type": "Point",
        "coordinates": [
          -46.3378605,
          -23.9611648
        ]
      }
    },
    {
      "type": "Feature",
      "id": "node/2467673285",
      "properties": {
        "@id": "node/2467673285",
        "amenity": "bicycle_rental",
        "capacity": "12",
        "name": "Porto da Barra",
        "network": "Bike Salvador",
        "opening_hours": "Su-Sa 06:00-22:00",
        "operator": "Bike Salvador",
        "phone": "+55 71 40627024",
        "ref": "04",
        "website": "http://www.bikesalvador.com/"
      },
      "geometry": {
        "type": "Point",
        "coordinates": [
          -38.533085,
          -13.0041585
        ]
      }
    },
    {
      "type": "Feature",
      "id": "node/2467692504",
      "properties": {
        "@id": "node/2467692504",
        "amenity": "bicycle_rental",
        "capacity": "12",
        "name": "Campo Grande",
        "network": "Bike Salvador",
        "opening_hours": "Su-Sa 06:00-22:00",
        "operator": "Bike Salvador",
        "phone": "+55 71 40627024",
        "ref": "01",
        "website": "http://www.bikesalvador.com/"
      },
      "geometry": {
        "type": "Point",
        "coordinates": [
          -38.520152,
          -12.9895498
        ]
      }
    },
    {
      "type": "Feature",
      "id": "node/2467692505",
      "properties": {
        "@id": "node/2467692505",
        "amenity": "bicycle_rental",
        "capacity": "12",
        "name": "Jardim Apipema",
        "network": "Bike Salvador",
        "opening_hours": "Su-Sa 06:00-22:00",
        "operator": "Bike Salvador",
        "phone": "+55 71 40627024",
        "ref": "05",
        "website": "http://www.bikesalvador.com/"
      },
      "geometry": {
        "type": "Point",
        "coordinates": [
          -38.516232,
          -13.0076341
        ]
      }
    },
    {
      "type": "Feature",
      "id": "node/2467692506",
      "properties": {
        "@id": "node/2467692506",
        "amenity": "bicycle_rental",
        "capacity": "12",
        "name": "Praça Castro Alves",
        "network": "Bike Salvador",
        "opening_hours": "Su-Sa 06:00-22:00",
        "operator": "Bike Salvador",
        "phone": "+55 71 40627024",
        "ref": "03",
        "website": "http://www.bikesalvador.com/"
      },
      "geometry": {
        "type": "Point",
        "coordinates": [
          -38.5145046,
          -12.9772521
        ]
      }
    },
    {
      "type": "Feature",
      "id": "node/2467692507",
      "properties": {
        "@id": "node/2467692507",
        "amenity": "bicycle_rental",
        "capacity": "12",
        "name": "Praça da Piedade",
        "network": "Bike Salvador",
        "opening_hours": "Su-Sa 06:00-22:00",
        "operator": "Bike Salvador",
        "phone": "+55 71 40627024",
        "ref": "02",
        "website": "http://www.bikesalvador.com/"
      },
      "geometry": {
        "type": "Point",
        "coordinates": [
          -38.515029,
          -12.9828574
        ]
      }
    },
    {
      "type": "Feature",
      "id": "node/2518515269",
      "properties": {
        "@id": "node/2518515269",
        "amenity": "bicycle_rental",
        "capacity": "12",
        "name": "Amaralina",
        "network": "Bike Salvador",
        "opening_hours": "Su-Sa 06:00-22:00",
        "operator": "Bike Salvador",
        "phone": "+55 71 40627024",
        "ref": "12",
        "website": "http://www.bikesalvador.com/"
      },
      "geometry": {
        "type": "Point",
        "coordinates": [
          -38.4679236,
          -13.0121596
        ]
      }
    },
    {
      "type": "Feature",
      "id": "node/2518515270",
      "properties": {
        "@id": "node/2518515270",
        "amenity": "bicycle_rental",
        "capacity": "12",
        "name": "Centenário",
        "network": "Bike Salvador",
        "opening_hours": "Su-Sa 06:00-22:00",
        "operator": "Bike Salvador",
        "phone": "+55 71 40627024",
        "ref": "06",
        "website": "http://www.bikesalvador.com/"
      },
      "geometry": {
        "type": "Point",
        "coordinates": [
          -38.5232444,
          -13.006116
        ]
      }
    },
    {
      "type": "Feature",
      "id": "node/2518515271",
      "properties": {
        "@id": "node/2518515271",
        "amenity": "bicycle_rental",
        "capacity": "12",
        "name": "Correios",
        "network": "Bike Salvador",
        "opening_hours": "Su-Sa 06:00-22:00",
        "operator": "Bike Salvador",
        "phone": "+55 71 40627024",
        "ref": "14",
        "website": "http://www.bikesalvador.com/"
      },
      "geometry": {
        "type": "Point",
        "coordinates": [
          -38.4552682,
          -13.0026948
        ]
      }
    },
    {
      "type": "Feature",
      "id": "node/2518515272",
      "properties": {
        "@id": "node/2518515272",
        "amenity": "bicycle_rental",
        "capacity": "12",
        "name": "Jardim de Alah",
        "network": "Bike Salvador",
        "opening_hours": "Su-Sa 06:00-22:00",
        "operator": "Bike Salvador",
        "phone": "+55 71 40627024",
        "ref": "17",
        "website": "http://www.bikesalvador.com/"
      },
      "geometry": {
        "type": "Point",
        "coordinates": [
          -38.4408249,
          -12.994723
        ]
      }
    },
    {
      "type": "Feature",
      "id": "node/2518515273",
      "properties": {
        "@id": "node/2518515273",
        "amenity": "bicycle_rental",
        "capacity": "12",
        "name": "Largo da Mariquita",
        "network": "Bike Salvador",
        "opening_hours": "Su-Sa 06:00-22:00",
        "operator": "Bike Salvador",
        "phone": "+55 71 40627024",
        "ref": "11",
        "website": "http://www.bikesalvador.com/"
      },
      "geometry": {
        "type": "Point",
        "coordinates": [
          -38.4886155,
          -13.0137384
        ]
      }
    },
    {
      "type": "Feature",
      "id": "node/2518515274",
      "properties": {
        "@id": "node/2518515274",
        "amenity": "bicycle_rental",
        "capacity": "12",
        "name": "Largo da Vitória",
        "network": "Bike Salvador",
        "opening_hours": "Su-Sa 06:00-22:00",
        "operator": "Bike Salvador",
        "phone": "+55 71 40627024",
        "ref": "07",
        "website": "http://www.bikesalvador.com/"
      },
      "geometry": {
        "type": "Point",
        "coordinates": [
          -38.527791,
          -12.9964744
        ]
      }
    },
    {
      "type": "Feature",
      "id": "node/2518515275",
      "properties": {
        "@id": "node/2518515275",
        "amenity": "bicycle_rental",
        "capacity": "12",
        "name": "Nossa Senhora da Luz",
        "network": "Bike Salvador",
        "opening_hours": "Su-Sa 06:00-22:00",
        "operator": "Bike Salvador",
        "phone": "+55 71 40627024",
        "ref": "15",
        "website": "http://www.bikesalvador.com/"
      },
      "geometry": {
        "type": "Point",
        "coordinates": [
          -38.4561744,
          -13.0058469
        ]
      }
    },
    {
      "type": "Feature",
      "id": "node/2518515276",
      "properties": {
        "@id": "node/2518515276",
        "amenity": "bicycle_rental",
        "capacity": "12",
        "name": "Ondina",
        "network": "Bike Salvador",
        "opening_hours": "Su-Sa 06:00-22:00",
        "operator": "Bike Salvador",
        "phone": "+55 71 40627024",
        "ref": "08",
        "website": "http://www.bikesalvador.com/"
      },
      "geometry": {
        "type": "Point",
        "coordinates": [
          -38.5075513,
          -13.0112321
        ]
      }
    },
    {
      "type": "Feature",
      "id": "node/2518515277",
      "properties": {
        "@id": "node/2518515277",
        "amenity": "bicycle_rental",
        "capacity": "12",
        "name": "Parque Costa Azul",
        "network": "Bike Salvador",
        "opening_hours": "Su-Sa 06:00-22:00",
        "operator": "Bike Salvador",
        "phone": "+55 71 40627024",
        "ref": "16",
        "website": "http://www.bikesalvador.com/"
      },
      "geometry": {
        "type": "Point",
        "coordinates": [
          -38.4495752,
          -12.9967967
        ]
      }
    },
    {
      "type": "Feature",
      "id": "node/2518515278",
      "properties": {
        "@id": "node/2518515278",
        "amenity": "bicycle_rental",
        "capacity": "12",
        "name": "Bike Salvador, Estação 10",
        "network": "Bike Salvador",
        "opening_hours": "Su-Sa 06:00-22:00",
        "operator": "Bike Salvador",
        "phone": "+55 71 40627024",
        "ref": "10",
        "website": "http://www.bikesalvador.com/"
      },
      "geometry": {
        "type": "Point",
        "coordinates": [
          -38.4899605,
          -13.0103229
        ]
      }
    },
    {
      "type": "Feature",
      "id": "node/2518515279",
      "properties": {
        "@id": "node/2518515279",
        "amenity": "bicycle_rental",
        "capacity": "12",
        "name": "Pinto de Aguiar",
        "network": "Bike Salvador",
        "opening_hours": "Su-Sa 06:00-22:00",
        "operator": "Bike Salvador",
        "phone": "+55 71 40627024",
        "ref": "20",
        "website": "http://www.bikesalvador.com/"
      },
      "geometry": {
        "type": "Point",
        "coordinates": [
          -38.401463,
          -12.9575391
        ]
      }
    },
    {
      "type": "Feature",
      "id": "node/2518515280",
      "properties": {
        "@id": "node/2518515280",
        "amenity": "bicycle_rental",
        "capacity": "12",
        "name": "Praia de Patamares",
        "network": "Bike Salvador",
        "opening_hours": "Su-Sa 06:00-22:00",
        "operator": "Bike Salvador",
        "phone": "+55 71 40627024",
        "ref": "19",
        "website": "http://www.bikesalvador.com/"
      },
      "geometry": {
        "type": "Point",
        "coordinates": [
          -38.4054352,
          -12.9671741
        ]
      }
    },
    {
      "type": "Feature",
      "id": "node/2518515281",
      "properties": {
        "@id": "node/2518515281",
        "amenity": "bicycle_rental",
        "capacity": "12",
        "name": "Praça do Imbuí",
        "network": "Bike Salvador",
        "opening_hours": "Su-Sa 06:00-22:00",
        "operator": "Bike Salvador",
        "phone": "+55 71 40627024",
        "ref": "09",
        "website": "http://www.bikesalvador.com/"
      },
      "geometry": {
        "type": "Point",
        "coordinates": [
          -38.4302174,
          -12.9689931
        ]
      }
    },
    {
      "type": "Feature",
      "id": "node/2518515282",
      "properties": {
        "@id": "node/2518515282",
        "amenity": "bicycle_rental",
        "capacity": "12",
        "name": "Rua Ceará",
        "network": "Bike Salvador",
        "opening_hours": "Su-Sa 06:00-22:00",
        "operator": "Bike Salvador",
        "phone": "+55 71 40627024",
        "ref": "13",
        "website": "http://www.bikesalvador.com/"
      },
      "geometry": {
        "type": "Point",
        "coordinates": [
          -38.4626617,
          -13.0031104
        ]
      }
    },
    {
      "type": "Feature",
      "id": "node/2574331669",
      "properties": {
        "@id": "node/2574331669",
        "amenity": "bicycle_rental",
        "capacity": "12",
        "name": "BikePOA - Getulio Vargas"
      },
      "geometry": {
        "type": "Point",
        "coordinates": [
          -51.2220879,
          -30.0544214
        ]
      }
    },
    {
      "type": "Feature",
      "id": "node/2576459051",
      "properties": {
        "@id": "node/2576459051",
        "amenity": "bicycle_rental",
        "name": "Copa Tur"
      },
      "geometry": {
        "type": "Point",
        "coordinates": [
          -38.0041358,
          -12.5767811
        ]
      }
    },
    {
      "type": "Feature",
      "id": "node/2628975064",
      "properties": {
        "@id": "node/2628975064",
        "amenity": "bicycle_rental",
        "capacity": "12",
        "name": "Baixa do Bomfim",
        "network": "Bike Salvador",
        "opening_hours": "Su-Sa 06:00-22:00",
        "operator": "Bike Salvador",
        "phone": "+55 71 40627024",
        "ref": "29",
        "website": "http://www.bikesalvador.com/"
      },
      "geometry": {
        "type": "Point",
        "coordinates": [
          -38.5079129,
          -12.9252538
        ]
      }
    },
    {
      "type": "Feature",
      "id": "node/2628975069",
      "properties": {
        "@id": "node/2628975069",
        "amenity": "bicycle_rental",
        "capacity": "12",
        "name": "Boa Viagem",
        "network": "Bike Salvador",
        "opening_hours": "Su-Sa 06:00-22:00",
        "operator": "Bike Salvador",
        "phone": "+55 71 40627024",
        "ref": "30",
        "website": "http://www.bikesalvador.com/"
      },
      "geometry": {
        "type": "Point",
        "coordinates": [
          -38.5137539,
          -12.9316041
        ]
      }
    },
    {
      "type": "Feature",
      "id": "node/2628975075",
      "properties": {
        "@id": "node/2628975075",
        "amenity": "bicycle_rental",
        "capacity": "12",
        "name": "Jaguaribe",
        "network": "Bike Salvador",
        "opening_hours": "Su-Sa 06:00-22:00",
        "operator": "Bike Salvador",
        "phone": "+55 71 40627024",
        "ref": "23",
        "website": "http://www.bikesalvador.com/"
      },
      "geometry": {
        "type": "Point",
        "coordinates": [
          -38.3965131,
          -12.9609544
        ]
      }
    },
    {
      "type": "Feature",
      "id": "node/2628975081",
      "properties": {
        "@id": "node/2628975081",
        "amenity": "bicycle_rental",
        "capacity": "12",
        "name": "Largo de Roma",
        "network": "Bike Salvador",
        "opening_hours": "Su-Sa 06:00-22:00",
        "operator": "Bike Salvador",
        "phone": "+55 71 40627024",
        "ref": "31",
        "website": "http://www.bikesalvador.com/"
      },
      "geometry": {
        "type": "Point",
        "coordinates": [
          -38.5060085,
          -12.9369059
        ]
      }
    },
    {
      "type": "Feature",
      "id": "node/2628975088",
      "properties": {
        "@id": "node/2628975088",
        "amenity": "bicycle_rental",
        "capacity": "12",
        "name": "Placafor",
        "network": "Bike Salvador",
        "opening_hours": "Su-Sa 06:00-22:00",
        "operator": "Bike Salvador",
        "phone": "+55 71 40627024",
        "ref": "24",
        "website": "http://www.bikesalvador.com/"
      },
      "geometry": {
        "type": "Point",
        "coordinates": [
          -38.3764511,
          -12.9525364
        ]
      }
    },
    {
      "type": "Feature",
      "id": "node/2628975095",
      "properties": {
        "@id": "node/2628975095",
        "amenity": "bicycle_rental",
        "capacity": "12",
        "name": "Praça do Fórum Ruy Barbosa",
        "network": "Bike Salvador",
        "opening_hours": "Su-Sa 06:00-22:00",
        "operator": "Bike Salvador",
        "phone": "+55 71 40627024",
        "ref": "27",
        "website": "http://www.bikesalvador.com/"
      },
      "geometry": {
        "type": "Point",
        "coordinates": [
          -38.5080529,
          -12.9789317
        ]
      }
    },
    {
      "type": "Feature",
      "id": "node/2628975108",
      "properties": {
        "@id": "node/2628975108",
        "amenity": "bicycle_rental",
        "capacity": "12",
        "name": "Rua dos Colibris",
        "network": "Bike Salvador",
        "opening_hours": "Su-Sa 06:00-22:00",
        "operator": "Bike Salvador",
        "phone": "+55 71 40627024",
        "ref": "22",
        "website": "http://www.bikesalvador.com/"
      },
      "geometry": {
        "type": "Point",
        "coordinates": [
          -38.4388574,
          -12.9711029
        ]
      }
    },
    {
      "type": "Feature",
      "id": "node/2628975114",
      "properties": {
        "@id": "node/2628975114",
        "amenity": "bicycle_rental",
        "capacity": "12",
        "name": "Universidade Bahiana",
        "network": "Bike Salvador",
        "opening_hours": "Su-Sa 06:00-22:00",
        "operator": "Bike Salvador",
        "phone": "+55 71 40627024",
        "ref": "25",
        "website": "http://www.bikesalvador.com/"
      },
      "geometry": {
        "type": "Point",
        "coordinates": [
          -38.4879447,
          -12.9904798
        ]
      }
    },
    {
      "type": "Feature",
      "id": "node/2644413448",
      "properties": {
        "@id": "node/2644413448",
        "amenity": "bicycle_rental"
      },
      "geometry": {
        "type": "Point",
        "coordinates": [
          -35.6992348,
          -9.6444863
        ]
      }
    },
    {
      "type": "Feature",
      "id": "node/2647326572",
      "properties": {
        "@id": "node/2647326572",
        "amenity": "bicycle_rental",
        "capacity": "10"
      },
      "geometry": {
        "type": "Point",
        "coordinates": [
          -46.6365048,
          -23.5598553
        ]
      }
    },
    {
      "type": "Feature",
      "id": "node/2649791044",
      "properties": {
        "@id": "node/2649791044",
        "amenity": "bicycle_rental",
        "capacity": "20"
      },
      "geometry": {
        "type": "Point",
        "coordinates": [
          -43.2025158,
          -22.9740151
        ]
      }
    },
    {
      "type": "Feature",
      "id": "node/2657588729",
      "properties": {
        "@id": "node/2657588729",
        "amenity": "bicycle_rental"
      },
      "geometry": {
        "type": "Point",
        "coordinates": [
          -51.2449687,
          -30.0771764
        ]
      }
    },
    {
      "type": "Feature",
      "id": "node/2687094131",
      "properties": {
        "@id": "node/2687094131",
        "amenity": "bicycle_rental",
        "capacity": "12",
        "name": "Bahia Marina",
        "network": "Bike Salvador",
        "opening_hours": "Su-Sa 06:00-22:00",
        "operator": "Bike Salvador",
        "phone": "+55 71 40627024",
        "ref": "36",
        "website": "http://www.bikesalvador.com/"
      },
      "geometry": {
        "type": "Point",
        "coordinates": [
          -38.5187798,
          -12.9804217
        ]
      }
    },
    {
      "type": "Feature",
      "id": "node/2687094134",
      "properties": {
        "@id": "node/2687094134",
        "amenity": "bicycle_rental",
        "capacity": "14",
        "name": "Estaçao do Trem",
        "network": "Bike Salvador",
        "opening_hours": "Su-Sa 06:00-22:00",
        "operator": "Bike Salvador",
        "phone": "+55 71 40627024",
        "ref": "32",
        "website": "http://www.bikesalvador.com/"
      },
      "geometry": {
        "type": "Point",
        "coordinates": [
          -38.5007751,
          -12.9467375
        ]
      }
    },
    {
      "type": "Feature",
      "id": "node/2687094135",
      "properties": {
        "@id": "node/2687094135",
        "amenity": "bicycle_rental",
        "capacity": "12",
        "name": "Final de Linha de Brotas",
        "network": "Bike Salvador",
        "opening_hours": "Su-Sa 06:00-22:00",
        "operator": "Bike Salvador",
        "phone": "+55 71 40627024",
        "ref": "28",
        "website": "http://www.bikesalvador.com/"
      },
      "geometry": {
        "type": "Point",
        "coordinates": [
          -38.4779066,
          -12.9820578
        ]
      }
    },
    {
      "type": "Feature",
      "id": "node/2687094137",
      "properties": {
        "@id": "node/2687094137",
        "amenity": "bicycle_rental",
        "capacity": "12",
        "name": "Praça do Divina",
        "network": "Bike Salvador",
        "opening_hours": "Su-Sa 06:00-22:00",
        "operator": "Bike Salvador",
        "phone": "+55 71 40627024",
        "ref": "35",
        "website": "http://www.bikesalvador.com/"
      },
      "geometry": {
        "type": "Point",
        "coordinates": [
          -38.5065041,
          -12.921955
        ]
      }
    },
    {
      "type": "Feature",
      "id": "node/2687094138",
      "properties": {
        "@id": "node/2687094138",
        "amenity": "bicycle_rental",
        "capacity": "12",
        "name": "Solar da Boa Vista",
        "network": "Bike Salvador",
        "opening_hours": "Su-Sa 06:00-22:00",
        "operator": "Bike Salvador",
        "phone": "+55 71 40627024",
        "ref": "26",
        "website": "http://www.bikesalvador.com/"
      },
      "geometry": {
        "type": "Point",
        "coordinates": [
          -38.5010184,
          -12.9833742
        ]
      }
    },
    {
      "type": "Feature",
      "id": "node/2705879057",
      "properties": {
        "@id": "node/2705879057",
        "amenity": "bicycle_rental",
        "name": "Espaço Bike"
      },
      "geometry": {
        "type": "Point",
        "coordinates": [
          -38.4931147,
          -3.7957604
        ]
      }
    },
    {
      "type": "Feature",
      "id": "node/2752865552",
      "properties": {
        "@id": "node/2752865552",
        "amenity": "bicycle_rental",
        "capacity": "14",
        "name": "Sala Cecília Meireles",
        "network": "BikeRio",
        "ref": "145",
        "website": "http://www.movesamba.com.br/bikerio/"
      },
      "geometry": {
        "type": "Point",
        "coordinates": [
          -43.1787199,
          -22.9138935
        ]
      }
    },
    {
      "type": "Feature",
      "id": "node/2752865574",
      "properties": {
        "@id": "node/2752865574",
        "amenity": "bicycle_rental",
        "capacity": "12",
        "name": "Gomes Freire",
        "network": "BikeRio",
        "ref": "148",
        "website": "http://www.movesamba.com.br/bikerio/"
      },
      "geometry": {
        "type": "Point",
        "coordinates": [
          -43.1829877,
          -22.9126458
        ]
      }
    },
    {
      "type": "Feature",
      "id": "node/2752865580",
      "properties": {
        "@id": "node/2752865580",
        "amenity": "bicycle_rental",
        "capacity": "13",
        "name": "Lavradio",
        "network": "BikeRio",
        "ref": "143",
        "website": "http://www.movesamba.com.br/bikerio/"
      },
      "geometry": {
        "type": "Point",
        "coordinates": [
          -43.1833339,
          -22.9092963
        ]
      }
    },
    {
      "type": "Feature",
      "id": "node/2752865587",
      "properties": {
        "@id": "node/2752865587",
        "amenity": "bicycle_rental",
        "capacity": "14",
        "name": "Praça Tiradentes",
        "network": "BikeRio",
        "ref": "141",
        "website": "http://www.movesamba.com.br/bikerio/"
      },
      "geometry": {
        "type": "Point",
        "coordinates": [
          -43.1821624,
          -22.9068938
        ]
      }
    },
    {
      "type": "Feature",
      "id": "node/2752865603",
      "properties": {
        "@id": "node/2752865603",
        "amenity": "bicycle_rental",
        "capacity": "12",
        "name": "Praça da República",
        "network": "BikeRio",
        "ref": "153",
        "website": "http://www.movesamba.com.br/bikerio/"
      },
      "geometry": {
        "type": "Point",
        "coordinates": [
          -43.1898779,
          -22.9074914
        ]
      }
    },
    {
      "type": "Feature",
      "id": "node/2752865640",
      "properties": {
        "@id": "node/2752865640",
        "amenity": "bicycle_rental",
        "capacity": "12",
        "name": "Banco Central",
        "network": "BikeRio",
        "ref": "135",
        "website": "http://www.movesamba.com.br/bikerio/"
      },
      "geometry": {
        "type": "Point",
        "coordinates": [
          -43.1827655,
          -22.9021275
        ]
      }
    },
    {
      "type": "Feature",
      "id": "node/2752865656",
      "properties": {
        "@id": "node/2752865656",
        "amenity": "bicycle_rental",
        "capacity": "12",
        "name": "Barão de Tefé",
        "network": "BikeRio",
        "ref": "133",
        "website": "http://www.movesamba.com.br/bikerio/"
      },
      "geometry": {
        "type": "Point",
        "coordinates": [
          -43.1868851,
          -22.8964294
        ]
      }
    },
    {
      "type": "Feature",
      "id": "node/2752865668",
      "properties": {
        "@id": "node/2752865668",
        "amenity": "bicycle_rental",
        "capacity": "12",
        "name": "MAR",
        "network": "BikeRio",
        "ref": "132",
        "website": "http://www.movesamba.com.br/bikerio/"
      },
      "geometry": {
        "type": "Point",
        "coordinates": [
          -43.1822635,
          -22.8971115
        ]
      }
    },
    {
      "type": "Feature",
      "id": "node/2752865692",
      "properties": {
        "@id": "node/2752865692",
        "amenity": "bicycle_rental",
        "capacity": "12",
        "name": "Rosário",
        "network": "BikeRio",
        "ref": "137",
        "website": "http://www.movesamba.com.br/bikerio/"
      },
      "geometry": {
        "type": "Point",
        "coordinates": [
          -43.1782306,
          -22.9030829
        ]
      }
    },
    {
      "type": "Feature",
      "id": "node/2752865708",
      "properties": {
        "@id": "node/2752865708",
        "amenity": "bicycle_rental",
        "capacity": "12",
        "name": "Quitanda",
        "network": "BikeRio",
        "ref": "127",
        "website": "http://www.movesamba.com.br/bikerio/"
      },
      "geometry": {
        "type": "Point",
        "coordinates": [
          -43.1765617,
          -22.903948
        ]
      }
    },
    {
      "type": "Feature",
      "id": "node/2752892907",
      "properties": {
        "@id": "node/2752892907",
        "amenity": "bicycle_rental",
        "capacity": "12",
        "name": "Largo da Carioca",
        "network": "BikeRio",
        "ref": "142",
        "website": "http://www.movesamba.com.br/bikerio/"
      },
      "geometry": {
        "type": "Point",
        "coordinates": [
          -43.1778485,
          -22.9074281
        ]
      }
    },
    {
      "type": "Feature",
      "id": "node/2752892911",
      "properties": {
        "@id": "node/2752892911",
        "amenity": "bicycle_rental",
        "capacity": "12",
        "name": "Buraco do Lume",
        "network": "BikeRio",
        "ref": "125",
        "website": "http://www.movesamba.com.br/bikerio/"
      },
      "geometry": {
        "type": "Point",
        "coordinates": [
          -43.1758288,
          -22.9058691
        ]
      }
    },
    {
      "type": "Feature",
      "id": "node/2752892916",
      "properties": {
        "@id": "node/2752892916",
        "amenity": "bicycle_rental",
        "capacity": "12",
        "name": "Menezes Côrtes",
        "network": "BikeRio",
        "ref": "126",
        "website": "http://www.movesamba.com.br/bikerio/"
      },
      "geometry": {
        "type": "Point",
        "coordinates": [
          -43.175044,
          -22.904939
        ]
      }
    },
    {
      "type": "Feature",
      "id": "node/2752892920",
      "properties": {
        "@id": "node/2752892920",
        "amenity": "bicycle_rental",
        "capacity": "12",
        "name": "Nilo Peçanha",
        "network": "BikeRio",
        "ref": "240",
        "website": "http://www.movesamba.com.br/bikerio/"
      },
      "geometry": {
        "type": "Point",
        "coordinates": [
          -43.1736308,
          -22.9059008
        ]
      }
    },
    {
      "type": "Feature",
      "id": "node/2752892924",
      "properties": {
        "@id": "node/2752892924",
        "amenity": "bicycle_rental",
        "capacity": "12",
        "name": "Almirante Barroso",
        "network": "BikeRio",
        "ref": "123",
        "website": "http://www.movesamba.com.br/bikerio/"
      },
      "geometry": {
        "type": "Point",
        "coordinates": [
          -43.1751512,
          -22.9075478
        ]
      }
    },
    {
      "type": "Feature",
      "id": "node/2752892930",
      "properties": {
        "@id": "node/2752892930",
        "amenity": "bicycle_rental",
        "capacity": "12",
        "name": "Fórum",
        "network": "BikeRio",
        "ref": "122",
        "website": "http://www.movesamba.com.br/bikerio/"
      },
      "geometry": {
        "type": "Point",
        "coordinates": [
          -43.1718236,
          -22.9056004
        ]
      }
    },
    {
      "type": "Feature",
      "id": "node/2752892953",
      "properties": {
        "@id": "node/2752892953",
        "amenity": "bicycle_rental",
        "capacity": "12",
        "name": "Churchil",
        "network": "BikeRio",
        "ref": "121",
        "website": "http://www.movesamba.com.br/bikerio/"
      },
      "geometry": {
        "type": "Point",
        "coordinates": [
          -43.1703743,
          -22.9087293
        ]
      }
    },
    {
      "type": "Feature",
      "id": "node/2752892958",
      "properties": {
        "@id": "node/2752892958",
        "amenity": "bicycle_rental",
        "capacity": "14",
        "name": "Maison de France",
        "network": "BikeRio",
        "ref": "120",
        "website": "http://www.movesamba.com.br/bikerio/"
      },
      "geometry": {
        "type": "Point",
        "coordinates": [
          -43.171846,
          -22.9103957
        ]
      }
    },
    {
      "type": "Feature",
      "id": "node/2752892963",
      "properties": {
        "@id": "node/2752892963",
        "amenity": "bicycle_rental",
        "capacity": "12",
        "name": "Aeroporto Santos Dumont",
        "network": "BikeRio",
        "ref": "166",
        "website": "http://www.movesamba.com.br/bikerio/"
      },
      "geometry": {
        "type": "Point",
        "coordinates": [
          -43.1673031,
          -22.9104975
        ]
      }
    },
    {
      "type": "Feature",
      "id": "node/2752892968",
      "properties": {
        "@id": "node/2752892968",
        "amenity": "bicycle_rental",
        "capacity": "12",
        "name": "MAM",
        "network": "BikeRio",
        "ref": "119",
        "website": "http://www.movesamba.com.br/bikerio/"
      },
      "geometry": {
        "type": "Point",
        "coordinates": [
          -43.1721485,
          -22.9127377
        ]
      }
    },
    {
      "type": "Feature",
      "id": "node/2857242402",
      "properties": {
        "@id": "node/2857242402",
        "amenity": "bicycle_rental",
        "capacity": "12",
        "name": "Assunção",
        "network": "BikeRio",
        "ref": "80"
      },
      "geometry": {
        "type": "Point",
        "coordinates": [
          -43.1860952,
          -22.9436625
        ]
      }
    },
    {
      "type": "Feature",
      "id": "node/2857263301",
      "properties": {
        "@id": "node/2857263301",
        "amenity": "bicycle_rental",
        "capacity": "14",
        "name": "Rua do Catete",
        "network": "BikeRio",
        "ref": "61"
      },
      "geometry": {
        "type": "Point",
        "coordinates": [
          -43.1771937,
          -22.9234784
        ]
      }
    },
    {
      "type": "Feature",
      "id": "node/2860552968",
      "properties": {
        "@id": "node/2860552968",
        "amenity": "bicycle_rental",
        "name": "Eça de Queiroz"
      },
      "geometry": {
        "type": "Point",
        "coordinates": [
          -46.6427872,
          -23.5788106
        ]
      }
    },
    {
      "type": "Feature",
      "id": "node/2862035166",
      "properties": {
        "@id": "node/2862035166",
        "amenity": "bicycle_rental",
        "capacity": "12",
        "name": "Haddock Lobo",
        "network": "Bike Sampa",
        "operator": "Bike Sampa"
      },
      "geometry": {
        "type": "Point",
        "coordinates": [
          -46.6630366,
          -23.5592808
        ]
      }
    },
    {
      "type": "Feature",
      "id": "node/2869109082",
      "properties": {
        "@id": "node/2869109082",
        "amenity": "bicycle_rental",
        "capacity": "12",
        "name": "Metrô Vila Madalena",
        "operator": "Bike Sampa",
        "ref": "110"
      },
      "geometry": {
        "type": "Point",
        "coordinates": [
          -46.6905815,
          -23.5478481
        ]
      }
    },
    {
      "type": "Feature",
      "id": "node/2878161233",
      "properties": {
        "@id": "node/2878161233",
        "amenity": "bicycle_rental",
        "capacity": "12",
        "name": "Bike Salvador",
        "operator": "Bike Salvador",
        "phone": "+55 71 4003-9892"
      },
      "geometry": {
        "type": "Point",
        "coordinates": [
          -38.5079171,
          -13.01096
        ]
      }
    },
    {
      "type": "Feature",
      "id": "node/2878179410",
      "properties": {
        "@id": "node/2878179410",
        "amenity": "bicycle_rental",
        "capacity": "12",
        "name": "Largo da Ribeira",
        "network": "Bike Salvador",
        "operator": "Bike Salvador",
        "ref": "39"
      },
      "geometry": {
        "type": "Point",
        "coordinates": [
          -38.4946287,
          -12.9120411
        ]
      }
    },
    {
      "type": "Feature",
      "id": "node/2895729630",
      "properties": {
        "@id": "node/2895729630",
        "addr:city": "Aracaju",
        "addr:street": "Rua Boquim",
        "alt_name": "Conservatório de Música",
        "amenity": "bicycle_rental",
        "capacity": "12",
        "name": "Caju Bike",
        "network": "Caju Bike",
        "opening_hours": "Su-Sa 06:00-22:00",
        "operator": "Caju Bike",
        "phone": "+55 4003 9891",
        "ref": "08",
        "website": "http://www.cajubike.com"
      },
      "geometry": {
        "type": "Point",
        "coordinates": [
          -37.0517901,
          -10.9172937
        ]
      }
    },
    {
      "type": "Feature",
      "id": "node/2895729631",
      "properties": {
        "@id": "node/2895729631",
        "addr:city": "Aracaju",
        "addr:street": "Praça Almirante Tamandaré",
        "amenity": "bicycle_rental",
        "capacity": "12",
        "name": "Caju Bike",
        "network": "Caju Bike",
        "opening_hours": "Su-Sa 06:00-22:00",
        "operator": "Caju Bike",
        "phone": "+55 4003 9891",
        "ref": "07",
        "website": "http://www.cajubike.com"
      },
      "geometry": {
        "type": "Point",
        "coordinates": [
          -37.0485126,
          -10.9182272
        ]
      }
    },
    {
      "type": "Feature",
      "id": "node/2895729632",
      "properties": {
        "@id": "node/2895729632",
        "addr:city": "Aracaju",
        "addr:street": "Praça Almirante Tamandaré",
        "amenity": "bicycle_rental",
        "capacity": "12",
        "name": "Caju Bike",
        "network": "Caju Bike",
        "opening_hours": "Su-Sa 06:00-22:00",
        "operator": "Caju Bike",
        "phone": "+55 4003 9891",
        "ref": "09",
        "website": "http://www.cajubike.com"
      },
      "geometry": {
        "type": "Point",
        "coordinates": [
          -37.0470587,
          -10.9202019
        ]
      }
    },
    {
      "type": "Feature",
      "id": "node/2895729633",
      "properties": {
        "@id": "node/2895729633",
        "addr:city": "Aracaju",
        "addr:street": "Rua Riachuelo",
        "amenity": "bicycle_rental",
        "capacity": "12",
        "name": "Caju Bike",
        "network": "Caju Bike",
        "opening_hours": "Su-Sa 06:00-22:00",
        "operator": "Caju Bike",
        "phone": "+55 4003 9891",
        "ref": "10",
        "website": "http://www.cajubike.com"
      },
      "geometry": {
        "type": "Point",
        "coordinates": [
          -37.0519076,
          -10.9206738
        ]
      }
    },
    {
      "type": "Feature",
      "id": "node/2895729634",
      "properties": {
        "@id": "node/2895729634",
        "addr:city": "Aracaju",
        "addr:street": "Rua Santa Luzia",
        "amenity": "bicycle_rental",
        "capacity": "12",
        "name": "Caju Bike",
        "network": "Caju Bike",
        "opening_hours": "Su-Sa 06:00-22:00",
        "operator": "Caju Bike",
        "phone": "+55 4003 9891",
        "ref": "06",
        "website": "http://www.cajubike.com"
      },
      "geometry": {
        "type": "Point",
        "coordinates": [
          -37.0517208,
          -10.922864
        ]
      }
    },
    {
      "type": "Feature",
      "id": "node/2895729635",
      "properties": {
        "@id": "node/2895729635",
        "addr:city": "Aracaju",
        "addr:street": "Rua Pedro Mandarino",
        "amenity": "bicycle_rental",
        "capacity": "12",
        "name": "Caju Bike",
        "network": "Caju Bike",
        "opening_hours": "Su-Sa 06:00-22:00",
        "operator": "Caju Bike",
        "phone": "+55 4003 9891",
        "ref": "05",
        "website": "http://www.cajubike.com"
      },
      "geometry": {
        "type": "Point",
        "coordinates": [
          -37.0413085,
          -10.9657348
        ]
      }
    },
    {
      "type": "Feature",
      "id": "node/2895729636",
      "properties": {
        "@id": "node/2895729636",
        "addr:city": "Aracaju",
        "addr:street": "Avenida Santos Dumont",
        "amenity": "bicycle_rental",
        "capacity": "12",
        "name": "Caju Bike",
        "network": "Caju Bike",
        "opening_hours": "Su-Sa 06:00-22:00",
        "operator": "Caju Bike",
        "phone": "+55 4003 9891",
        "ref": "04",
        "website": "http://www.cajubike.com"
      },
      "geometry": {
        "type": "Point",
        "coordinates": [
          -37.0383367,
          -10.9745219
        ]
      }
    },
    {
      "type": "Feature",
      "id": "node/2895729637",
      "properties": {
        "@id": "node/2895729637",
        "addr:city": "Aracaju",
        "addr:street": "Avenida Santos Dumont",
        "amenity": "bicycle_rental",
        "capacity": "12",
        "name": "Caju Bike",
        "network": "Caju Bike",
        "opening_hours": "Su-Sa 06:00-22:00",
        "operator": "Caju Bike",
        "phone": "+55 4003 9891",
        "ref": "03",
        "website": "http://www.cajubike.com"
      },
      "geometry": {
        "type": "Point",
        "coordinates": [
          -37.041221,
          -10.9783536
        ]
      }
    },
    {
      "type": "Feature",
      "id": "node/2895729638",
      "properties": {
        "@id": "node/2895729638",
        "addr:city": "Aracaju",
        "addr:street": "Avenida Santos Dumont",
        "amenity": "bicycle_rental",
        "capacity": "12",
        "name": "Caju Bike",
        "network": "Caju Bike",
        "opening_hours": "Su-Sa 06:00-22:00",
        "operator": "Caju Bike",
        "phone": "+55 4003 9891",
        "ref": "02",
        "website": "http://www.cajubike.com"
      },
      "geometry": {
        "type": "Point",
        "coordinates": [
          -37.0472277,
          -10.98697
        ]
      }
    },
    {
      "type": "Feature",
      "id": "node/2895729639",
      "properties": {
        "@id": "node/2895729639",
        "addr:street": "Avenida Rotary",
        "amenity": "bicycle_rental",
        "capacity": "12",
        "name": "Caju Bike",
        "network": "Caju Bike",
        "opening_hours": "Su-Sa 06:00-22:00",
        "operator": "Caju Bike",
        "phone": "+55 4003 9891",
        "ref": "01",
        "website": "http://www.cajubike.com"
      },
      "geometry": {
        "type": "Point",
        "coordinates": [
          -37.0518916,
          -10.9872576
        ]
      }
    },
    {
      "type": "Feature",
      "id": "node/2897250171",
      "properties": {
        "@id": "node/2897250171",
        "addr:street": "Memorial JK",
        "amenity": "bicycle_rental",
        "capacity": "12",
        "name": "Bike Brasília - Estação 1",
        "operator": "Itaú"
      },
      "geometry": {
        "type": "Point",
        "coordinates": [
          -47.9139094,
          -15.784617
        ]
      }
    },
    {
      "type": "Feature",
      "id": "node/2897250172",
      "properties": {
        "@id": "node/2897250172",
        "addr:street": "Praça do Buriti",
        "amenity": "bicycle_rental",
        "capacity": "12",
        "name": "Bike Brasília - Estação 2",
        "operator": "Itaú"
      },
      "geometry": {
        "type": "Point",
        "coordinates": [
          -47.9087794,
          -15.7863125
        ]
      }
    },
    {
      "type": "Feature",
      "id": "node/2897250173",
      "properties": {
        "@id": "node/2897250173",
        "addr:street": "Centro de Convenções",
        "amenity": "bicycle_rental",
        "capacity": "12",
        "name": "Bike Brasília - Estação 3",
        "operator": "Itaú"
      },
      "geometry": {
        "type": "Point",
        "coordinates": [
          -47.9007476,
          -15.7865141
        ]
      }
    },
    {
      "type": "Feature",
      "id": "node/2897250174",
      "properties": {
        "@id": "node/2897250174",
        "addr:street": "Torre de TV",
        "amenity": "bicycle_rental",
        "capacity": "12",
        "name": "Bike Brasília - Estação 4",
        "operator": "Itaú"
      },
      "geometry": {
        "type": "Point",
        "coordinates": [
          -47.8953122,
          -15.7896869
        ]
      }
    },
    {
      "type": "Feature",
      "id": "node/2897250175",
      "properties": {
        "@id": "node/2897250175",
        "addr:street": "Setor Hoteleiro Norte",
        "amenity": "bicycle_rental",
        "capacity": "12",
        "name": "Bike Brasília - Estação 5",
        "operator": "Itaú"
      },
      "geometry": {
        "type": "Point",
        "coordinates": [
          -47.8912495,
          -15.7894888
        ]
      }
    },
    {
      "type": "Feature",
      "id": "node/2897250176",
      "properties": {
        "@id": "node/2897250176",
        "addr:street": "Rodoviária do Plano Piloto",
        "amenity": "bicycle_rental",
        "capacity": "12",
        "name": "Bike Brasília - Estação 6",
        "operator": "Itaú"
      },
      "geometry": {
        "type": "Point",
        "coordinates": [
          -47.8815521,
          -15.7935055
        ]
      }
    },
    {
      "type": "Feature",
      "id": "node/2897250177",
      "properties": {
        "@id": "node/2897250177",
        "addr:street": "Catedral Metropolitana",
        "amenity": "bicycle_rental",
        "capacity": "12",
        "name": "Bike Brasília - Estação 7",
        "operator": "Itaú"
      },
      "geometry": {
        "type": "Point",
        "coordinates": [
          -47.8747028,
          -15.7975787
        ]
      }
    },
    {
      "type": "Feature",
      "id": "node/2897250178",
      "properties": {
        "@id": "node/2897250178",
        "addr:street": "Ministérios da Defesa",
        "amenity": "bicycle_rental",
        "capacity": "14",
        "name": "Bike Brasília - Estação 8",
        "operator": "Itaú"
      },
      "geometry": {
        "type": "Point",
        "coordinates": [
          -47.8718436,
          -15.7960608
        ]
      }
    },
    {
      "type": "Feature",
      "id": "node/2897250179",
      "properties": {
        "@id": "node/2897250179",
        "addr:street": "Ministério da Cultura",
        "amenity": "bicycle_rental",
        "capacity": "12",
        "name": "Bike Brasília - Estação 9",
        "operator": "Itaú"
      },
      "geometry": {
        "type": "Point",
        "coordinates": [
          -47.8724296,
          -15.7984104
        ]
      }
    },
    {
      "type": "Feature",
      "id": "node/2897250180",
      "properties": {
        "@id": "node/2897250180",
        "addr:street": "Ministério do Trabalho",
        "amenity": "bicycle_rental",
        "capacity": "12",
        "name": "Bike Brasília - Estação 10",
        "operator": "Itaú"
      },
      "geometry": {
        "type": "Point",
        "coordinates": [
          -47.8677576,
          -15.7973305
        ]
      }
    },
    {
      "type": "Feature",
      "id": "node/2933400800",
      "properties": {
        "@id": "node/2933400800",
        "amenity": "bicycle_rental",
        "capacity": "12",
        "name": "Bike Poa"
      },
      "geometry": {
        "type": "Point",
        "coordinates": [
          -51.241134,
          -30.0834541
        ]
      }
    },
    {
      "type": "Feature",
      "id": "node/2941415468",
      "properties": {
        "@id": "node/2941415468",
        "amenity": "bicycle_rental",
        "capacity": "12",
        "name": "Relação",
        "network": "BikeRio",
        "ref": "152",
        "website": "http://www.movesamba.com.br/bikerio/"
      },
      "geometry": {
        "type": "Point",
        "coordinates": [
          -43.1845398,
          -22.9107181
        ]
      }
    },
    {
      "type": "Feature",
      "id": "node/2944057189",
      "properties": {
        "@id": "node/2944057189",
        "amenity": "bicycle_rental",
        "capacity": "13",
        "website": "http://www.mobilicidade.com.br/bikebrasilia"
      },
      "geometry": {
        "type": "Point",
        "coordinates": [
          -47.8934279,
          -15.7966903
        ]
      }
    },
    {
      "type": "Feature",
      "id": "node/2953638687",
      "properties": {
        "@id": "node/2953638687",
        "addr:street": "Praça do Mercado",
        "amenity": "bicycle_rental",
        "capacity": "12",
        "name": "Caju Bike",
        "network": "Caju Bike",
        "opening_hours": "Su-Sa 06:00-22:00",
        "operator": "Caju Bike",
        "phone": "+55 4003 9891",
        "ref": "13",
        "website": "http://www.cajubike.com"
      },
      "geometry": {
        "type": "Point",
        "coordinates": [
          -37.0483371,
          -10.9074674
        ]
      }
    },
    {
      "type": "Feature",
      "id": "node/3023126224",
      "properties": {
        "@id": "node/3023126224",
        "addr:city": "Aracaju",
        "addr:street": "Avenida Santos Dumont",
        "amenity": "bicycle_rental",
        "capacity": "12",
        "name": "Caju Bike",
        "network": "Caju Bike",
        "opening_hours": "Su-Sa 06:00-22:00",
        "operator": "Caju Bike",
        "phone": "+55 4003 9891",
        "website": "http://www.cajubike.com"
      },
      "geometry": {
        "type": "Point",
        "coordinates": [
          -37.0521058,
          -10.9441497
        ]
      }
    },
    {
      "type": "Feature",
      "id": "node/3054537094",
      "properties": {
        "@id": "node/3054537094",
        "amenity": "bicycle_rental",
        "capacity": "12",
        "name": "Largo da Segunda Feira",
        "network": "BikeRio",
        "note": "Localização aproximada, pendente de confirmação visual.",
        "operator": "Mobilicidade",
        "ref": "177",
        "source": "http://www.movesamba.com.br/bikerio/"
      },
      "geometry": {
        "type": "Point",
        "coordinates": [
          -43.221601,
          -22.9218337
        ]
      }
    },
    {
      "type": "Feature",
      "id": "node/3066932832",
      "properties": {
        "@id": "node/3066932832",
        "amenity": "bicycle_rental",
        "capacity": "12",
        "name": "Estação do Tainheiro",
        "network": "Bike Salvador",
        "operator": "Bike Salvador",
        "ref": "38"
      },
      "geometry": {
        "type": "Point",
        "coordinates": [
          -38.4935298,
          -12.9151479
        ]
      }
    },
    {
      "type": "Feature",
      "id": "node/3066936633",
      "properties": {
        "@id": "node/3066936633",
        "amenity": "bicycle_rental",
        "capacity": "12",
        "name": "Ferry Boat",
        "network": "Bike Salvador",
        "operator": "Bike Salvador",
        "ref": "33"
      },
      "geometry": {
        "type": "Point",
        "coordinates": [
          -38.5020807,
          -12.9549039
        ]
      }
    },
    {
      "type": "Feature",
      "id": "node/3067690208",
      "properties": {
        "@id": "node/3067690208",
        "amenity": "bicycle_rental",
        "name": "Bike Santos (Estação 15)",
        "website": "http://bikesantos.com/"
      },
      "geometry": {
        "type": "Point",
        "coordinates": [
          -46.3456543,
          -23.9615652
        ]
      }
    },
    {
      "type": "Feature",
      "id": "node/3067705729",
      "properties": {
        "@id": "node/3067705729",
        "amenity": "bicycle_rental",
        "name": "Bike Santos (Estação 19)",
        "website": "http://bikesantos.com/"
      },
      "geometry": {
        "type": "Point",
        "coordinates": [
          -46.3284864,
          -23.9432103
        ]
      }
    },
    {
      "type": "Feature",
      "id": "node/3067710372",
      "properties": {
        "@id": "node/3067710372",
        "amenity": "bicycle_rental",
        "name": "Bike Santos (Estação 10)",
        "website": "http://bikesantos.com/"
      },
      "geometry": {
        "type": "Point",
        "coordinates": [
          -46.320157,
          -23.9749185
        ]
      }
    },
    {
      "type": "Feature",
      "id": "node/3067710625",
      "properties": {
        "@id": "node/3067710625",
        "amenity": "bicycle_rental",
        "name": "Bike Santos (Estação 4)",
        "website": "http://bikesantos.com/"
      },
      "geometry": {
        "type": "Point",
        "coordinates": [
          -46.3085296,
          -23.9861022
        ]
      }
    },
    {
      "type": "Feature",
      "id": "node/3070809564",
      "properties": {
        "@id": "node/3070809564",
        "amenity": "bicycle_rental",
        "capacity": "12",
        "name": "Túnel Velho",
        "network": "BikeRio",
        "ref": "101"
      },
      "geometry": {
        "type": "Point",
        "coordinates": [
          -43.1912106,
          -22.9640531
        ]
      }
    },
    {
      "type": "Feature",
      "id": "node/3070821702",
      "properties": {
        "@id": "node/3070821702",
        "amenity": "bicycle_rental",
        "capacity": "12",
        "name": "Tonelero",
        "network": "BikeRio",
        "ref": "100"
      },
      "geometry": {
        "type": "Point",
        "coordinates": [
          -43.1831012,
          -22.9656277
        ]
      }
    },
    {
      "type": "Feature",
      "id": "node/3070827898",
      "properties": {
        "@id": "node/3070827898",
        "amenity": "bicycle_rental",
        "capacity": "12",
        "name": "Ministro Viveiros de Castro",
        "network": "BikeRio",
        "ref": "99"
      },
      "geometry": {
        "type": "Point",
        "coordinates": [
          -43.1757829,
          -22.9647977
        ]
      }
    },
    {
      "type": "Feature",
      "id": "node/3070840899",
      "properties": {
        "@id": "node/3070840899",
        "amenity": "bicycle_rental",
        "capacity": "12",
        "name": "Lauro Muller",
        "network": "BikeRio",
        "ref": "89"
      },
      "geometry": {
        "type": "Point",
        "coordinates": [
          -43.1772419,
          -22.9562214
        ]
      }
    },
    {
      "type": "Feature",
      "id": "node/3070948170",
      "properties": {
        "@id": "node/3070948170",
        "amenity": "bicycle_rental",
        "capacity": "12",
        "name": "São Clemente",
        "network": "BikeRio",
        "ref": "81"
      },
      "geometry": {
        "type": "Point",
        "coordinates": [
          -43.1860085,
          -22.9493252
        ]
      }
    },
    {
      "type": "Feature",
      "id": "node/3071000550",
      "properties": {
        "@id": "node/3071000550",
        "amenity": "bicycle_rental",
        "capacity": "12",
        "name": "Muniz Barreto",
        "network": "BikeRio",
        "ref": "79"
      },
      "geometry": {
        "type": "Point",
        "coordinates": [
          -43.1841898,
          -22.9488563
        ]
      }
    },
    {
      "type": "Feature",
      "id": "node/3071002848",
      "properties": {
        "@id": "node/3071002848",
        "amenity": "bicycle_rental",
        "capacity": "12",
        "name": "Mourisco Mar",
        "network": "BikeRio",
        "ref": "82"
      },
      "geometry": {
        "type": "Point",
        "coordinates": [
          -43.1810982,
          -22.9488276
        ]
      }
    },
    {
      "type": "Feature",
      "id": "node/3071008479",
      "properties": {
        "@id": "node/3071008479",
        "amenity": "bicycle_rental",
        "capacity": "12",
        "name": "Praça Joia Valansi",
        "network": "BikeRio",
        "ref": "78"
      },
      "geometry": {
        "type": "Point",
        "coordinates": [
          -43.1839762,
          -22.9452665
        ]
      }
    },
    {
      "type": "Feature",
      "id": "node/3071029151",
      "properties": {
        "@id": "node/3071029151",
        "amenity": "bicycle_rental",
        "capacity": "12",
        "name": "Rumania",
        "network": "BikeRio",
        "ref": "70"
      },
      "geometry": {
        "type": "Point",
        "coordinates": [
          -43.1937336,
          -22.9386226
        ]
      }
    },
    {
      "type": "Feature",
      "id": "node/3071031211",
      "properties": {
        "@id": "node/3071031211",
        "amenity": "bicycle_rental",
        "capacity": "12",
        "name": "Edifício Argentina",
        "network": "BikeRio",
        "ref": "77"
      },
      "geometry": {
        "type": "Point",
        "coordinates": [
          -43.1807898,
          -22.9433255
        ]
      }
    },
    {
      "type": "Feature",
      "id": "node/3071055362",
      "properties": {
        "@id": "node/3071055362",
        "amenity": "bicycle_rental",
        "capacity": "12",
        "name": "Praça Nicarágua",
        "network": "BikeRio",
        "ref": "76"
      },
      "geometry": {
        "type": "Point",
        "coordinates": [
          -43.1771679,
          -22.9421793
        ]
      }
    },
    {
      "type": "Feature",
      "id": "node/3071072336",
      "properties": {
        "@id": "node/3071072336",
        "amenity": "bicycle_rental",
        "capacity": "12",
        "name": "Oswaldo Cruz",
        "network": "BikeRio",
        "ref": "75"
      },
      "geometry": {
        "type": "Point",
        "coordinates": [
          -43.1738962,
          -22.9389163
        ]
      }
    },
    {
      "type": "Feature",
      "id": "node/3071076730",
      "properties": {
        "@id": "node/3071076730",
        "amenity": "bicycle_rental",
        "capacity": "12",
        "name": "Sebastião Lacerda",
        "network": "BikeRio",
        "ref": "68"
      },
      "geometry": {
        "type": "Point",
        "coordinates": [
          -43.189962,
          -22.9366133
        ]
      }
    },
    {
      "type": "Feature",
      "id": "node/3071083426",
      "properties": {
        "@id": "node/3071083426",
        "amenity": "bicycle_rental",
        "capacity": "12",
        "name": "Praça São Judas Tadeu",
        "network": "BikeRio",
        "ref": "71"
      },
      "geometry": {
        "type": "Point",
        "coordinates": [
          -43.1979849,
          -22.9406465
        ]
      }
    },
    {
      "type": "Feature",
      "id": "node/3071091278",
      "properties": {
        "@id": "node/3071091278",
        "amenity": "bicycle_rental",
        "capacity": "12",
        "name": "Artur Bernardes",
        "network": "BikeRio",
        "ref": "65"
      },
      "geometry": {
        "type": "Point",
        "coordinates": [
          -43.1792567,
          -22.928528
        ]
      }
    },
    {
      "type": "Feature",
      "id": "node/3071100613",
      "properties": {
        "@id": "node/3071100613",
        "amenity": "bicycle_rental",
        "capacity": "12",
        "name": "Palácio do Catete",
        "network": "BikeRio",
        "ref": "64"
      },
      "geometry": {
        "type": "Point",
        "coordinates": [
          -43.1765267,
          -22.9269323
        ]
      }
    },
    {
      "type": "Feature",
      "id": "node/3071119842",
      "properties": {
        "@id": "node/3071119842",
        "amenity": "bicycle_rental",
        "capacity": "14",
        "name": "Praça Luís de Camões",
        "network": "BikeRio",
        "ref": "63"
      },
      "geometry": {
        "type": "Point",
        "coordinates": [
          -43.1745583,
          -22.9206992
        ]
      }
    },
    {
      "type": "Feature",
      "id": "node/3071122714",
      "properties": {
        "@id": "node/3071122714",
        "amenity": "bicycle_rental",
        "capacity": "12",
        "name": "Largo da Glória",
        "network": "BikeRio",
        "ref": "118"
      },
      "geometry": {
        "type": "Point",
        "coordinates": [
          -43.1767575,
          -22.9201078
        ]
      }
    },
    {
      "type": "Feature",
      "id": "node/3071126282",
      "properties": {
        "@id": "node/3071126282",
        "amenity": "bicycle_rental",
        "capacity": "12",
        "name": "Circo Voador",
        "network": "BikeRio",
        "ref": "146"
      },
      "geometry": {
        "type": "Point",
        "coordinates": [
          -43.1808267,
          -22.9126543
        ]
      }
    },
    {
      "type": "Feature",
      "id": "node/3071142447",
      "properties": {
        "@id": "node/3071142447",
        "amenity": "bicycle_rental",
        "capacity": "12",
        "name": "Estação de Bondes",
        "network": "BikeRio",
        "ref": "144"
      },
      "geometry": {
        "type": "Point",
        "coordinates": [
          -43.1784521,
          -22.9097675
        ]
      }
    },
    {
      "type": "Feature",
      "id": "node/3071143915",
      "properties": {
        "@id": "node/3071143915",
        "amenity": "bicycle_rental",
        "capacity": "12",
        "name": "Primeiro de Março",
        "network": "BikeRio",
        "ref": "128"
      },
      "geometry": {
        "type": "Point",
        "coordinates": [
          -43.1760948,
          -22.9018551
        ]
      }
    },
    {
      "type": "Feature",
      "id": "node/3071143984",
      "properties": {
        "@id": "node/3071143984",
        "amenity": "bicycle_rental",
        "capacity": "12",
        "name": "Sete de Setembro",
        "network": "BikeRio",
        "ref": "138"
      },
      "geometry": {
        "type": "Point",
        "coordinates": [
          -43.1788133,
          -22.9055784
        ]
      }
    },
    {
      "type": "Feature",
      "id": "node/3071289260",
      "properties": {
        "@id": "node/3071289260",
        "amenity": "bicycle_rental",
        "capacity": "12",
        "name": "Central do Brasil",
        "network": "BikeRio",
        "ref": "168"
      },
      "geometry": {
        "type": "Point",
        "coordinates": [
          -43.1914576,
          -22.9046489
        ]
      }
    },
    {
      "type": "Feature",
      "id": "node/3071289639",
      "properties": {
        "@id": "node/3071289639",
        "amenity": "bicycle_rental",
        "capacity": "12",
        "name": "Santana",
        "network": "BikeRio",
        "ref": "169"
      },
      "geometry": {
        "type": "Point",
        "coordinates": [
          -43.1946052,
          -22.9066699
        ]
      }
    },
    {
      "type": "Feature",
      "id": "node/3071298336",
      "properties": {
        "@id": "node/3071298336",
        "amenity": "bicycle_rental",
        "capacity": "12",
        "name": "Praça Coronel Castelo Branco",
        "network": "BikeRio",
        "ref": "173"
      },
      "geometry": {
        "type": "Point",
        "coordinates": [
          -43.1980257,
          -22.9120127
        ]
      }
    },
    {
      "type": "Feature",
      "id": "node/3071328688",
      "properties": {
        "@id": "node/3071328688",
        "amenity": "bicycle_rental",
        "capacity": "12",
        "name": "Estácio de Sá",
        "network": "BikeRio",
        "ref": "174"
      },
      "geometry": {
        "type": "Point",
        "coordinates": [
          -43.2056425,
          -22.9141139
        ]
      }
    },
    {
      "type": "Feature",
      "id": "node/3071333534",
      "properties": {
        "@id": "node/3071333534",
        "amenity": "bicycle_rental",
        "capacity": "14",
        "name": "Heitor Beltrão",
        "network": "BikeRio",
        "ref": "181"
      },
      "geometry": {
        "type": "Point",
        "coordinates": [
          -43.2256982,
          -22.9207538
        ]
      }
    },
    {
      "type": "Feature",
      "id": "node/3071333555",
      "properties": {
        "@id": "node/3071333555",
        "amenity": "bicycle_rental",
        "capacity": "13",
        "name": "Varnhagem",
        "network": "BikeRio",
        "ref": "180"
      },
      "geometry": {
        "type": "Point",
        "coordinates": [
          -43.2335709,
          -22.9193591
        ]
      }
    },
    {
      "type": "Feature",
      "id": "node/3071335672",
      "properties": {
        "@id": "node/3071335672",
        "amenity": "bicycle_rental",
        "capacity": "12",
        "name": "Uruguai",
        "network": "BikeRio",
        "ref": "185"
      },
      "geometry": {
        "type": "Point",
        "coordinates": [
          -43.2396323,
          -22.9320444
        ]
      }
    },
    {
      "type": "Feature",
      "id": "node/3071336333",
      "properties": {
        "@id": "node/3071336333",
        "amenity": "bicycle_rental",
        "capacity": "12",
        "name": "Xavier de Brito",
        "network": "BikeRio",
        "ref": "188"
      },
      "geometry": {
        "type": "Point",
        "coordinates": [
          -43.2428621,
          -22.9319702
        ]
      }
    }
  ]
}
