{
  "type": "FeatureCollection",
  "generator": "overpass-turbo",
  "copyright": "The data included in this document is from www.openstreetmap.org. The data is made available under ODbL.",
  "timestamp": "2014-09-16T00:57:02Z",
  "features": [
    {
      "type": "Feature",
      "id": "way/184937310",
      "properties": {
        "@id": "way/184937310",
        "building": "yes",
        "name": "Amazonas Bike",
        "shop": "bicycle",
        "website": "www.amazonasbike.com.br"
      },
      "geometry": {
        "type": "Polygon",
        "coordinates": [
          [
            [
              -43.1207282,
              -22.8872715
            ],
            [
              -43.1207148,
              -22.8873424
            ],
            [
              -43.1202646,
              -22.8872703
            ],
            [
              -43.1202779,
              -22.8871995
            ],
            [
              -43.1207282,
              -22.8872715
            ]
          ]
        ]
      }
    },
    {
      "type": "Feature",
      "id": "way/206785625",
      "properties": {
        "@id": "way/206785625",
        "addr:housenumber": "1275",
        "addr:postcode": "90650-000",
        "addr:street": "Avenida Bento Gonçalves",
        "alt_name": "Maraschin Companhia das Bikes",
        "building": "yes",
        "email": "ciadasbikes@ciadasbikes.com.br",
        "name": "Maraschin Cia das Bikes",
        "opening_hours": "Mo-Fr 08:30-12:00,13:00-18:30; Sa 09:00-15:00",
        "phone": "+55 51 33366602",
        "service:bicycle:repair": "yes",
        "service:bicycle:retail": "yes",
        "shop": "bicycle",
        "start_date": "1993",
        "website": "http://www.ciadasbikes.com.br",
        "wheelchair": "yes"
      },
      "geometry": {
        "type": "Polygon",
        "coordinates": [
          [
            [
              -51.2004809,
              -30.0544505
            ],
            [
              -51.2006237,
              -30.0546339
            ],
            [
              -51.2005326,
              -30.0546871
            ],
            [
              -51.2003898,
              -30.0545037
            ],
            [
              -51.2004809,
              -30.0544505
            ]
          ]
        ]
      }
    },
    {
      "type": "Feature",
      "id": "way/206785626",
      "properties": {
        "@id": "way/206785626",
        "addr:housenumber": "382",
        "addr:postcode": "91110-040",
        "addr:street": "Rua Baden Powell",
        "building": "yes",
        "email": "sac@rodociclo.com.br",
        "name": "Rodociclo Bike Shop",
        "opening_hours": "Mo-Fr 09:00-19:00; Sa 09:00-18:00",
        "phone": "+55 51 32394655",
        "service:bicycle:retail": "yes",
        "shop": "bicycle",
        "start_date": "1990",
        "website": "http://www.rodociclo.com.br"
      },
      "geometry": {
        "type": "Polygon",
        "coordinates": [
          [
            [
              -51.1378792,
              -30.0007728
            ],
            [
              -51.1381018,
              -30.0007908
            ],
            [
              -51.1380927,
              -30.0008755
            ],
            [
              -51.1378701,
              -30.0008576
            ],
            [
              -51.1378792,
              -30.0007728
            ]
          ]
        ]
      }
    },
    {
      "type": "Feature",
      "id": "way/206841667",
      "properties": {
        "@id": "way/206841667",
        "addr:housenumber": "735",
        "addr:postcode": "90040-310",
        "addr:street": "Rua Olavo Bilac",
        "building": "yes",
        "email": "loja@bikesul.com.br",
        "fax": "+55 51 30283420",
        "name": "Bike Sul Bicicletas",
        "opening_hours": "Mo-Fr 09:00-18:30; Sa 09:00-16:00",
        "phone": "+55 51 32213822",
        "service:bicycle:repair": "yes",
        "service:bicycle:retail": "yes",
        "shop": "bicycle",
        "website": "http://www.bikesul.com.br"
      },
      "geometry": {
        "type": "Polygon",
        "coordinates": [
          [
            [
              -51.2126778,
              -30.0405418
            ],
            [
              -51.2125322,
              -30.0407426
            ],
            [
              -51.2124361,
              -30.0406903
            ],
            [
              -51.2125816,
              -30.0404895
            ],
            [
              -51.2126778,
              -30.0405418
            ]
          ]
        ]
      }
    },
    {
      "type": "Feature",
      "id": "way/206841668",
      "properties": {
        "@id": "way/206841668",
        "addr:housenumber": "484",
        "addr:postcode": "91770-001",
        "addr:street": "Avenida Juca Batista",
        "building": "yes",
        "name": "Braciclo",
        "phone": "+55 51 32485322",
        "shop": "bicycle"
      },
      "geometry": {
        "type": "Polygon",
        "coordinates": [
          [
            [
              -51.220702,
              -30.1380804
            ],
            [
              -51.2205854,
              -30.1380447
            ],
            [
              -51.2206176,
              -30.1379659
            ],
            [
              -51.2207342,
              -30.1380016
            ],
            [
              -51.220702,
              -30.1380804
            ]
          ]
        ]
      }
    },
    {
      "type": "Feature",
      "id": "way/206841669",
      "properties": {
        "@id": "way/206841669",
        "addr:housenumber": "5380",
        "addr:postcode": "90410-000",
        "addr:street": "Avenida Protásio Alves",
        "building": "yes",
        "name": "Casa das Bicicletas",
        "opening_hours": "Mo-Fr 08:00-18:30; Sa 08:00-13:00",
        "phone": "+55 51 33341120",
        "service:bicycle:repair": "yes",
        "service:bicycle:retail": "yes",
        "shop": "bicycle",
        "start_date": "1986",
        "wheelchair": "yes"
      },
      "geometry": {
        "type": "Polygon",
        "coordinates": [
          [
            [
              -51.1577596,
              -30.0408724
            ],
            [
              -51.1576822,
              -30.0408831
            ],
            [
              -51.1576498,
              -30.0407079
            ],
            [
              -51.1577272,
              -30.0406972
            ],
            [
              -51.1577596,
              -30.0408724
            ]
          ]
        ]
      }
    },
    {
      "type": "Feature",
      "id": "way/206841670",
      "properties": {
        "@id": "way/206841670",
        "alt_name": "Companhia do Ciclista Matriz",
        "building": "yes",
        "name": "Cia do Ciclista Matriz",
        "opening_hours": "Mo-Fr 09:00-19:00; Sa 09:00-18:00",
        "phone": "+55 51 33618731",
        "service:bicycle:repair": "yes",
        "service:bicycle:retail": "yes",
        "shop": "bicycle",
        "start_date": "1990",
        "website": "http://www.ciadociclista.com.br",
        "wheelchair": "yes"
      },
      "geometry": {
        "type": "Polygon",
        "coordinates": [
          [
            [
              -51.1642095,
              -30.010362
            ],
            [
              -51.1641355,
              -30.0107892
            ],
            [
              -51.1640291,
              -30.0107754
            ],
            [
              -51.1641032,
              -30.0103482
            ],
            [
              -51.1642095,
              -30.010362
            ]
          ]
        ]
      }
    },
    {
      "type": "Feature",
      "id": "way/206841671",
      "properties": {
        "@id": "way/206841671",
        "addr:housenumber": "2201",
        "addr:postcode": "91910-001",
        "addr:street": "Avenida Otto Niemeyer",
        "building": "yes",
        "email": "estilobike@estilobike.com.br",
        "name": "Estilo Bike",
        "opening_hours": "Mo-Fr 09:00-19:00; Sa 09:00-17:00",
        "phone": "+55 51 32418945",
        "service:bicycle:repair": "yes",
        "service:bicycle:retail": "yes",
        "shop": "bicycle",
        "start_date": "1986",
        "website": "http://www.estilobike.com.br",
        "wheelchair": "yes"
      },
      "geometry": {
        "type": "Polygon",
        "coordinates": [
          [
            [
              -51.2375635,
              -30.1044128
            ],
            [
              -51.2375203,
              -30.1045104
            ],
            [
              -51.2374346,
              -30.104482
            ],
            [
              -51.2374778,
              -30.1043844
            ],
            [
              -51.2375635,
              -30.1044128
            ]
          ]
        ]
      }
    },
    {
      "type": "Feature",
      "id": "way/207024850",
      "properties": {
        "@id": "way/207024850",
        "addr:housenumber": "216",
        "addr:postcode": "90040-372",
        "addr:street": "Rua Santana",
        "building": "yes",
        "name": "M. Bike Loja 3",
        "opening_hours": "Mo-Fr 09:00-18:30; Sa 09:00-16:00",
        "phone": "+55 51 33919565",
        "service:bicycle:repair": "yes",
        "service:bicycle:retail": "yes",
        "shop": "bicycle",
        "website": "http://www.mbike.com.br"
      },
      "geometry": {
        "type": "Polygon",
        "coordinates": [
          [
            [
              -51.2131273,
              -30.0405447
            ],
            [
              -51.213096,
              -30.0405892
            ],
            [
              -51.2129754,
              -30.0405257
            ],
            [
              -51.2130067,
              -30.0404812
            ],
            [
              -51.2131273,
              -30.0405447
            ]
          ]
        ]
      }
    },
    {
      "type": "Feature",
      "id": "way/207031004",
      "properties": {
        "@id": "way/207031004",
        "addr:housenumber": "3915",
        "addr:postcode": "90650-001",
        "addr:street": "Avenida Bento Gonçalves",
        "building": "yes",
        "name": "Ciclelândia",
        "phone": "+55 51 33151120",
        "service:bicycle:repair": "yes",
        "service:bicycle:retail": "yes",
        "shop": "bicycle",
        "website": "http://www.ciclelandia.com.br"
      },
      "geometry": {
        "type": "Polygon",
        "coordinates": [
          [
            [
              -51.1771119,
              -30.0624688
            ],
            [
              -51.1770882,
              -30.0626157
            ],
            [
              -51.177045,
              -30.0626105
            ],
            [
              -51.1770686,
              -30.0624636
            ],
            [
              -51.1771119,
              -30.0624688
            ]
          ]
        ]
      }
    },
    {
      "type": "Feature",
      "id": "way/220906444",
      "properties": {
        "@id": "way/220906444",
        "building": "yes",
        "name": "Comercial Peruch",
        "shop": "bicycle"
      },
      "geometry": {
        "type": "Polygon",
        "coordinates": [
          [
            [
              -40.3691979,
              -19.8303328
            ],
            [
              -40.3692025,
              -19.8303681
            ],
            [
              -40.3692165,
              -19.8304757
            ],
            [
              -40.369141,
              -19.830484
            ],
            [
              -40.3691221,
              -19.8303416
            ],
            [
              -40.3691979,
              -19.8303328
            ]
          ]
        ]
      }
    },
    {
      "type": "Feature",
      "id": "way/222205343",
      "properties": {
        "@id": "way/222205343",
        "addr:housenumber": "80",
        "addr:street": "Rua Stefano Broseghini",
        "building": "yes",
        "name": "Hospital das Bikes",
        "shop": "bicycle"
      },
      "geometry": {
        "type": "Polygon",
        "coordinates": [
          [
            [
              -40.4049412,
              -19.934649
            ],
            [
              -40.4050882,
              -19.9346402
            ],
            [
              -40.4050904,
              -19.934677
            ],
            [
              -40.4049437,
              -19.9346866
            ],
            [
              -40.4049412,
              -19.934649
            ]
          ]
        ]
      }
    },
    {
      "type": "Feature",
      "id": "way/238356441",
      "properties": {
        "@id": "way/238356441",
        "addr:housenumber": "34",
        "addr:street": "Rua Comendador Queiroz",
        "building": "yes",
        "name": "Barcellos Bike",
        "phone": "+55-21-27108069",
        "shop": "bicycle",
        "website": "http://www.barcellosbike.com.br"
      },
      "geometry": {
        "type": "Polygon",
        "coordinates": [
          [
            [
              -43.1085578,
              -22.9113024
            ],
            [
              -43.1086243,
              -22.9113573
            ],
            [
              -43.1085367,
              -22.9114472
            ],
            [
              -43.1084703,
              -22.9113923
            ],
            [
              -43.1085578,
              -22.9113024
            ]
          ]
        ]
      }
    },
    {
      "type": "Feature",
      "id": "way/238356443",
      "properties": {
        "@id": "way/238356443",
        "addr:housename": "Loja 2",
        "addr:housenumber": "160",
        "addr:street": "Rua Nóbrega",
        "building": "yes",
        "name": "Cicle São Salvador",
        "phone": "+55-21-27051909",
        "shop": "bicycle"
      },
      "geometry": {
        "type": "Polygon",
        "coordinates": [
          [
            [
              -43.1037743,
              -22.9031389
            ],
            [
              -43.1038942,
              -22.903246
            ],
            [
              -43.1038291,
              -22.9033078
            ],
            [
              -43.1037092,
              -22.9032007
            ],
            [
              -43.1037743,
              -22.9031389
            ]
          ]
        ]
      }
    },
    {
      "type": "Feature",
      "id": "way/238356444",
      "properties": {
        "@id": "way/238356444",
        "addr:city": "Niterói",
        "addr:housenumber": "22",
        "addr:street": "Rua Sete de Setembro",
        "building": "yes",
        "name": "Cicle Sete de Setembro",
        "shop": "bicycle"
      },
      "geometry": {
        "type": "Polygon",
        "coordinates": [
          [
            [
              -43.1047121,
              -22.9082938
            ],
            [
              -43.1046447,
              -22.9083677
            ],
            [
              -43.1045965,
              -22.9083304
            ],
            [
              -43.1046639,
              -22.9082565
            ],
            [
              -43.1047121,
              -22.9082938
            ]
          ]
        ]
      }
    },
    {
      "type": "Feature",
      "id": "way/239086205",
      "properties": {
        "@id": "way/239086205",
        "brand": "Caloi",
        "name": "Bike Point",
        "shop": "bicycle"
      },
      "geometry": {
        "type": "Polygon",
        "coordinates": [
          [
            [
              -51.3978202,
              -22.1321466
            ],
            [
              -51.3978278,
              -22.1321578
            ],
            [
              -51.3978794,
              -22.132128
            ],
            [
              -51.3978718,
              -22.1321168
            ],
            [
              -51.3978673,
              -22.1321101
            ],
            [
              -51.397936,
              -22.1320704
            ],
            [
              -51.3979629,
              -22.1321104
            ],
            [
              -51.3979525,
              -22.1321164
            ],
            [
              -51.3978708,
              -22.1321635
            ],
            [
              -51.3978521,
              -22.1321743
            ],
            [
              -51.3977835,
              -22.1322138
            ],
            [
              -51.3977775,
              -22.1322173
            ],
            [
              -51.3977505,
              -22.1321773
            ],
            [
              -51.3978156,
              -22.1321397
            ],
            [
              -51.3978202,
              -22.1321466
            ]
          ]
        ]
      }
    },
    {
      "type": "Feature",
      "id": "way/252710972",
      "properties": {
        "@id": "way/252710972",
        "addr:city": "Curitiba",
        "addr:country": "BR",
        "addr:housenumber": "11",
        "addr:postcode": "81510-040",
        "addr:street": "Rua Governador Jorge Lacerda",
        "email": "pedalebikescuritiba@hotmail.com",
        "internet_access": "wlan",
        "name": "Pedale Bikes",
        "opening_hours": "Mo-Fr 13:00-22:00; Sa 09:00-14:00",
        "phone": "(41) 4101-8609",
        "service:bicycle:cleaning": "yes",
        "service:bicycle:diy": "no",
        "service:bicycle:pump": "yes",
        "service:bicycle:repair": "yes",
        "service:bicycle:retail": "yes",
        "service:bicycle:second_hand": "yes",
        "shop": "bicycle",
        "website": "http://pedalebikes.com/",
        "wheelchair": "yes"
      },
      "geometry": {
        "type": "Polygon",
        "coordinates": [
          [
            [
              -49.2445134,
              -25.4621791
            ],
            [
              -49.244618,
              -25.4622878
            ],
            [
              -49.2445377,
              -25.4623507
            ],
            [
              -49.2444342,
              -25.4622258
            ],
            [
              -49.2445134,
              -25.4621791
            ]
          ]
        ]
      }
    },
    {
      "type": "Feature",
      "id": "way/253920654",
      "properties": {
        "@id": "way/253920654",
        "addr:housenumber": "3900",
        "addr:street": "Avenida Iguaçu",
        "email": "showbike@showbike.com.br",
        "name": "Show Bike Comércio de Peças e Acessórios para Bicicletas",
        "phone": "(41) 3077-0408",
        "service:bicycle:cleaning": "yes",
        "service:bicycle:pump": "yes",
        "service:bicycle:repair": "yes",
        "service:bicycle:retail": "yes",
        "shop": "bicycle",
        "website": "http://www.showbike.com.br/"
      },
      "geometry": {
        "type": "Polygon",
        "coordinates": [
          [
            [
              -49.2986495,
              -25.4527255
            ],
            [
              -49.2985826,
              -25.4528727
            ],
            [
              -49.2983423,
              -25.4527858
            ],
            [
              -49.2984126,
              -25.4526387
            ],
            [
              -49.2986495,
              -25.4527255
            ]
          ]
        ]
      }
    },
    {
      "type": "Feature",
      "id": "way/260861651",
      "properties": {
        "@id": "way/260861651",
        "building": "yes",
        "shop": "bicycle"
      },
      "geometry": {
        "type": "Polygon",
        "coordinates": [
          [
            [
              -41.6441173,
              -13.4014065
            ],
            [
              -41.6441079,
              -13.401447
            ],
            [
              -41.6440275,
              -13.4014274
            ],
            [
              -41.6440407,
              -13.4013839
            ],
            [
              -41.6441173,
              -13.4014065
            ]
          ]
        ]
      }
    },
    {
      "type": "Feature",
      "id": "way/264419291",
      "properties": {
        "@id": "way/264419291",
        "name": "Oficina de Bicicleta Bike Sul",
        "service:bicycle:repair": "yes",
        "shop": "bicycle"
      },
      "geometry": {
        "type": "Polygon",
        "coordinates": [
          [
            [
              -48.8086705,
              -26.3394253
            ],
            [
              -48.8087368,
              -26.339429
            ],
            [
              -48.8087289,
              -26.3395414
            ],
            [
              -48.8086626,
              -26.3395377
            ],
            [
              -48.8086705,
              -26.3394253
            ]
          ]
        ]
      }
    },
    {
      "type": "Feature",
      "id": "way/268771584",
      "properties": {
        "@id": "way/268771584",
        "building": "yes",
        "name": "Junior Bike",
        "shop": "bicycle"
      },
      "geometry": {
        "type": "Polygon",
        "coordinates": [
          [
            [
              -37.6684012,
              -10.9186671
            ],
            [
              -37.6682937,
              -10.9187694
            ],
            [
              -37.6681767,
              -10.9186495
            ],
            [
              -37.6682936,
              -10.9185586
            ],
            [
              -37.6684012,
              -10.9186671
            ]
          ]
        ]
      }
    },
    {
      "type": "Feature",
      "id": "way/268771585",
      "properties": {
        "@id": "way/268771585",
        "building": "yes",
        "shop": "bicycle"
      },
      "geometry": {
        "type": "Polygon",
        "coordinates": [
          [
            [
              -37.6701304,
              -10.9176599
            ],
            [
              -37.6701551,
              -10.9177819
            ],
            [
              -37.6699128,
              -10.9177806
            ],
            [
              -37.6699175,
              -10.9176568
            ],
            [
              -37.6701304,
              -10.9176599
            ]
          ]
        ]
      }
    },
    {
      "type": "Feature",
      "id": "way/268791415",
      "properties": {
        "@id": "way/268791415",
        "name": "Casa das Bicicletas",
        "service:bicycle:repair": "yes",
        "service:bicycle:retail": "yes",
        "shop": "bicycle"
      },
      "geometry": {
        "type": "Polygon",
        "coordinates": [
          [
            [
              -51.0146321,
              -26.7735192
            ],
            [
              -51.0146109,
              -26.7735782
            ],
            [
              -51.0145328,
              -26.7735558
            ],
            [
              -51.0145539,
              -26.7734969
            ],
            [
              -51.0146321,
              -26.7735192
            ]
          ]
        ]
      }
    },
    {
      "type": "Feature",
      "id": "way/271242268",
      "properties": {
        "@id": "way/271242268",
        "building": "yes",
        "shop": "bicycle"
      },
      "geometry": {
        "type": "Polygon",
        "coordinates": [
          [
            [
              -48.8468021,
              -26.2589347
            ],
            [
              -48.8467559,
              -26.2590705
            ],
            [
              -48.8465965,
              -26.2590269
            ],
            [
              -48.8467113,
              -26.2589099
            ],
            [
              -48.8468021,
              -26.2589347
            ]
          ]
        ]
      }
    },
    {
      "type": "Feature",
      "id": "way/286264898",
      "properties": {
        "@id": "way/286264898",
        "addr:city": "Curitiba",
        "addr:country": "BR",
        "addr:housenumber": "542",
        "addr:postcode": "81850-000",
        "addr:street": "Rua Eduardo Pinto da Rocha",
        "name": "Cicles Paraná",
        "service:bicycle:cleaning": "yes",
        "service:bicycle:diy": "no",
        "service:bicycle:pump": "yes",
        "service:bicycle:repair": "yes",
        "service:bicycle:retail": "yes",
        "service:bicycle:second_hand": "yes",
        "shop": "bicycle"
      },
      "geometry": {
        "type": "Polygon",
        "coordinates": [
          [
            [
              -49.2426579,
              -25.5356355
            ],
            [
              -49.2426459,
              -25.5356701
            ],
            [
              -49.2425452,
              -25.5356404
            ],
            [
              -49.2425594,
              -25.5356079
            ],
            [
              -49.2426579,
              -25.5356355
            ]
          ]
        ]
      }
    },
    {
      "type": "Feature",
      "id": "way/286268810",
      "properties": {
        "@id": "way/286268810",
        "addr:city": "Curitiba",
        "addr:country": "BR",
        "addr:housenumber": "1356",
        "addr:postcode": "80045-330",
        "addr:street": "Rua Itupava",
        "email": "baron@baronbikes.com",
        "name": "Baron Bikes",
        "phone": "(41) 3264 6097",
        "service:bicycle:cleaning": "yes",
        "service:bicycle:diy": "no",
        "service:bicycle:pump": "yes",
        "service:bicycle:rental": "no",
        "service:bicycle:repair": "yes",
        "service:bicycle:retail": "yes",
        "service:bicycle:second_hand": "yes",
        "shop": "bicycle",
        "website": "http://www.baronbikes.com/"
      },
      "geometry": {
        "type": "Polygon",
        "coordinates": [
          [
            [
              -49.2468906,
              -25.4230399
            ],
            [
              -49.2469165,
              -25.4232688
            ],
            [
              -49.2467517,
              -25.4232854
            ],
            [
              -49.2467349,
              -25.423052
            ],
            [
              -49.2468906,
              -25.4230399
            ]
          ]
        ]
      }
    },
    {
      "type": "Feature",
      "id": "way/286271046",
      "properties": {
        "@id": "way/286271046",
        "addr:city": "Curitiba",
        "addr:country": "BR",
        "addr:housenumber": "87",
        "addr:postcode": "82515-290",
        "addr:street": "Rua Álvaro Botelho",
        "name": "Overall Bikes",
        "phone": "(41) 3257-9811",
        "service:bicycle:cleaning": "yes",
        "service:bicycle:diy": "no",
        "service:bicycle:pump": "yes",
        "service:bicycle:rental": "no",
        "service:bicycle:repair": "yes",
        "service:bicycle:retail": "yes",
        "service:bicycle:second_hand": "yes",
        "shop": "bicycle"
      },
      "geometry": {
        "type": "Polygon",
        "coordinates": [
          [
            [
              -49.2361327,
              -25.397721
            ],
            [
              -49.236113,
              -25.3977462
            ],
            [
              -49.2360199,
              -25.3976891
            ],
            [
              -49.2360392,
              -25.3976647
            ],
            [
              -49.2361327,
              -25.397721
            ]
          ]
        ]
      }
    },
    {
      "type": "Feature",
      "id": "way/286272387",
      "properties": {
        "@id": "way/286272387",
        "addr:city": "Curitiba",
        "addr:country": "BR",
        "addr:housename": "Loja 5",
        "addr:housenumber": "68",
        "addr:postcode": "82560040",
        "addr:street": "Rua Lodovico Geronazzo",
        "name": "House Bike",
        "phone": "(41) 3357-6841",
        "service:bicycle:cleaning": "yes",
        "service:bicycle:diy": "no",
        "service:bicycle:pump": "yes",
        "service:bicycle:rental": "no",
        "service:bicycle:repair": "yes",
        "service:bicycle:retail": "yes",
        "service:bicycle:second_hand": "yes",
        "shop": "bicycle"
      },
      "geometry": {
        "type": "Polygon",
        "coordinates": [
          [
            [
              -49.2387032,
              -25.3920457
            ],
            [
              -49.2386314,
              -25.3919697
            ],
            [
              -49.2386748,
              -25.3919398
            ],
            [
              -49.2387445,
              -25.3920135
            ],
            [
              -49.2387032,
              -25.3920457
            ]
          ]
        ]
      }
    },
    {
      "type": "Feature",
      "id": "way/286276832",
      "properties": {
        "@id": "way/286276832",
        "addr:city": "Curitiba",
        "addr:country": "BR",
        "addr:housenumber": "713",
        "addr:postcode": "80310-100",
        "addr:street": "Avenida Nossa Senhora Aparecida",
        "name": "Biketech",
        "phone": "41 3342-5453",
        "service:bicycle:cleaning": "yes",
        "service:bicycle:diy": "no",
        "service:bicycle:pump": "yes",
        "service:bicycle:rental": "no",
        "service:bicycle:repair": "yes",
        "service:bicycle:retail": "yes",
        "service:bicycle:second_hand": "yes",
        "shop": "bicycle",
        "website": "http://www.biketechcuritiba.com.br/"
      },
      "geometry": {
        "type": "Polygon",
        "coordinates": [
          [
            [
              -49.3055429,
              -25.4495423
            ],
            [
              -49.3055739,
              -25.4498936
            ],
            [
              -49.3054396,
              -25.4499091
            ],
            [
              -49.3054086,
              -25.4495532
            ],
            [
              -49.3055429,
              -25.4495423
            ]
          ]
        ]
      }
    },
    {
      "type": "Feature",
      "id": "way/286278278",
      "properties": {
        "@id": "way/286278278",
        "addr:city": "Curitiba",
        "addr:country": "BR",
        "addr:housenumber": "2639",
        "addr:postcode": "80730-000",
        "addr:street": "Rua Padre Anchieta",
        "name": "Bike Brothers",
        "phone": "41 3336-9222",
        "service:bicycle:cleaning": "yes",
        "service:bicycle:diy": "no",
        "service:bicycle:pump": "yes",
        "service:bicycle:rental": "no",
        "service:bicycle:repair": "yes",
        "service:bicycle:retail": "yes",
        "service:bicycle:second_hand": "yes",
        "shop": "bicycle",
        "website": "http://www.bikebrothers.com.br/"
      },
      "geometry": {
        "type": "Polygon",
        "coordinates": [
          [
            [
              -49.3039494,
              -25.4350175
            ],
            [
              -49.30399,
              -25.4350323
            ],
            [
              -49.3039485,
              -25.4351077
            ],
            [
              -49.3039068,
              -25.4350917
            ],
            [
              -49.3039494,
              -25.4350175
            ]
          ]
        ]
      }
    },
    {
      "type": "Feature",
      "id": "way/286280798",
      "properties": {
        "@id": "way/286280798",
        "addr:city": "Curitiba",
        "addr:country": "BR",
        "addr:housenumber": "1377",
        "addr:postcode": "80710-570",
        "addr:street": "Avenida Cândido Hartmann",
        "email": "contato@konatrishop.com.br",
        "name": "Kona",
        "phone": "(41) 3022-8324",
        "service:bicycle:cleaning": "no",
        "service:bicycle:diy": "no",
        "service:bicycle:pump": "no",
        "service:bicycle:rental": "no",
        "service:bicycle:repair": "no",
        "service:bicycle:retail": "yes",
        "service:bicycle:second_hand": "no",
        "shop": "bicycle",
        "website": "https://www.konatrishop.com.br"
      },
      "geometry": {
        "type": "Polygon",
        "coordinates": [
          [
            [
              -49.2989124,
              -25.4269329
            ],
            [
              -49.2990021,
              -25.4269631
            ],
            [
              -49.2989495,
              -25.4270257
            ],
            [
              -49.2988312,
              -25.4269836
            ],
            [
              -49.2989124,
              -25.4269329
            ]
          ]
        ]
      }
    },
    {
      "type": "Feature",
      "id": "way/286282878",
      "properties": {
        "@id": "way/286282878",
        "addr:city": "Curitiba",
        "addr:country": "BR",
        "addr:housename": "Brychta",
        "addr:housenumber": "716",
        "addr:postcode": "80730-290",
        "addr:street": "Rua Jerônimo Durski",
        "name": "Brychta Bikes",
        "phone": "41-30924155",
        "service:bicycle:cleaning": "yes",
        "service:bicycle:diy": "no",
        "service:bicycle:pump": "yes",
        "service:bicycle:rental": "no",
        "service:bicycle:repair": "yes",
        "service:bicycle:retail": "yes",
        "service:bicycle:second_hand": "no",
        "shop": "bicycle",
        "website": "http://www.brychtabikes.com.br/"
      },
      "geometry": {
        "type": "Polygon",
        "coordinates": [
          [
            [
              -49.2988693,
              -25.4400023
            ],
            [
              -49.2990036,
              -25.4400583
            ],
            [
              -49.2989623,
              -25.4401385
            ],
            [
              -49.2988238,
              -25.4400844
            ],
            [
              -49.2988693,
              -25.4400023
            ]
          ]
        ]
      }
    },
    {
      "type": "Feature",
      "id": "way/286295028",
      "properties": {
        "@id": "way/286295028",
        "addr:city": "Curitiba",
        "addr:country": "BR",
        "addr:housenumber": "31",
        "addr:postcode": "82560-020",
        "addr:street": "Rua João Havro",
        "name": "Klemba",
        "phone": "(41) 3598-6636",
        "service:bicycle:cleaning": "yes",
        "service:bicycle:diy": "no",
        "service:bicycle:pump": "yes",
        "service:bicycle:rental": "no",
        "service:bicycle:repair": "yes",
        "service:bicycle:retail": "yes",
        "service:bicycle:second_hand": "yes",
        "shop": "bicycle"
      },
      "geometry": {
        "type": "Polygon",
        "coordinates": [
          [
            [
              -49.2413564,
              -25.3936838
            ],
            [
              -49.2414382,
              -25.3937709
            ],
            [
              -49.2413969,
              -25.3938053
            ],
            [
              -49.2413183,
              -25.3937131
            ],
            [
              -49.2413564,
              -25.3936838
            ]
          ]
        ]
      }
    },
    {
      "type": "Feature",
      "id": "way/286296337",
      "properties": {
        "@id": "way/286296337",
        "addr:city": "Curitiba",
        "addr:country": "BR",
        "addr:housename": "Loja 8",
        "addr:housenumber": "1047",
        "addr:postcode": "80520-260",
        "addr:street": "Rua Tapajós",
        "email": "bikesul@bikesul.com",
        "name": "Bikesul",
        "phone": "(41) 3205-3566",
        "service:bicycle:cleaning": "yes",
        "service:bicycle:diy": "no",
        "service:bicycle:pump": "yes",
        "service:bicycle:rental": "no",
        "service:bicycle:repair": "yes",
        "service:bicycle:retail": "yes",
        "service:bicycle:second_hand": "yes",
        "shop": "bicycle",
        "website": "http://www.bikesul.com/"
      },
      "geometry": {
        "type": "Polygon",
        "coordinates": [
          [
            [
              -49.2800686,
              -25.4132487
            ],
            [
              -49.2800851,
              -25.4133299
            ],
            [
              -49.2800409,
              -25.4133374
            ],
            [
              -49.2800259,
              -25.4132568
            ],
            [
              -49.2800686,
              -25.4132487
            ]
          ]
        ]
      }
    },
    {
      "type": "Feature",
      "id": "way/286297906",
      "properties": {
        "@id": "way/286297906",
        "addr:city": "Curitiba",
        "addr:country": "BR",
        "addr:housenumber": "791",
        "addr:postcode": "81650-210",
        "addr:street": "Rua Napoleão Laureano",
        "name": "Cidadania Bike",
        "phone": "(41) 3377-1657",
        "service:bicycle:cleaning": "yes",
        "service:bicycle:diy": "no",
        "service:bicycle:pump": "yes",
        "service:bicycle:rental": "no",
        "service:bicycle:repair": "yes",
        "service:bicycle:retail": "yes",
        "service:bicycle:second_hand": "yes",
        "shop": "bicycle"
      },
      "geometry": {
        "type": "Polygon",
        "coordinates": [
          [
            [
              -49.23562,
              -25.5005388
            ],
            [
              -49.2355764,
              -25.5006226
            ],
            [
              -49.2355103,
              -25.5005972
            ],
            [
              -49.2355567,
              -25.5005147
            ],
            [
              -49.23562,
              -25.5005388
            ]
          ]
        ]
      }
    },
    {
      "type": "Feature",
      "id": "way/286298314",
      "properties": {
        "@id": "way/286298314",
        "addr:city": "Curitiba",
        "addr:country": "BR",
        "addr:housenumber": "2487",
        "addr:postcode": "81730-080",
        "addr:street": "Rua William Booth",
        "name": "Cicles Deconto",
        "phone": "(41) 3286-1714",
        "service:bicycle:cleaning": "yes",
        "service:bicycle:diy": "no",
        "service:bicycle:pump": "yes",
        "service:bicycle:rental": "no",
        "service:bicycle:repair": "yes",
        "service:bicycle:retail": "yes",
        "service:bicycle:second_hand": "yes",
        "shop": "bicycle"
      },
      "geometry": {
        "type": "Polygon",
        "coordinates": [
          [
            [
              -49.2227794,
              -25.5087393
            ],
            [
              -49.2227363,
              -25.5088277
            ],
            [
              -49.2226047,
              -25.5087773
            ],
            [
              -49.2226521,
              -25.508689
            ],
            [
              -49.2227794,
              -25.5087393
            ]
          ]
        ]
      }
    },
    {
      "type": "Feature",
      "id": "way/286299912",
      "properties": {
        "@id": "way/286299912",
        "addr:city": "Curitiba",
        "addr:country": "BR",
        "addr:housenumber": "1590",
        "addr:postcode": "81670-080",
        "addr:street": "Rua Professor João Soares Barcelos",
        "name": "Paraciclo",
        "phone": "(41) 3376-4098",
        "service:bicycle:cleaning": "yes",
        "service:bicycle:diy": "no",
        "service:bicycle:pump": "yes",
        "service:bicycle:rental": "no",
        "service:bicycle:repair": "yes",
        "service:bicycle:retail": "no",
        "service:bicycle:second_hand": "yes",
        "shop": "bicycle"
      },
      "geometry": {
        "type": "Polygon",
        "coordinates": [
          [
            [
              -49.2510763,
              -25.4874553
            ],
            [
              -49.2510327,
              -25.4875467
            ],
            [
              -49.2509019,
              -25.4874934
            ],
            [
              -49.2509525,
              -25.4874083
            ],
            [
              -49.2510763,
              -25.4874553
            ]
          ]
        ]
      }
    },
    {
      "type": "Feature",
      "id": "way/286301145",
      "properties": {
        "@id": "way/286301145",
        "addr:city": "Curitiba",
        "addr:country": "BR",
        "addr:housenumber": "384",
        "addr:postcode": "81650-220",
        "addr:street": "Rua Antonio Schiebel",
        "name": "Pedal Livre",
        "phone": "(41) 276-4917",
        "service:bicycle:cleaning": "yes",
        "service:bicycle:diy": "no",
        "service:bicycle:pump": "yes",
        "service:bicycle:rental": "no",
        "service:bicycle:repair": "yes",
        "service:bicycle:retail": "no",
        "service:bicycle:second_hand": "yes",
        "shop": "bicycle"
      },
      "geometry": {
        "type": "Polygon",
        "coordinates": [
          [
            [
              -49.2302121,
              -25.4957902
            ],
            [
              -49.2301793,
              -25.4958601
            ],
            [
              -49.2301347,
              -25.4958459
            ],
            [
              -49.2301688,
              -25.4957719
            ],
            [
              -49.2302121,
              -25.4957902
            ]
          ]
        ]
      }
    },
    {
      "type": "Feature",
      "id": "way/286316578",
      "properties": {
        "@id": "way/286316578",
        "addr:city": "Curitiba",
        "addr:country": "BR",
        "addr:housenumber": "2600",
        "addr:postcode": "81750-400",
        "addr:street": "Rua Maestro Carlos Frank",
        "email": "velobikes@r7.com",
        "name": "Velo Bikes",
        "phone": "(41) 3286-5153",
        "service:bicycle:cleaning": "yes",
        "service:bicycle:diy": "no",
        "service:bicycle:pump": "yes",
        "service:bicycle:rental": "no",
        "service:bicycle:repair": "yes",
        "service:bicycle:retail": "yes",
        "service:bicycle:second_hand": "yes",
        "shop": "bicycle",
        "website": "http://www.velobikes.com.br/"
      },
      "geometry": {
        "type": "Polygon",
        "coordinates": [
          [
            [
              -49.2425041,
              -25.5228011
            ],
            [
              -49.2424548,
              -25.5229005
            ],
            [
              -49.2423301,
              -25.522851
            ],
            [
              -49.2423924,
              -25.5227498
            ],
            [
              -49.2425041,
              -25.5228011
            ]
          ]
        ]
      }
    },
    {
      "type": "Feature",
      "id": "way/286318719",
      "properties": {
        "@id": "way/286318719",
        "addr:city": "Curitiba",
        "addr:country": "BR",
        "addr:housenumber": "7990",
        "addr:street": "Avenida Manoel Ribas",
        "name": "Bicicletaria",
        "service:bicycle:cleaning": "yes",
        "service:bicycle:diy": "no",
        "service:bicycle:pump": "yes",
        "service:bicycle:rental": "no",
        "service:bicycle:repair": "yes",
        "service:bicycle:retail": "no",
        "service:bicycle:second_hand": "yes",
        "shop": "bicycle"
      },
      "geometry": {
        "type": "Polygon",
        "coordinates": [
          [
            [
              -49.346053,
              -25.3959585
            ],
            [
              -49.346014,
              -25.3959836
            ],
            [
              -49.3459504,
              -25.395907
            ],
            [
              -49.3459934,
              -25.3958831
            ],
            [
              -49.346053,
              -25.3959585
            ]
          ]
        ]
      }
    },
    {
      "type": "Feature",
      "id": "way/286319822",
      "properties": {
        "@id": "way/286319822",
        "addr:city": "Curitiba",
        "addr:country": "BR",
        "addr:housenumber": "1180",
        "addr:street": "Rua da Trindade",
        "name": "Cicles Lourenço",
        "service:bicycle:cleaning": "yes",
        "service:bicycle:diy": "no",
        "service:bicycle:pump": "yes",
        "service:bicycle:rental": "no",
        "service:bicycle:repair": "yes",
        "service:bicycle:retail": "no",
        "service:bicycle:second_hand": "yes",
        "shop": "bicycle"
      },
      "geometry": {
        "type": "Polygon",
        "coordinates": [
          [
            [
              -49.2031441,
              -25.453559
            ],
            [
              -49.2032269,
              -25.4535811
            ],
            [
              -49.2032095,
              -25.4536244
            ],
            [
              -49.2031249,
              -25.4536023
            ],
            [
              -49.2031441,
              -25.453559
            ]
          ]
        ]
      }
    },
    {
      "type": "Feature",
      "id": "way/286321518",
      "properties": {
        "@id": "way/286321518",
        "addr:city": "Curitiba",
        "addr:country": "BR",
        "addr:housenumber": "471",
        "addr:street": "Rua José Demeterco",
        "name": "Bicicletaria",
        "service:bicycle:cleaning": "yes",
        "service:bicycle:diy": "no",
        "service:bicycle:pump": "yes",
        "service:bicycle:rental": "no",
        "service:bicycle:repair": "yes",
        "service:bicycle:retail": "no",
        "service:bicycle:second_hand": "yes",
        "shop": "bicycle"
      },
      "geometry": {
        "type": "Polygon",
        "coordinates": [
          [
            [
              -49.2243972,
              -25.4473993
            ],
            [
              -49.2244165,
              -25.4474347
            ],
            [
              -49.2243601,
              -25.4474587
            ],
            [
              -49.2243403,
              -25.4474229
            ],
            [
              -49.2243972,
              -25.4473993
            ]
          ]
        ]
      }
    },
    {
      "type": "Feature",
      "id": "way/286322748",
      "properties": {
        "@id": "way/286322748",
        "addr:city": "Curitiba",
        "addr:country": "BR",
        "addr:housenumber": "782",
        "addr:street": "Rua dos Ferroviários",
        "name": "Mega Bike",
        "service:bicycle:cleaning": "yes",
        "service:bicycle:diy": "no",
        "service:bicycle:pump": "yes",
        "service:bicycle:rental": "no",
        "service:bicycle:repair": "yes",
        "service:bicycle:retail": "no",
        "service:bicycle:second_hand": "yes",
        "shop": "bicycle"
      },
      "geometry": {
        "type": "Polygon",
        "coordinates": [
          [
            [
              -49.2072706,
              -25.4505426
            ],
            [
              -49.2072361,
              -25.4506259
            ],
            [
              -49.2071819,
              -25.4506087
            ],
            [
              -49.2072195,
              -25.450527
            ],
            [
              -49.2072706,
              -25.4505426
            ]
          ]
        ]
      }
    },
    {
      "type": "Feature",
      "id": "way/286327245",
      "properties": {
        "@id": "way/286327245",
        "addr:city": "Curitiba",
        "addr:country": "BR",
        "addr:housenumber": "385",
        "addr:street": "Rua Filipinas",
        "name": "Up Hill América Bikes",
        "service:bicycle:cleaning": "yes",
        "service:bicycle:diy": "no",
        "service:bicycle:pump": "yes",
        "service:bicycle:rental": "no",
        "service:bicycle:repair": "yes",
        "service:bicycle:retail": "no",
        "service:bicycle:second_hand": "yes",
        "shop": "bicycle"
      },
      "geometry": {
        "type": "Polygon",
        "coordinates": [
          [
            [
              -49.2090696,
              -25.4669077
            ],
            [
              -49.209042,
              -25.4669895
            ],
            [
              -49.2089697,
              -25.466975
            ],
            [
              -49.2089984,
              -25.4668953
            ],
            [
              -49.2090696,
              -25.4669077
            ]
          ]
        ]
      }
    },
    {
      "type": "Feature",
      "id": "way/286330540",
      "properties": {
        "@id": "way/286330540",
        "addr:city": "Curitiba",
        "addr:country": "BR",
        "addr:housenumber": "4749",
        "addr:street": "Rua Eduardo Sprada",
        "name": "Bicicletaria",
        "service:bicycle:cleaning": "yes",
        "service:bicycle:diy": "no",
        "service:bicycle:pump": "yes",
        "service:bicycle:rental": "no",
        "service:bicycle:repair": "yes",
        "service:bicycle:retail": "no",
        "service:bicycle:second_hand": "yes",
        "shop": "bicycle"
      },
      "geometry": {
        "type": "Polygon",
        "coordinates": [
          [
            [
              -49.3503014,
              -25.4482801
            ],
            [
              -49.3502527,
              -25.4483375
            ],
            [
              -49.3502143,
              -25.4483106
            ],
            [
              -49.3502635,
              -25.4482547
            ],
            [
              -49.3503014,
              -25.4482801
            ]
          ]
        ]
      }
    },
    {
      "type": "Feature",
      "id": "way/286332518",
      "properties": {
        "@id": "way/286332518",
        "addr:city": "Curitiba",
        "addr:country": "BR",
        "addr:housenumber": "696",
        "addr:street": "Rua Paulo Kissula",
        "name": "Casa das Bicicletas",
        "phone": "41 3092-5996",
        "service:bicycle:cleaning": "yes",
        "service:bicycle:diy": "no",
        "service:bicycle:pump": "yes",
        "service:bicycle:rental": "no",
        "service:bicycle:repair": "yes",
        "service:bicycle:retail": "no",
        "service:bicycle:second_hand": "yes",
        "shop": "bicycle"
      },
      "geometry": {
        "type": "Polygon",
        "coordinates": [
          [
            [
              -49.2056218,
              -25.4382606
            ],
            [
              -49.2056641,
              -25.4383413
            ],
            [
              -49.205576,
              -25.4383806
            ],
            [
              -49.2055254,
              -25.4382957
            ],
            [
              -49.2056218,
              -25.4382606
            ]
          ]
        ]
      }
    },
    {
      "type": "Feature",
      "id": "way/286815601",
      "properties": {
        "@id": "way/286815601",
        "addr:city": "Curitiba",
        "addr:country": "BR",
        "addr:housenumber": "5207",
        "addr:street": "Avenida Presidente Affonso Camargo",
        "name": "Cicles Kusman",
        "phone": "41 3267 8827",
        "service:bicycle:cleaning": "yes",
        "service:bicycle:diy": "no",
        "service:bicycle:pump": "yes",
        "service:bicycle:rental": "no",
        "service:bicycle:repair": "yes",
        "service:bicycle:retail": "yes",
        "service:bicycle:second_hand": "yes",
        "shop": "bicycle"
      },
      "geometry": {
        "type": "Polygon",
        "coordinates": [
          [
            [
              -49.2131982,
              -25.4429915
            ],
            [
              -49.2132722,
              -25.4431447
            ],
            [
              -49.213175,
              -25.4431545
            ],
            [
              -49.2131056,
              -25.4430249
            ],
            [
              -49.2131982,
              -25.4429915
            ]
          ]
        ]
      }
    },
    {
      "type": "Feature",
      "id": "way/287562119",
      "properties": {
        "@id": "way/287562119",
        "addr:city": "Curitiba",
        "addr:country": "BR",
        "addr:housenumber": "3251",
        "addr:street": "Rua José Alcides de Lima",
        "name": "EJK Bicicletas",
        "phone": "(41) 3247-7904",
        "service:bicycle:cleaning": "yes",
        "service:bicycle:diy": "no",
        "service:bicycle:pump": "yes",
        "service:bicycle:rental": "no",
        "service:bicycle:repair": "yes",
        "service:bicycle:retail": "no",
        "service:bicycle:second_hand": "yes",
        "shop": "bicycle"
      },
      "geometry": {
        "type": "Polygon",
        "coordinates": [
          [
            [
              -49.3061033,
              -25.5158572
            ],
            [
              -49.3060994,
              -25.515928
            ],
            [
              -49.3060014,
              -25.5159262
            ],
            [
              -49.3060072,
              -25.5158501
            ],
            [
              -49.3061033,
              -25.5158572
            ]
          ]
        ]
      }
    },
    {
      "type": "Feature",
      "id": "way/287568003",
      "properties": {
        "@id": "way/287568003",
        "addr:city": "Curitiba",
        "addr:country": "BR",
        "addr:housenumber": "517",
        "addr:street": "Rua Marechal Althayr Roszanniy",
        "name": "Filais",
        "service:bicycle:cleaning": "yes",
        "service:bicycle:diy": "no",
        "service:bicycle:pump": "yes",
        "service:bicycle:rental": "no",
        "service:bicycle:repair": "yes",
        "service:bicycle:retail": "no",
        "service:bicycle:second_hand": "yes",
        "shop": "bicycle"
      },
      "geometry": {
        "type": "Polygon",
        "coordinates": [
          [
            [
              -49.2886078,
              -25.5033895
            ],
            [
              -49.2885875,
              -25.5034849
            ],
            [
              -49.2884649,
              -25.5034656
            ],
            [
              -49.2884851,
              -25.5033682
            ],
            [
              -49.2886078,
              -25.5033895
            ]
          ]
        ]
      }
    },
    {
      "type": "Feature",
      "id": "way/287575567",
      "properties": {
        "@id": "way/287575567",
        "addr:city": "Curitiba",
        "addr:country": "BR",
        "addr:housenumber": "469",
        "addr:street": "Rua Barão do Serro Azul",
        "name": "Agencia da Bicicleta",
        "service:bicycle:cleaning": "yes",
        "service:bicycle:diy": "no",
        "service:bicycle:pump": "yes",
        "service:bicycle:rental": "no",
        "service:bicycle:repair": "yes",
        "service:bicycle:retail": "yes",
        "service:bicycle:second_hand": "yes",
        "shop": "bicycle"
      },
      "geometry": {
        "type": "Polygon",
        "coordinates": [
          [
            [
              -49.2705695,
              -25.4247799
            ],
            [
              -49.2705903,
              -25.4248719
            ],
            [
              -49.2703867,
              -25.4249084
            ],
            [
              -49.2703619,
              -25.4248177
            ],
            [
              -49.2705695,
              -25.4247799
            ]
          ]
        ]
      }
    },
    {
      "type": "Feature",
      "id": "way/287590478",
      "properties": {
        "@id": "way/287590478",
        "addr:city": "Curitiba",
        "addr:country": "BR",
        "addr:housenumber": "226",
        "addr:street": "Rua Presidente Faria",
        "name": "Bicicletaria Cultura",
        "service:bicycle:cleaning": "yes",
        "service:bicycle:diy": "yes",
        "service:bicycle:pump": "yes",
        "service:bicycle:rental": "no",
        "service:bicycle:repair": "yes",
        "service:bicycle:retail": "no",
        "service:bicycle:second_hand": "yes",
        "shop": "bicycle"
      },
      "geometry": {
        "type": "Polygon",
        "coordinates": [
          [
            [
              -49.2682462,
              -25.4284229
            ],
            [
              -49.2682361,
              -25.4284411
            ],
            [
              -49.2681228,
              -25.4284332
            ],
            [
              -49.2681089,
              -25.4284866
            ],
            [
              -49.268027,
              -25.4284809
            ],
            [
              -49.2680535,
              -25.4284081
            ],
            [
              -49.2682462,
              -25.4284229
            ]
          ]
        ]
      }
    },
    {
      "type": "Feature",
      "id": "way/288486525",
      "properties": {
        "@id": "way/288486525",
        "addr:city": "Curitiba",
        "addr:country": "BR",
        "addr:housenumber": "1118",
        "addr:street": "Avenida Cândido Hartmann",
        "name": "Hunger Bikes",
        "phone": "41 3336-0785",
        "service:bicycle:cleaning": "yes",
        "service:bicycle:diy": "no",
        "service:bicycle:pump": "yes",
        "service:bicycle:rental": "no",
        "service:bicycle:repair": "yes",
        "service:bicycle:retail": "yes",
        "service:bicycle:second_hand": "yes",
        "shop": "bicycle",
        "website": "www.hungerbikes.com.br"
      },
      "geometry": {
        "type": "Polygon",
        "coordinates": [
          [
            [
              -49.2964905,
              -25.4277703
            ],
            [
              -49.296563,
              -25.4279201
            ],
            [
              -49.2964775,
              -25.4279646
            ],
            [
              -49.2964023,
              -25.4278265
            ],
            [
              -49.2964905,
              -25.4277703
            ]
          ]
        ]
      }
    },
    {
      "type": "Feature",
      "id": "way/290249410",
      "properties": {
        "@id": "way/290249410",
        "addr:city": "Curitiba",
        "addr:country": "BR",
        "addr:housenumber": "25",
        "addr:street": "Rua Antônio de Oliveira Santos",
        "name": "Cicles Central",
        "phone": "(41) 3346-1989",
        "service:bicycle:cleaning": "yes",
        "service:bicycle:diy": "no",
        "service:bicycle:pump": "yes",
        "service:bicycle:rental": "no",
        "service:bicycle:repair": "yes",
        "service:bicycle:retail": "yes",
        "service:bicycle:second_hand": "yes",
        "shop": "bicycle"
      },
      "geometry": {
        "type": "Polygon",
        "coordinates": [
          [
            [
              -49.3251221,
              -25.5088507
            ],
            [
              -49.3251402,
              -25.5089207
            ],
            [
              -49.3250313,
              -25.5089535
            ],
            [
              -49.3250082,
              -25.508879
            ],
            [
              -49.3251221,
              -25.5088507
            ]
          ]
        ]
      }
    },
    {
      "type": "Feature",
      "id": "way/290618920",
      "properties": {
        "@id": "way/290618920",
        "addr:city": "Curitiba",
        "addr:country": "BR",
        "addr:housenumber": "365",
        "addr:street": "Rua Emília Chopacz",
        "name": "Cicles Leomar",
        "service:bicycle:cleaning": "yes",
        "service:bicycle:diy": "no",
        "service:bicycle:pump": "yes",
        "service:bicycle:rental": "no",
        "service:bicycle:repair": "yes",
        "service:bicycle:retail": "yes",
        "service:bicycle:second_hand": "yes",
        "shop": "bicycle"
      },
      "geometry": {
        "type": "Polygon",
        "coordinates": [
          [
            [
              -49.3523083,
              -25.4531832
            ],
            [
              -49.3523027,
              -25.4532099
            ],
            [
              -49.3522649,
              -25.4532074
            ],
            [
              -49.3522667,
              -25.4531791
            ],
            [
              -49.3523083,
              -25.4531832
            ]
          ]
        ]
      }
    },
    {
      "type": "Feature",
      "id": "way/292720230",
      "properties": {
        "@id": "way/292720230",
        "addr:city": "Curitiba",
        "addr:country": "BR",
        "addr:housenumber": "121",
        "addr:street": "Rua Desembargador Cid Campelo",
        "name": "Cicles Vain",
        "phone": "(041)30260365",
        "service:bicycle:cleaning": "yes",
        "service:bicycle:diy": "no",
        "service:bicycle:pump": "yes",
        "service:bicycle:rental": "no",
        "service:bicycle:repair": "yes",
        "service:bicycle:retail": "yes",
        "service:bicycle:second_hand": "yes",
        "shop": "bicycle"
      },
      "geometry": {
        "type": "Polygon",
        "coordinates": [
          [
            [
              -49.3380208,
              -25.4988573
            ],
            [
              -49.3381196,
              -25.4988573
            ],
            [
              -49.3381192,
              -25.4989018
            ],
            [
              -49.3380208,
              -25.4989018
            ],
            [
              -49.3380208,
              -25.4988573
            ]
          ]
        ]
      }
    },
    {
      "type": "Feature",
      "id": "way/292877996",
      "properties": {
        "@id": "way/292877996",
        "addr:city": "Curitiba",
        "addr:country": "BR",
        "addr:housenumber": "3916",
        "addr:street": "Rua Desembargador Cid Campelo",
        "name": "Bike Sstaff",
        "phone": "(41) 3327-6573",
        "service:bicycle:cleaning": "yes",
        "service:bicycle:diy": "no",
        "service:bicycle:pump": "yes",
        "service:bicycle:rental": "no",
        "service:bicycle:repair": "yes",
        "service:bicycle:retail": "yes",
        "service:bicycle:second_hand": "yes",
        "shop": "bicycle"
      },
      "geometry": {
        "type": "Polygon",
        "coordinates": [
          [
            [
              -49.3298375,
              -25.5138587
            ],
            [
              -49.3297811,
              -25.5139031
            ],
            [
              -49.3296264,
              -25.5137391
            ],
            [
              -49.3296779,
              -25.5136981
            ],
            [
              -49.3298375,
              -25.5138587
            ]
          ]
        ]
      }
    },
    {
      "type": "Feature",
      "id": "way/294944110",
      "properties": {
        "@id": "way/294944110",
        "addr:housenumber": "318",
        "addr:postcode": "18300330",
        "addr:street": "Rua 13 de Maio",
        "building": "yes",
        "contact:email": "bocabikes@hotmail.com",
        "contact:phone": "+551535431664",
        "name": "Boca Bikes",
        "service:bicycle:diy": "yes",
        "service:bicycle:repair": "yes",
        "service:bicycle:retail": "yes",
        "shop": "bicycle",
        "website": "http://www.bocabikes.com.br"
      },
      "geometry": {
        "type": "Polygon",
        "coordinates": [
          [
            [
              -48.3474305,
              -24.0052635
            ],
            [
              -48.347427,
              -24.0054012
            ],
            [
              -48.3473655,
              -24.0053957
            ],
            [
              -48.3473746,
              -24.0052607
            ],
            [
              -48.3474305,
              -24.0052635
            ]
          ]
        ]
      }
    },
    {
      "type": "Feature",
      "id": "way/296788575",
      "properties": {
        "@id": "way/296788575",
        "addr:city": "Curitiba",
        "addr:country": "BR",
        "addr:housenumber": "2119",
        "addr:street": "Rua Maestro Francisco Antonello",
        "name": "Cicles Radar",
        "phone": "041 30265772",
        "service:bicycle:cleaning": "yes",
        "service:bicycle:diy": "no",
        "service:bicycle:pump": "yes",
        "service:bicycle:rental": "no",
        "service:bicycle:repair": "yes",
        "service:bicycle:retail": "yes",
        "service:bicycle:second_hand": "yes",
        "shop": "bicycle",
        "website": "www.ciclesradar.com.br"
      },
      "geometry": {
        "type": "Polygon",
        "coordinates": [
          [
            [
              -49.2741391,
              -25.4877383
            ],
            [
              -49.274009,
              -25.487825
            ],
            [
              -49.273941,
              -25.4877528
            ],
            [
              -49.2740751,
              -25.4876607
            ],
            [
              -49.2741391,
              -25.4877383
            ]
          ]
        ]
      }
    },
    {
      "type": "Feature",
      "id": "way/303246166",
      "properties": {
        "@id": "way/303246166",
        "building": "yes",
        "contact:phone": "+55 84 33431707",
        "name": "Bike Shop",
        "service:bicycle:cleaning": "yes",
        "service:bicycle:pump": "yes",
        "service:bicycle:repair": "yes",
        "service:bicycle:retail": "yes",
        "shop": "bicycle"
      },
      "geometry": {
        "type": "Polygon",
        "coordinates": [
          [
            [
              -35.1807281,
              -5.8822171
            ],
            [
              -35.1806513,
              -5.8822648
            ],
            [
              -35.1806163,
              -5.882209
            ],
            [
              -35.1807132,
              -5.8821913
            ],
            [
              -35.1807281,
              -5.8822171
            ]
          ]
        ]
      }
    },
    {
      "type": "Feature",
      "id": "node/322536550",
      "properties": {
        "@id": "node/322536550",
        "amenity": "bicycle_rental",
        "name": "Casa do Ciclistas",
        "shop": "bicycle"
      },
      "geometry": {
        "type": "Point",
        "coordinates": [
          -43.6299883,
          -19.3364352
        ]
      }
    },
    {
      "type": "Feature",
      "id": "node/346244655",
      "properties": {
        "@id": "node/346244655",
        "addr:housenumber": "197A",
        "name": "Ciclovia Laranjeiras",
        "shop": "bicycle"
      },
      "geometry": {
        "type": "Point",
        "coordinates": [
          -43.1855242,
          -22.9336038
        ]
      }
    },
    {
      "type": "Feature",
      "id": "node/412310720",
      "properties": {
        "@id": "node/412310720",
        "amenity": "bicycle_rental",
        "name": "Cicle Calle",
        "shop": "bicycle"
      },
      "geometry": {
        "type": "Point",
        "coordinates": [
          -43.1905681,
          -22.9867153
        ]
      }
    },
    {
      "type": "Feature",
      "id": "node/412310721",
      "properties": {
        "@id": "node/412310721",
        "addr:housenumber": "4240 - Loja H",
        "addr:postcode": "22070-900",
        "addr:street": "Avenida Atlântica",
        "name": "3 Shop",
        "phone": "+55-21-88928588",
        "phone:2": "+55-21-2247-1443",
        "shop": "bicycle",
        "source": "survey",
        "website": "http://www.3shopbr.com"
      },
      "geometry": {
        "type": "Point",
        "coordinates": [
          -43.1890382,
          -22.9863049
        ]
      }
    },
    {
      "type": "Feature",
      "id": "node/454457664",
      "properties": {
        "@id": "node/454457664",
        "addr:housenumber": "330",
        "addr:street": "Avenida Prado Júnior",
        "name": "Ciclovia Zona Sul",
        "phone": "+55-21-22755299",
        "shop": "bicycle"
      },
      "geometry": {
        "type": "Point",
        "coordinates": [
          -43.1754878,
          -22.9622393
        ]
      }
    },
    {
      "type": "Feature",
      "id": "node/494239422",
      "properties": {
        "@id": "node/494239422",
        "addr:housenumber": "855",
        "addr:street": "Rua Major Manoel Antonio de Mattos",
        "name": "Ciclo pedal",
        "shop": "bicycle"
      },
      "geometry": {
        "type": "Point",
        "coordinates": [
          -47.8810532,
          -22.0212269
        ]
      }
    },
    {
      "type": "Feature",
      "id": "node/585798667",
      "properties": {
        "@id": "node/585798667",
        "name": "Rappanui",
        "shop": "bicycle"
      },
      "geometry": {
        "type": "Point",
        "coordinates": [
          -35.2113992,
          -5.8387555
        ]
      }
    },
    {
      "type": "Feature",
      "id": "node/617039567",
      "properties": {
        "@id": "node/617039567",
        "name": "Byke Sport",
        "shop": "bicycle"
      },
      "geometry": {
        "type": "Point",
        "coordinates": [
          -35.2087534,
          -5.8112901
        ]
      }
    },
    {
      "type": "Feature",
      "id": "node/692766520",
      "properties": {
        "@id": "node/692766520",
        "addr:city": "Curitiba",
        "addr:country": "BR",
        "addr:housenumber": "130",
        "addr:street": "Avenida João Gualberto",
        "name": "Cicles Jaime",
        "service:bicycle:cleaning": "yes",
        "service:bicycle:diy": "no",
        "service:bicycle:pump": "yes",
        "service:bicycle:rental": "yes",
        "service:bicycle:repair": "yes",
        "service:bicycle:retail": "yes",
        "service:bicycle:second_hand": "yes",
        "shop": "bicycle"
      },
      "geometry": {
        "type": "Point",
        "coordinates": [
          -49.2678432,
          -25.4237831
        ]
      }
    },
    {
      "type": "Feature",
      "id": "node/704850245",
      "properties": {
        "@id": "node/704850245",
        "name": "Rios Bike",
        "operator": "Rios",
        "shop": "bicycle"
      },
      "geometry": {
        "type": "Point",
        "coordinates": [
          -47.902918,
          -22.0061981
        ]
      }
    },
    {
      "type": "Feature",
      "id": "node/760004258",
      "properties": {
        "@id": "node/760004258",
        "name": "Bonde Bike",
        "shop": "bicycle"
      },
      "geometry": {
        "type": "Point",
        "coordinates": [
          -47.8736671,
          -22.0127919
        ]
      }
    },
    {
      "type": "Feature",
      "id": "node/810378142",
      "properties": {
        "@id": "node/810378142",
        "addr:city": "Rio de Janeiro",
        "addr:country": "BR",
        "addr:housenumber": "58 - Loja A",
        "addr:street": "Rua das Laranjeiras",
        "name": "Bike & Lazer",
        "phone": "+55-21-22857941",
        "shop": "bicycle",
        "source": "survey",
        "website": "http://bikeelazer.com.br/"
      },
      "geometry": {
        "type": "Point",
        "coordinates": [
          -43.1810743,
          -22.9317372
        ]
      }
    },
    {
      "type": "Feature",
      "id": "node/839605954",
      "properties": {
        "@id": "node/839605954",
        "name": "Cicles Jaime",
        "shop": "bicycle"
      },
      "geometry": {
        "type": "Point",
        "coordinates": [
          -49.2593641,
          -25.4442578
        ]
      }
    },
    {
      "type": "Feature",
      "id": "node/909104649",
      "properties": {
        "@id": "node/909104649",
        "name": "Bike Mania",
        "shop": "bicycle"
      },
      "geometry": {
        "type": "Point",
        "coordinates": [
          -40.2902317,
          -20.2920295
        ]
      }
    },
    {
      "type": "Feature",
      "id": "node/932343268",
      "properties": {
        "@id": "node/932343268",
        "addr:housenumber": "336",
        "addr:street": "Rua das Laranjeiras",
        "name": "Nova Bike Dourado",
        "phone": "+55-21-30641720; +55-21-35026960",
        "shop": "bicycle",
        "source": "survey"
      },
      "geometry": {
        "type": "Point",
        "coordinates": [
          -43.1899533,
          -22.9353167
        ]
      }
    },
    {
      "type": "Feature",
      "id": "node/945830705",
      "properties": {
        "@id": "node/945830705",
        "shop": "bicycle"
      },
      "geometry": {
        "type": "Point",
        "coordinates": [
          -48.832548,
          -25.4794112
        ]
      }
    },
    {
      "type": "Feature",
      "id": "node/1032482673",
      "properties": {
        "@id": "node/1032482673",
        "name": "Radical Bike Sport",
        "shop": "bicycle"
      },
      "geometry": {
        "type": "Point",
        "coordinates": [
          -51.1480788,
          -29.7693733
        ]
      }
    },
    {
      "type": "Feature",
      "id": "node/1052832505",
      "properties": {
        "@id": "node/1052832505",
        "name": "Ultra Bike",
        "operator": "Ozias",
        "shop": "bicycle"
      },
      "geometry": {
        "type": "Point",
        "coordinates": [
          -47.8816319,
          -22.0034211
        ]
      }
    },
    {
      "type": "Feature",
      "id": "node/1068602112",
      "properties": {
        "@id": "node/1068602112",
        "name": "Bike Bros",
        "shop": "bicycle"
      },
      "geometry": {
        "type": "Point",
        "coordinates": [
          -43.928289,
          -19.9447747
        ]
      }
    },
    {
      "type": "Feature",
      "id": "node/1072018927",
      "properties": {
        "@id": "node/1072018927",
        "addr:housename": "Edifício Auda Porto",
        "addr:housenumber": "2439",
        "addr:street": "Avenida Gonçalo Rollemberg Leite",
        "name": "Ecociiclo",
        "shop": "bicycle",
        "website": "http://www.ecociiclo.com.br"
      },
      "geometry": {
        "type": "Point",
        "coordinates": [
          -37.0710794,
          -10.9275405
        ]
      }
    },
    {
      "type": "Feature",
      "id": "node/1073183968",
      "properties": {
        "@id": "node/1073183968",
        "shop": "bicycle"
      },
      "geometry": {
        "type": "Point",
        "coordinates": [
          -37.0664683,
          -10.969539
        ]
      }
    },
    {
      "type": "Feature",
      "id": "node/1081482923",
      "properties": {
        "@id": "node/1081482923",
        "shop": "bicycle"
      },
      "geometry": {
        "type": "Point",
        "coordinates": [
          -38.0839327,
          -12.6438248
        ]
      }
    },
    {
      "type": "Feature",
      "id": "node/1087086162",
      "properties": {
        "@id": "node/1087086162",
        "name": "Inter Trilhas",
        "shop": "bicycle"
      },
      "geometry": {
        "type": "Point",
        "coordinates": [
          -43.9322796,
          -19.9377363
        ]
      }
    },
    {
      "type": "Feature",
      "id": "node/1220133484",
      "properties": {
        "@id": "node/1220133484",
        "name": "Hair Bike",
        "shop": "bicycle"
      },
      "geometry": {
        "type": "Point",
        "coordinates": [
          -51.1477197,
          -29.7518095
        ]
      }
    },
    {
      "type": "Feature",
      "id": "node/1240486340",
      "properties": {
        "@id": "node/1240486340",
        "name": "Marcos Bicicletas",
        "shop": "bicycle"
      },
      "geometry": {
        "type": "Point",
        "coordinates": [
          -51.1490097,
          -29.752402
        ]
      }
    },
    {
      "type": "Feature",
      "id": "node/1243941793",
      "properties": {
        "@id": "node/1243941793",
        "addr:housenumber": "449",
        "addr:street": "Avenida João Pessoa",
        "name": "Ciclelândia",
        "opening_hours": "Mo-Fr 08:30-19:00; Sa 08:30-17:30; Su 10:00-16:00",
        "phone": "+55 51 32126955",
        "service:bicycle:repair": "yes",
        "service:bicycle:retail": "yes",
        "shop": "bicycle",
        "website": "http://www.ciclelandia.com.br"
      },
      "geometry": {
        "type": "Point",
        "coordinates": [
          -51.2204853,
          -30.036153
        ]
      }
    },
    {
      "type": "Feature",
      "id": "node/1265049941",
      "properties": {
        "@id": "node/1265049941",
        "addr:housenumber": "174",
        "addr:street": "Rua General Polidoro",
        "name": "Special Adventure",
        "phone": "+55-21-22663002",
        "shop": "bicycle",
        "website": "http://www.specialadventure.com.br/"
      },
      "geometry": {
        "type": "Point",
        "coordinates": [
          -43.1859976,
          -22.9561303
        ]
      }
    },
    {
      "type": "Feature",
      "id": "node/1345399049",
      "properties": {
        "@id": "node/1345399049",
        "shop": "bicycle"
      },
      "geometry": {
        "type": "Point",
        "coordinates": [
          -43.2236715,
          -22.9811715
        ]
      }
    },
    {
      "type": "Feature",
      "id": "node/1346008723",
      "properties": {
        "@id": "node/1346008723",
        "shop": "bicycle"
      },
      "geometry": {
        "type": "Point",
        "coordinates": [
          -38.0842921,
          -12.6435005
        ]
      }
    },
    {
      "type": "Feature",
      "id": "node/1373408252",
      "properties": {
        "@id": "node/1373408252",
        "name": "Bicicletaria do Luciano",
        "phone": "+55 11 37261763",
        "service:bicycle:repair": "yes",
        "service:bicycle:retail": "no",
        "shop": "bicycle"
      },
      "geometry": {
        "type": "Point",
        "coordinates": [
          -46.7258775,
          -23.5703287
        ]
      }
    },
    {
      "type": "Feature",
      "id": "node/1377668188",
      "properties": {
        "@id": "node/1377668188",
        "addr:housenumber": "361",
        "addr:street": "Rua Assunção",
        "name": "Bicicletaria Celção",
        "phone": "+55 21 91130094",
        "shop": "bicycle"
      },
      "geometry": {
        "type": "Point",
        "coordinates": [
          -43.1868311,
          -22.9465753
        ]
      }
    },
    {
      "type": "Feature",
      "id": "node/1413454261",
      "properties": {
        "@id": "node/1413454261",
        "addr:housenumber": "712",
        "addr:street": "Avenida Centenário",
        "contact:phone": "7734413353",
        "name": "Beto Bike",
        "service:bicycle:repair": "yes",
        "service:bicycle:retail": "yes",
        "service:bicycle:second_hand": "yes",
        "shop": "bicycle"
      },
      "geometry": {
        "type": "Point",
        "coordinates": [
          -41.6773974,
          -14.2136036
        ]
      }
    },
    {
      "type": "Feature",
      "id": "node/1453300935",
      "properties": {
        "@id": "node/1453300935",
        "addr:housenumber": "2176",
        "addr:street": "Avenida Pequeno Príncipe",
        "name": "Cicle Campeche",
        "opening_hours": "Mo-Fr 09:00-12:00,14:00-19:00; Sa 09:00-16:00",
        "shop": "bicycle"
      },
      "geometry": {
        "type": "Point",
        "coordinates": [
          -48.4907059,
          -27.6833696
        ]
      }
    },
    {
      "type": "Feature",
      "id": "node/1454993657",
      "properties": {
        "@id": "node/1454993657",
        "name": "Valdir Bikes",
        "shop": "bicycle"
      },
      "geometry": {
        "type": "Point",
        "coordinates": [
          -48.5077987,
          -27.6000042
        ]
      }
    },
    {
      "type": "Feature",
      "id": "node/1492870690",
      "properties": {
        "@id": "node/1492870690",
        "addr:housenumber": "2134",
        "addr:street": "Avenida Jornalista Rubens de Arruda Ramos",
        "name": "Bike Dream",
        "shop": "bicycle",
        "website": "http://www.bikedream.com.br"
      },
      "geometry": {
        "type": "Point",
        "coordinates": [
          -48.5495898,
          -27.5859933
        ]
      }
    },
    {
      "type": "Feature",
      "id": "node/1515291448",
      "properties": {
        "@id": "node/1515291448",
        "addr:housenumber": "135 - Loja B",
        "addr:postcode": "22410-002",
        "addr:street": "Rua Visconde de Pirajá",
        "name": "Bike & Lazer",
        "phone": "+55-21-22677778",
        "shop": "bicycle",
        "source": "survey",
        "website": "http://www.bikeelazer.com.br"
      },
      "geometry": {
        "type": "Point",
        "coordinates": [
          -43.1994932,
          -22.9847181
        ]
      }
    },
    {
      "type": "Feature",
      "id": "node/1567241589",
      "properties": {
        "@id": "node/1567241589",
        "name": "Casa das Bicicletas",
        "service:bicycle:repair": "yes",
        "service:bicycle:retail": "yes",
        "service:bicycle:second_hand": "yes",
        "shop": "bicycle"
      },
      "geometry": {
        "type": "Point",
        "coordinates": [
          -41.6638173,
          -14.2041648
        ]
      }
    },
    {
      "type": "Feature",
      "id": "node/1567241598",
      "properties": {
        "@id": "node/1567241598",
        "addr:housenumber": "367",
        "addr:street": "Avenida Doutor Antônio Mourão Guimarães",
        "contact:phone": "7734413275",
        "name": "Shopping Bike",
        "service:bicycle:repair": "yes",
        "service:bicycle:retail": "yes",
        "service:bicycle:second_hand": "yes",
        "shop": "bicycle",
        "wheelchair": "yes"
      },
      "geometry": {
        "type": "Point",
        "coordinates": [
          -41.6691732,
          -14.2095359
        ]
      }
    },
    {
      "type": "Feature",
      "id": "node/1583808949",
      "properties": {
        "@id": "node/1583808949",
        "addr:housenumber": "325 loja J",
        "addr:street": "Rua Von Martius",
        "name": "CycloPonto",
        "phone": "+55-21-25405787",
        "shop": "bicycle"
      },
      "geometry": {
        "type": "Point",
        "coordinates": [
          -43.222715,
          -22.9646023
        ]
      }
    },
    {
      "type": "Feature",
      "id": "node/1589083919",
      "properties": {
        "@id": "node/1589083919",
        "shop": "bicycle",
        "source": "survey"
      },
      "geometry": {
        "type": "Point",
        "coordinates": [
          -48.0102995,
          -15.8375217
        ]
      }
    },
    {
      "type": "Feature",
      "id": "node/1608064833",
      "properties": {
        "@id": "node/1608064833",
        "addr:street": "Elias Rickli, 402",
        "name": "Bicicletaria Pedal de Ouro - Vardinho",
        "shop": "bicycle"
      },
      "geometry": {
        "type": "Point",
        "coordinates": [
          -51.542446,
          -25.0402802
        ]
      }
    },
    {
      "type": "Feature",
      "id": "node/1611096007",
      "properties": {
        "@id": "node/1611096007",
        "name": "Cicle Esporte Vista Alegre",
        "shop": "bicycle"
      },
      "geometry": {
        "type": "Point",
        "coordinates": [
          -43.3153795,
          -22.8265773
        ]
      }
    },
    {
      "type": "Feature",
      "id": "node/1622794819",
      "properties": {
        "@id": "node/1622794819",
        "name": "Real Bike",
        "phone": "+55-21-22655097",
        "service:bicycle:cleaning": "yes",
        "service:bicycle:pump": "yes",
        "service:bicycle:rental": "yes",
        "service:bicycle:repair": "yes",
        "service:bicycle:retail": "yes",
        "service:bicycle:second_hand": "yes",
        "shop": "bicycle"
      },
      "geometry": {
        "type": "Point",
        "coordinates": [
          -43.1788449,
          -22.9243518
        ]
      }
    },
    {
      "type": "Feature",
      "id": "node/1622794878",
      "properties": {
        "@id": "node/1622794878",
        "addr:city": "Rio de Janeiro",
        "addr:country": "BR",
        "addr:housenumber": "36A",
        "addr:postcode": "22211-200",
        "addr:street": "Rua Pedro Américo",
        "name": "Salas Bikes",
        "opening_hours": "Mo-Fr 08:00-19:00; Sa 08:00-14:00",
        "phone": "+55-21-22452835",
        "service:bicycle:cleaning": "yes",
        "service:bicycle:pump": "yes",
        "service:bicycle:repair": "yes",
        "service:bicycle:retail": "yes",
        "service:bicycle:second_hand": "yes",
        "shop": "bicycle",
        "website": "http://www.salasbikes.com.br/"
      },
      "geometry": {
        "type": "Point",
        "coordinates": [
          -43.1777234,
          -22.9237385
        ]
      }
    },
    {
      "type": "Feature",
      "id": "node/1645044564",
      "properties": {
        "@id": "node/1645044564",
        "addr:street": "Avenida Barão do Rio Branco",
        "name": "HardTrack",
        "shop": "bicycle",
        "website": "www.hardtrack.com.br"
      },
      "geometry": {
        "type": "Point",
        "coordinates": [
          -45.9040379,
          -23.196012
        ]
      }
    },
    {
      "type": "Feature",
      "id": "node/1658248830",
      "properties": {
        "@id": "node/1658248830",
        "name": "Aro 10",
        "service:bicycle:repair": "yes",
        "service:bicycle:retail": "yes",
        "service:bicycle:second_hand": "yes",
        "shop": "bicycle"
      },
      "geometry": {
        "type": "Point",
        "coordinates": [
          -38.9659649,
          -12.2191144
        ]
      }
    },
    {
      "type": "Feature",
      "id": "node/1662873046",
      "properties": {
        "@id": "node/1662873046",
        "service:bicycle:repair": "yes",
        "service:bicycle:retail": "yes",
        "shop": "bicycle"
      },
      "geometry": {
        "type": "Point",
        "coordinates": [
          -38.964284,
          -12.6017065
        ]
      }
    },
    {
      "type": "Feature",
      "id": "node/1673649097",
      "properties": {
        "@id": "node/1673649097",
        "name": "Aro 10",
        "service:bicycle:repair": "yes",
        "service:bicycle:retail": "yes",
        "shop": "bicycle"
      },
      "geometry": {
        "type": "Point",
        "coordinates": [
          -38.9639106,
          -12.2562754
        ]
      }
    },
    {
      "type": "Feature",
      "id": "node/1673649108",
      "properties": {
        "@id": "node/1673649108",
        "name": "Pedal Cicle",
        "service:bicycle:repair": "yes",
        "service:bicycle:retail": "yes",
        "service:bicycle:second_hand": "yes",
        "shop": "bicycle"
      },
      "geometry": {
        "type": "Point",
        "coordinates": [
          -38.9639076,
          -12.2561987
        ]
      }
    },
    {
      "type": "Feature",
      "id": "node/1686141628",
      "properties": {
        "@id": "node/1686141628",
        "addr:street": "Rua Dom Pedro II",
        "name": "Ciclovil Byke",
        "service:bicycle:repair": "yes",
        "service:bicycle:retail": "yes",
        "shop": "bicycle",
        "website": "http://www.ciclovilbike.com.br/"
      },
      "geometry": {
        "type": "Point",
        "coordinates": [
          -48.6113473,
          -27.5907159
        ]
      }
    },
    {
      "type": "Feature",
      "id": "node/1715371212",
      "properties": {
        "@id": "node/1715371212",
        "shop": "bicycle"
      },
      "geometry": {
        "type": "Point",
        "coordinates": [
          -43.8558158,
          -16.727135
        ]
      }
    },
    {
      "type": "Feature",
      "id": "node/1717414709",
      "properties": {
        "@id": "node/1717414709",
        "bicycle_hire": "yes",
        "name": "Aluga-se bikes",
        "shop": "bicycle"
      },
      "geometry": {
        "type": "Point",
        "coordinates": [
          -45.0624532,
          -23.461032
        ]
      }
    },
    {
      "type": "Feature",
      "id": "node/1737663553",
      "properties": {
        "@id": "node/1737663553",
        "addr:housenumber": "269",
        "addr:postcode": "88036-270",
        "addr:street": "Rua Juvêncio Costa",
        "name": "Della Bikes",
        "opening_hours": "Mo-Fr 08:30-19:00; Sa 08:30-13:00",
        "phone": "0055-48-3234-5000",
        "service:bicycle:retail": "yes",
        "shop": "bicycle",
        "website": "www.dellabikes.com.br"
      },
      "geometry": {
        "type": "Point",
        "coordinates": [
          -48.5212023,
          -27.5864207
        ]
      }
    },
    {
      "type": "Feature",
      "id": "node/1749056011",
      "properties": {
        "@id": "node/1749056011",
        "name": "Ciclobike Trindade",
        "service:bicycle:repair": "yes",
        "shop": "bicycle"
      },
      "geometry": {
        "type": "Point",
        "coordinates": [
          -48.5241789,
          -27.5801572
        ]
      }
    },
    {
      "type": "Feature",
      "id": "node/1760199163",
      "properties": {
        "@id": "node/1760199163",
        "name": "São Miquel",
        "service:bicycle:repair": "yes",
        "shop": "bicycle"
      },
      "geometry": {
        "type": "Point",
        "coordinates": [
          -38.9519767,
          -12.2572238
        ]
      }
    },
    {
      "type": "Feature",
      "id": "node/1770073775",
      "properties": {
        "@id": "node/1770073775",
        "name": "Ciclo A3",
        "shop": "bicycle"
      },
      "geometry": {
        "type": "Point",
        "coordinates": [
          -46.5889084,
          -23.5658655
        ]
      }
    },
    {
      "type": "Feature",
      "id": "node/1770155505",
      "properties": {
        "@id": "node/1770155505",
        "name": "Bicicletaria Central",
        "service:bicycle:repair": "yes",
        "service:bicycle:retail": "yes",
        "service:bicycle:second_hand": "yes",
        "shop": "bicycle"
      },
      "geometry": {
        "type": "Point",
        "coordinates": [
          -45.0763532,
          -23.4328623
        ]
      }
    },
    {
      "type": "Feature",
      "id": "node/1770155514",
      "properties": {
        "@id": "node/1770155514",
        "name": "Giro's Bike Bicicletaria",
        "service:bicycle:repair": "yes",
        "service:bicycle:retail": "yes",
        "service:bicycle:second_hand": "yes",
        "shop": "bicycle"
      },
      "geometry": {
        "type": "Point",
        "coordinates": [
          -45.0872538,
          -23.4347556
        ]
      }
    },
    {
      "type": "Feature",
      "id": "node/1788105646",
      "properties": {
        "@id": "node/1788105646",
        "addr:housenumber": "1",
        "addr:street": "Rua Alberto Ribeiro",
        "name": "Robson Bike",
        "shop": "bicycle",
        "source": "survey"
      },
      "geometry": {
        "type": "Point",
        "coordinates": [
          -43.2258912,
          -22.965256
        ]
      }
    },
    {
      "type": "Feature",
      "id": "node/1801258703",
      "properties": {
        "@id": "node/1801258703",
        "shop": "bicycle"
      },
      "geometry": {
        "type": "Point",
        "coordinates": [
          -46.4335524,
          -23.8974757
        ]
      }
    },
    {
      "type": "Feature",
      "id": "node/1814202907",
      "properties": {
        "@id": "node/1814202907",
        "name": "Bicicletas Flamengo",
        "shop": "bicycle"
      },
      "geometry": {
        "type": "Point",
        "coordinates": [
          -43.1769907,
          -22.9398091
        ]
      }
    },
    {
      "type": "Feature",
      "id": "node/1823257073",
      "properties": {
        "@id": "node/1823257073",
        "name": "Luna Motos e Bikes",
        "shop": "bicycle"
      },
      "geometry": {
        "type": "Point",
        "coordinates": [
          -38.9610762,
          -12.260067
        ]
      }
    },
    {
      "type": "Feature",
      "id": "node/1824756418",
      "properties": {
        "@id": "node/1824756418",
        "addr:street": "Avenida Getúlio Vargas",
        "name": "Cicle Brisa",
        "service:bicycle:pump": "no",
        "service:bicycle:repair": "yes",
        "service:bicycle:retail": "yes",
        "shop": "bicycle"
      },
      "geometry": {
        "type": "Point",
        "coordinates": [
          -38.9500504,
          -12.2554303
        ]
      }
    },
    {
      "type": "Feature",
      "id": "node/1828065534",
      "properties": {
        "@id": "node/1828065534",
        "name": "Kiowa Bike",
        "shop": "bicycle"
      },
      "geometry": {
        "type": "Point",
        "coordinates": [
          -44.0160873,
          -19.9706334
        ]
      }
    },
    {
      "type": "Feature",
      "id": "node/1844386427",
      "properties": {
        "@id": "node/1844386427",
        "name": "Bicicletaria",
        "shop": "bicycle"
      },
      "geometry": {
        "type": "Point",
        "coordinates": [
          -54.2042782,
          -23.065014
        ]
      }
    },
    {
      "type": "Feature",
      "id": "node/1900431930",
      "properties": {
        "@id": "node/1900431930",
        "name": "BODIM - Biciletas e Motos",
        "shop": "bicycle"
      },
      "geometry": {
        "type": "Point",
        "coordinates": [
          -47.488366,
          -5.5203124
        ]
      }
    },
    {
      "type": "Feature",
      "id": "node/1910343542",
      "properties": {
        "@id": "node/1910343542",
        "shop": "bicycle"
      },
      "geometry": {
        "type": "Point",
        "coordinates": [
          -46.650915,
          -23.4709265
        ]
      }
    },
    {
      "type": "Feature",
      "id": "node/1913254534",
      "properties": {
        "@id": "node/1913254534",
        "name": "Pedalac",
        "shop": "bicycle"
      },
      "geometry": {
        "type": "Point",
        "coordinates": [
          -45.8510949,
          -23.1800173
        ]
      }
    },
    {
      "type": "Feature",
      "id": "node/1914663595",
      "properties": {
        "@id": "node/1914663595",
        "shop": "bicycle"
      },
      "geometry": {
        "type": "Point",
        "coordinates": [
          -45.8735811,
          -23.1881828
        ]
      }
    },
    {
      "type": "Feature",
      "id": "node/1936231715",
      "properties": {
        "@id": "node/1936231715",
        "shop": "bicycle"
      },
      "geometry": {
        "type": "Point",
        "coordinates": [
          -37.3560205,
          -5.1914298
        ]
      }
    },
    {
      "type": "Feature",
      "id": "node/1936233326",
      "properties": {
        "@id": "node/1936233326",
        "shop": "bicycle"
      },
      "geometry": {
        "type": "Point",
        "coordinates": [
          -37.3460003,
          -5.1948805
        ]
      }
    },
    {
      "type": "Feature",
      "id": "node/1939216728",
      "properties": {
        "@id": "node/1939216728",
        "name": "CicloBIKE",
        "operator": "ZECA",
        "shop": "bicycle"
      },
      "geometry": {
        "type": "Point",
        "coordinates": [
          -39.0997755,
          -12.6754449
        ]
      }
    },
    {
      "type": "Feature",
      "id": "node/1949423741",
      "properties": {
        "@id": "node/1949423741",
        "name": "BikeTek",
        "phone": "77-3261.5142",
        "service:bicycle:pump": "yes",
        "service:bicycle:repair": "yes",
        "service:bicycle:retail": "yes",
        "shop": "bicycle"
      },
      "geometry": {
        "type": "Point",
        "coordinates": [
          -40.2466334,
          -15.247476
        ]
      }
    },
    {
      "type": "Feature",
      "id": "node/1976977463",
      "properties": {
        "@id": "node/1976977463",
        "addr:housenumber": "697 Lojas A, B e C",
        "addr:street": "Avenida Italianos",
        "name": "Casa São João Batista Bicicletas",
        "shop": "bicycle"
      },
      "geometry": {
        "type": "Point",
        "coordinates": [
          -43.350045,
          -22.8474361
        ]
      }
    },
    {
      "type": "Feature",
      "id": "node/1977835680",
      "properties": {
        "@id": "node/1977835680",
        "addr:housenumber": "4 Loja 2",
        "addr:street": "Rua Almirante Cochrane",
        "name": "Cicle Copa Sul",
        "opening_hours": "Mo-Fr 09:00-18:30; Sa 09:00-13:30",
        "phone": "+55-21-22348155",
        "shop": "bicycle",
        "website": "http://www.angelfire.com/bc2/copasul/"
      },
      "geometry": {
        "type": "Point",
        "coordinates": [
          -43.2247548,
          -22.9182443
        ]
      }
    },
    {
      "type": "Feature",
      "id": "node/1990989779",
      "properties": {
        "@id": "node/1990989779",
        "addr:housenumber": "20C",
        "addr:street": "Rua Francisco Otaviano",
        "name": "Velô eBike",
        "shop": "bicycle"
      },
      "geometry": {
        "type": "Point",
        "coordinates": [
          -43.1891922,
          -22.9864096
        ]
      }
    },
    {
      "type": "Feature",
      "id": "node/2001272690",
      "properties": {
        "@id": "node/2001272690",
        "addr:housenumber": "2 - Anexo",
        "addr:street": "Rua Xavier dos Pássaros",
        "name": "Melo's Cycle",
        "phone": "+55-21-39799838",
        "shop": "bicycle",
        "website": "http://www.meloscicles.com.br/"
      },
      "geometry": {
        "type": "Point",
        "coordinates": [
          -43.3046082,
          -22.8958312
        ]
      }
    },
    {
      "type": "Feature",
      "id": "node/2001277758",
      "properties": {
        "@id": "node/2001277758",
        "addr:housenumber": "96 - Loja A",
        "addr:street": "Rua Adolfo Bergamini",
        "name": "Melo's Cicle",
        "phone": "+55-21-39799841",
        "shop": "bicycle",
        "website": "http://www.meloscicles.com.br"
      },
      "geometry": {
        "type": "Point",
        "coordinates": [
          -43.2954935,
          -22.897708
        ]
      }
    },
    {
      "type": "Feature",
      "id": "node/2001287107",
      "properties": {
        "@id": "node/2001287107",
        "addr:housenumber": "411",
        "addr:street": "Avenida Governador Roberto Silveira",
        "name": "Melo's Cicle",
        "phone": "+55-21-26688296",
        "shop": "bicycle",
        "website": "http://www.meloscicles.com.br"
      },
      "geometry": {
        "type": "Point",
        "coordinates": [
          -43.455139,
          -22.7545369
        ]
      }
    },
    {
      "type": "Feature",
      "id": "node/2001328842",
      "properties": {
        "@id": "node/2001328842",
        "addr:housenumber": "40",
        "addr:street": "Avenida Genaro de Carvalho",
        "name": "CicloPonto",
        "phone": "+55-21-24875182",
        "shop": "bicycle"
      },
      "geometry": {
        "type": "Point",
        "coordinates": [
          -43.4466284,
          -23.0132014
        ]
      }
    },
    {
      "type": "Feature",
      "id": "node/2001355396",
      "properties": {
        "@id": "node/2001355396",
        "addr:housenumber": "127",
        "addr:street": "Rua do Zumbi",
        "name": "Ciclista da Ilha",
        "shop": "bicycle"
      },
      "geometry": {
        "type": "Point",
        "coordinates": [
          -43.1755695,
          -22.819058
        ]
      }
    },
    {
      "type": "Feature",
      "id": "node/2001358678",
      "properties": {
        "@id": "node/2001358678",
        "addr:housenumber": "91",
        "addr:street": "Rua Jaime Perdigão",
        "name": "Cicle Zidan",
        "phone": "+55-21-33535470",
        "shop": "bicycle",
        "website": "http://www.zidan.com.br/"
      },
      "geometry": {
        "type": "Point",
        "coordinates": [
          -43.1935349,
          -22.797745
        ]
      }
    },
    {
      "type": "Feature",
      "id": "node/2001375625",
      "properties": {
        "@id": "node/2001375625",
        "addr:housenumber": "622",
        "addr:street": "Estrada da Cacuia",
        "name": "Star Bike",
        "shop": "bicycle",
        "website": "http://www.starbike.com.br/"
      },
      "geometry": {
        "type": "Point",
        "coordinates": [
          -43.1858747,
          -22.8109786
        ]
      }
    },
    {
      "type": "Feature",
      "id": "node/2014546050",
      "properties": {
        "@id": "node/2014546050",
        "addr:housenumber": "10 loja A",
        "addr:street": "Rua Marquês de Sabará",
        "name": "Intense Bike",
        "phone": "+55-21-38752620",
        "shop": "bicycle",
        "source": "survey",
        "website": "http://intensebike.com.br"
      },
      "geometry": {
        "type": "Point",
        "coordinates": [
          -43.2316135,
          -22.9666306
        ]
      }
    },
    {
      "type": "Feature",
      "id": "node/2022931060",
      "properties": {
        "@id": "node/2022931060",
        "name": "O Ciclista",
        "shop": "bicycle",
        "wheelchair": "yes"
      },
      "geometry": {
        "type": "Point",
        "coordinates": [
          -39.1023456,
          -12.6728909
        ]
      }
    },
    {
      "type": "Feature",
      "id": "node/2028036341",
      "properties": {
        "@id": "node/2028036341",
        "name": "Skina Ciclo",
        "shop": "bicycle",
        "source": "local knowledge"
      },
      "geometry": {
        "type": "Point",
        "coordinates": [
          -35.2136569,
          -5.8055491
        ]
      }
    },
    {
      "type": "Feature",
      "id": "node/2029084284",
      "properties": {
        "@id": "node/2029084284",
        "addr:housenumber": "245",
        "addr:postcode": "20541-100",
        "addr:street": "Rua Maxwell",
        "name": "Centro Ciclismo Boulevard",
        "phone": "+55-21-25717999",
        "shop": "bicycle",
        "source": "survey"
      },
      "geometry": {
        "type": "Point",
        "coordinates": [
          -43.2435124,
          -22.9202966
        ]
      }
    },
    {
      "type": "Feature",
      "id": "node/2031562977",
      "properties": {
        "@id": "node/2031562977",
        "addr:housenumber": "55",
        "addr:postcode": "22080-040",
        "addr:street": "Rua Francisco Otaviano",
        "name": "Ciclovia Posto 6",
        "phone": "+55-21-22470018",
        "shop": "bicycle",
        "source": "survey"
      },
      "geometry": {
        "type": "Point",
        "coordinates": [
          -43.1903683,
          -22.9870276
        ]
      }
    },
    {
      "type": "Feature",
      "id": "node/2031577010",
      "properties": {
        "@id": "node/2031577010",
        "addr:housenumber": "339",
        "addr:postcode": "22040-001",
        "addr:street": "Rua Barata Ribeiro",
        "name": "Modern Bike",
        "phone": "+55-21-22553131",
        "shop": "bicycle",
        "source": "survey",
        "website": "http://www.modernbike.com.br"
      },
      "geometry": {
        "type": "Point",
        "coordinates": [
          -43.1839086,
          -22.96762
        ]
      }
    },
    {
      "type": "Feature",
      "id": "node/2031586130",
      "properties": {
        "@id": "node/2031586130",
        "addr:housenumber": "55",
        "addr:postcode": "22081-025",
        "addr:street": "Rua Júlio de Castilhos",
        "name": "Cicle Eletrodomésticos Copa Sul",
        "phone": "+55-21-25211449",
        "shop": "bicycle",
        "source": "survey"
      },
      "geometry": {
        "type": "Point",
        "coordinates": [
          -43.191885,
          -22.984417
        ]
      }
    },
    {
      "type": "Feature",
      "id": "node/2031591084",
      "properties": {
        "@id": "node/2031591084",
        "addr:housenumber": "120",
        "addr:postcode": "22031-070",
        "addr:street": "Rua Siqueira Campos",
        "name": "Bicicletas Copacabana",
        "phone": "+55-21-22553176",
        "shop": "bicycle",
        "source": "survey"
      },
      "geometry": {
        "type": "Point",
        "coordinates": [
          -43.1869933,
          -22.9663504
        ]
      }
    },
    {
      "type": "Feature",
      "id": "node/2031595294",
      "properties": {
        "@id": "node/2031595294",
        "addr:housenumber": "44 - Loja B",
        "addr:street": "Rua Humaitá",
        "name": "Branco Bike",
        "phone": "+55-21-25270047",
        "shop": "bicycle",
        "source": "survey"
      },
      "geometry": {
        "type": "Point",
        "coordinates": [
          -43.197931,
          -22.9551081
        ]
      }
    },
    {
      "type": "Feature",
      "id": "node/2036693872",
      "properties": {
        "@id": "node/2036693872",
        "addr:housenumber": "70",
        "addr:street": "Rua José Vicente",
        "name": "Bicicletas Carioca",
        "shop": "bicycle",
        "source": "survey",
        "website": "https://www.facebook.com/bicicletas.carioca"
      },
      "geometry": {
        "type": "Point",
        "coordinates": [
          -43.2574466,
          -22.9214261
        ]
      }
    },
    {
      "type": "Feature",
      "id": "node/2038247975",
      "properties": {
        "@id": "node/2038247975",
        "addr:housenumber": "605",
        "addr:postcode": "22431-050",
        "addr:street": "Rua Dias Ferreira",
        "name": "Cicle Leblon",
        "phone": "+55-21-22747658",
        "shop": "bicycle",
        "source": "survey"
      },
      "geometry": {
        "type": "Point",
        "coordinates": [
          -43.2245761,
          -22.9819202
        ]
      }
    },
    {
      "type": "Feature",
      "id": "node/2038253919",
      "properties": {
        "@id": "node/2038253919",
        "name": "Norte Bike",
        "shop": "bicycle"
      },
      "geometry": {
        "type": "Point",
        "coordinates": [
          -43.3100848,
          -22.8820912
        ]
      }
    },
    {
      "type": "Feature",
      "id": "node/2044814270",
      "properties": {
        "@id": "node/2044814270",
        "addr:housenumber": "719 Loja 2",
        "addr:street": "Rua Jardim Botânico",
        "name": "Special Bike",
        "phone": "+55-21-21430181",
        "shop": "bicycle",
        "source": "survey",
        "website": "http://www.specialbikebotafogo.com.br/loja/company.php"
      },
      "geometry": {
        "type": "Point",
        "coordinates": [
          -43.2188711,
          -22.9660839
        ]
      }
    },
    {
      "type": "Feature",
      "id": "node/2059380162",
      "properties": {
        "@id": "node/2059380162",
        "shop": "bicycle"
      },
      "geometry": {
        "type": "Point",
        "coordinates": [
          -51.6685599,
          -24.2398241
        ]
      }
    },
    {
      "type": "Feature",
      "id": "node/2061050672",
      "properties": {
        "@id": "node/2061050672",
        "shop": "bicycle"
      },
      "geometry": {
        "type": "Point",
        "coordinates": [
          -53.400268,
          -27.3591628
        ]
      }
    },
    {
      "type": "Feature",
      "id": "node/2062357745",
      "properties": {
        "@id": "node/2062357745",
        "shop": "bicycle"
      },
      "geometry": {
        "type": "Point",
        "coordinates": [
          -46.3082747,
          -23.9720284
        ]
      }
    },
    {
      "type": "Feature",
      "id": "node/2069025915",
      "properties": {
        "@id": "node/2069025915",
        "name": "Bike Hélio",
        "shop": "bicycle"
      },
      "geometry": {
        "type": "Point",
        "coordinates": [
          -48.6420868,
          -27.5978519
        ]
      }
    },
    {
      "type": "Feature",
      "id": "node/2078393421",
      "properties": {
        "@id": "node/2078393421",
        "name": "Bicicletaria Pedalão",
        "shop": "bicycle"
      },
      "geometry": {
        "type": "Point",
        "coordinates": [
          -48.6199595,
          -17.7467397
        ]
      }
    },
    {
      "type": "Feature",
      "id": "node/2084037760",
      "properties": {
        "@id": "node/2084037760",
        "service:bicycle:repair": "no",
        "service:bicycle:retail": "yes",
        "shop": "bicycle"
      },
      "geometry": {
        "type": "Point",
        "coordinates": [
          -38.9453743,
          -12.2407177
        ]
      }
    },
    {
      "type": "Feature",
      "id": "node/2093245171",
      "properties": {
        "@id": "node/2093245171",
        "name": "Free Bike",
        "shop": "bicycle"
      },
      "geometry": {
        "type": "Point",
        "coordinates": [
          -43.1745966,
          -22.9280957
        ]
      }
    },
    {
      "type": "Feature",
      "id": "node/2093261952",
      "properties": {
        "@id": "node/2093261952",
        "name": "Ciclovias Cariocas",
        "shop": "bicycle"
      },
      "geometry": {
        "type": "Point",
        "coordinates": [
          -43.1806334,
          -22.9484576
        ]
      }
    },
    {
      "type": "Feature",
      "id": "node/2093285905",
      "properties": {
        "@id": "node/2093285905",
        "addr:housenumber": "S/N - Box 44",
        "addr:street": "Rua Nelson Mandela",
        "name": "SOS Bike",
        "phone": "+55-21-22265093",
        "shop": "bicycle",
        "source": "survey"
      },
      "geometry": {
        "type": "Point",
        "coordinates": [
          -43.1840261,
          -22.9500828
        ]
      }
    },
    {
      "type": "Feature",
      "id": "node/2098619319",
      "properties": {
        "@id": "node/2098619319",
        "addr:housenumber": "170",
        "addr:street": "Rua Tiradentes",
        "name": "Elias Guerra",
        "phone": "+55-21-3021-3985",
        "phone:2": "+55-21-8180-5093",
        "shop": "bicycle"
      },
      "geometry": {
        "type": "Point",
        "coordinates": [
          -43.1232051,
          -22.9015423
        ]
      }
    },
    {
      "type": "Feature",
      "id": "node/2098660421",
      "properties": {
        "@id": "node/2098660421",
        "addr:housenumber": "7",
        "addr:postcode": "24324270",
        "addr:street": "Rua Dezessete",
        "name": "Facebike",
        "phone": "+55-21-95147285",
        "shop": "bicycle"
      },
      "geometry": {
        "type": "Point",
        "coordinates": [
          -43.0228101,
          -22.9403033
        ]
      }
    },
    {
      "type": "Feature",
      "id": "node/2098718835",
      "properties": {
        "@id": "node/2098718835",
        "addr:housenumber": "359 loja A",
        "addr:street": "Rua São Clemente",
        "name": "Bike Virtual",
        "phone": "+55-21-2667-3611",
        "shop": "bicycle",
        "website": "www.bikevirtual.com.br"
      },
      "geometry": {
        "type": "Point",
        "coordinates": [
          -43.1942637,
          -22.9513517
        ]
      }
    },
    {
      "type": "Feature",
      "id": "node/2098740176",
      "properties": {
        "@id": "node/2098740176",
        "addr:housenumber": "333",
        "addr:street": "Rua Riachuelo",
        "name": "Eliel Bike",
        "phone": "+55-21-2221-6088",
        "phone:2": "+55-21-3904-1946",
        "phone:3": "+55-21-7682-9015",
        "shop": "bicycle",
        "website": "www.elielbike.com.br"
      },
      "geometry": {
        "type": "Point",
        "coordinates": [
          -43.1912682,
          -22.9132215
        ]
      }
    },
    {
      "type": "Feature",
      "id": "node/2098757695",
      "properties": {
        "@id": "node/2098757695",
        "addr:housenumber": "71",
        "addr:street": "Rua Riachuelo",
        "name": "Bicicletas da Lapa",
        "phone": "+55-21-2224-0428",
        "shop": "bicycle"
      },
      "geometry": {
        "type": "Point",
        "coordinates": [
          -43.1826025,
          -22.9142565
        ]
      }
    },
    {
      "type": "Feature",
      "id": "node/2102071525",
      "properties": {
        "@id": "node/2102071525",
        "addr:housenumber": "18E",
        "addr:street": "Rua Visconde da Graça",
        "name": "Speed Bikes",
        "phone": "+55-21-22949246",
        "shop": "bicycle",
        "source": "survey"
      },
      "geometry": {
        "type": "Point",
        "coordinates": [
          -43.2176662,
          -22.9639313
        ]
      }
    },
    {
      "type": "Feature",
      "id": "node/2107879383",
      "properties": {
        "@id": "node/2107879383",
        "addr:housenumber": "1741",
        "addr:street": "Avenida Brás de Pina",
        "name": "Star Bike",
        "opening_hours": "Mo-Fr 08:00-18:00; Sa 08:00-16:00",
        "phone": "+55-21-3013-9594",
        "phone:2": "+55-21-3013-8155",
        "shop": "bicycle",
        "website": "http://www.starbike.com.br"
      },
      "geometry": {
        "type": "Point",
        "coordinates": [
          -43.3152462,
          -22.8374929
        ]
      }
    },
    {
      "type": "Feature",
      "id": "node/2111111289",
      "properties": {
        "@id": "node/2111111289",
        "addr:housenumber": "3962",
        "addr:postcode": "22611-020",
        "addr:street": "Estrada do Joá",
        "name": "Renato Estrella Bicicletas Simples Ltda",
        "phone": "+55-21-3298-5364",
        "shop": "bicycle",
        "website": "www.renatoestrella.com.br"
      },
      "geometry": {
        "type": "Point",
        "coordinates": [
          -43.2962175,
          -23.0098537
        ]
      }
    },
    {
      "type": "Feature",
      "id": "node/2111114909",
      "properties": {
        "@id": "node/2111114909",
        "shop": "bicycle"
      },
      "geometry": {
        "type": "Point",
        "coordinates": [
          -43.0781518,
          -22.912345
        ]
      }
    },
    {
      "type": "Feature",
      "id": "node/2111253716",
      "properties": {
        "@id": "node/2111253716",
        "addr:housenumber": "30",
        "addr:street": "Rua Rocha Pombo",
        "name": "Mini Bike",
        "phone": "+55 21 2258-9177;+55 21 8185-8715",
        "shop": "bicycle"
      },
      "geometry": {
        "type": "Point",
        "coordinates": [
          -43.2432552,
          -22.9252945
        ]
      }
    },
    {
      "type": "Feature",
      "id": "node/2111266737",
      "properties": {
        "@id": "node/2111266737",
        "name": "Saulo Biker",
        "note": "Avenida Ewerton da Costa Xavier esquina com Estrada Jean Vallenteau Moulliac, próximo a Rodovia Amaral Peixoto",
        "phone:2": "+55-21-3701-2846",
        "shop": "bicycle"
      },
      "geometry": {
        "type": "Point",
        "coordinates": [
          -42.985608,
          -22.9107379
        ]
      }
    },
    {
      "type": "Feature",
      "id": "node/2111549854",
      "properties": {
        "@id": "node/2111549854",
        "name": "Lando Bike",
        "shop": "bicycle"
      },
      "geometry": {
        "type": "Point",
        "coordinates": [
          -38.9571658,
          -12.2846883
        ]
      }
    },
    {
      "type": "Feature",
      "id": "node/2115080943",
      "properties": {
        "@id": "node/2115080943",
        "addr:housenumber": "201",
        "addr:postcode": "20510-400",
        "addr:street": "Rua Guaxupé",
        "name": "Road Cycle",
        "phone": "+552125714972",
        "shop": "bicycle",
        "source": "survey"
      },
      "geometry": {
        "type": "Point",
        "coordinates": [
          -43.2412063,
          -22.9319346
        ]
      }
    },
    {
      "type": "Feature",
      "id": "node/2121219930",
      "properties": {
        "@id": "node/2121219930",
        "name": "Casa das Bicicletas",
        "service:bicycle:cleaning": "yes",
        "service:bicycle:repair": "yes",
        "service:bicycle:second_hand": "yes",
        "shop": "bicycle"
      },
      "geometry": {
        "type": "Point",
        "coordinates": [
          -50.9835029,
          -25.2090114
        ]
      }
    },
    {
      "type": "Feature",
      "id": "node/2166856633",
      "properties": {
        "@id": "node/2166856633",
        "name": "Oficina do seu Raimundo",
        "shop": "bicycle"
      },
      "geometry": {
        "type": "Point",
        "coordinates": [
          -34.9328058,
          -8.0706786
        ]
      }
    },
    {
      "type": "Feature",
      "id": "node/2168287721",
      "properties": {
        "@id": "node/2168287721",
        "addr:housenumber": "1090",
        "addr:postcode": "90510-003",
        "addr:street": "Avenida 24 de Outubro",
        "email": "biketech@biketech-rs.com.br",
        "name": "BikeTech",
        "opening_hours": "Mo-Fr 09:30-19:00; Sa 09:00-17:00",
        "phone": "+55 51 33467533",
        "service:bicycle:cleaning": "yes",
        "service:bicycle:repair": "yes",
        "service:bicycle:retail": "yes",
        "shop": "bicycle",
        "start_date": "1991",
        "website": "http://www.biketech-rs.com.br"
      },
      "geometry": {
        "type": "Point",
        "coordinates": [
          -51.1977209,
          -30.023312
        ]
      }
    },
    {
      "type": "Feature",
      "id": "node/2168287728",
      "properties": {
        "@id": "node/2168287728",
        "addr:housenumber": "390",
        "addr:postcode": "90550-142",
        "addr:street": "Rua Dom Pedro II",
        "email": "atendimento@espacodociclista.com.br",
        "name": "Espaço do Ciclista",
        "opening_hours": "Mo-Fr 09:00-18:30; Sa 09:00-16:00",
        "phone": "+55 51 30845545",
        "service:bicycle:retail": "yes",
        "shop": "bicycle",
        "start_date": "2010",
        "website": "http://www.espacodociclista.com.br",
        "wheelchair": "yes"
      },
      "geometry": {
        "type": "Point",
        "coordinates": [
          -51.1888287,
          -30.0103367
        ]
      }
    },
    {
      "type": "Feature",
      "id": "node/2168882747",
      "properties": {
        "@id": "node/2168882747",
        "addr:housename": "Loja 7",
        "addr:housenumber": "2727",
        "addr:postcode": "90160-091",
        "addr:street": "Avenida Ipiranga",
        "name": "Adventure Bike Shop",
        "opening_hours": "Mo-Fr 09:00-12:00,13:30-18:30; Sa 09:00-18:00",
        "phone": "+55 51 32196245",
        "service:bicycle:repair": "yes",
        "service:bicycle:retail": "yes",
        "shop": "bicycle",
        "start_date": "2010",
        "website": "http://www.adventurebike.com.br",
        "wheelchair": "yes"
      },
      "geometry": {
        "type": "Point",
        "coordinates": [
          -51.205731,
          -30.043786
        ]
      }
    },
    {
      "type": "Feature",
      "id": "node/2168882748",
      "properties": {
        "@id": "node/2168882748",
        "addr:housenumber": "331",
        "addr:postcode": "91430-000",
        "addr:street": "Avenida Antônio de Carvalho",
        "name": "Adventure Bike Shop",
        "phone": "+55 51 33345593",
        "service:bicycle:repair": "yes",
        "shop": "bicycle",
        "website": "http://www.adventurebike.com.br"
      },
      "geometry": {
        "type": "Point",
        "coordinates": [
          -51.1496052,
          -30.0634861
        ]
      }
    },
    {
      "type": "Feature",
      "id": "node/2168882749",
      "properties": {
        "@id": "node/2168882749",
        "addr:housenumber": "125",
        "addr:postcode": "91050-340",
        "addr:street": "Avenida Quito",
        "name": "Bicicletas Lindóia",
        "opening_hours": "Mo-Sa 09:00-20:00",
        "phone": "+55 51 33446546",
        "service:bicycle:repair": "yes",
        "shop": "bicycle",
        "wheelchair": "yes"
      },
      "geometry": {
        "type": "Point",
        "coordinates": [
          -51.1519196,
          -30.0047224
        ]
      }
    },
    {
      "type": "Feature",
      "id": "node/2168882750",
      "properties": {
        "@id": "node/2168882750",
        "addr:housenumber": "2665",
        "addr:postcode": "90640-003",
        "addr:street": "Rua Vicente da Fontoura",
        "name": "Bike Point",
        "phone": "+55 51 33308984",
        "shop": "bicycle"
      },
      "geometry": {
        "type": "Point",
        "coordinates": [
          -51.1957262,
          -30.0386625
        ]
      }
    },
    {
      "type": "Feature",
      "id": "node/2168882751",
      "properties": {
        "@id": "node/2168882751",
        "addr:housenumber": "1798",
        "addr:postcode": "91900-000",
        "addr:street": "Avenida Wenceslau Escobar",
        "name": "Boutique Moto e Bike",
        "opening_hours": "Mo-Fr 08:00-18:30; Sa 08:00-13:30",
        "phone": "+55 51 32688458",
        "service:bicycle:repair": "yes",
        "service:motorcycle:parts": "yes",
        "service:motorcycle:repair": "yes",
        "shop": "bicycle",
        "wheelchair": "yes"
      },
      "geometry": {
        "type": "Point",
        "coordinates": [
          -51.253148,
          -30.104441
        ]
      }
    },
    {
      "type": "Feature",
      "id": "node/2168882752",
      "properties": {
        "@id": "node/2168882752",
        "addr:housename": "Loja 10",
        "addr:housenumber": "7191",
        "addr:postcode": "91310-001",
        "addr:street": "Avenida Protásio Alves",
        "alt_name": "Companhia do Ciclista Filial",
        "fixme": "Onde fica isto exatamente?",
        "name": "Cia do Ciclista Filial",
        "phone": "+55 51 39070920",
        "service:bicycle:repair": "yes",
        "service:bicycle:retail": "yes",
        "shop": "bicycle",
        "website": "http://www.ciadociclista.com.br"
      },
      "geometry": {
        "type": "Point",
        "coordinates": [
          -51.141568,
          -30.0445609
        ]
      }
    },
    {
      "type": "Feature",
      "id": "node/2168882753",
      "properties": {
        "@id": "node/2168882753",
        "addr:housename": "Loja 30",
        "addr:housenumber": "2247",
        "addr:postcode": "91900-000",
        "addr:street": "Avenida Wenceslau Escobar",
        "email": "dudubiketeam@hotmail.com",
        "name": "Dudu Bike Team",
        "opening_hours": "Mo-Fr 08:00-12:00,14:00-18:30",
        "phone": "+55 51 32692369",
        "service:bicycle:repair": "yes",
        "service:bicycle:retail": "yes",
        "service:bicycle:second_hand": "yes",
        "shop": "bicycle",
        "website": "http://www.dudubike.com.br"
      },
      "geometry": {
        "type": "Point",
        "coordinates": [
          -51.2543285,
          -30.1082778
        ]
      }
    },
    {
      "type": "Feature",
      "id": "node/2171611647",
      "properties": {
        "@id": "node/2171611647",
        "addr:housenumber": "990",
        "addr:postcode": "90880-001",
        "addr:street": "Avenida Doutor Carlos Barbosa",
        "name": "LB Bike",
        "opening_hours": "Mo-Fr 08:00-12:00,13:00-18:30; Sa 08:00-13:00",
        "phone": "+55 51 32197325",
        "service:bicycle:repair": "yes",
        "shop": "bicycle"
      },
      "geometry": {
        "type": "Point",
        "coordinates": [
          -51.2120037,
          -30.0642035
        ]
      }
    },
    {
      "type": "Feature",
      "id": "node/2171611659",
      "properties": {
        "@id": "node/2171611659",
        "addr:housename": "Loja 3",
        "addr:housenumber": "95",
        "addr:postcode": "91010-000",
        "addr:street": "Avenida Assis Brasil",
        "name": "M. Bike Loja 1",
        "opening_hours": "Mo-Fr 09:00-18:30; Sa 09:00-16:00",
        "phone": "+55 51 33422237",
        "service:bicycle:repair": "yes",
        "service:bicycle:retail": "yes",
        "shop": "bicycle",
        "website": "http://www.mbike.com.br"
      },
      "geometry": {
        "type": "Point",
        "coordinates": [
          -51.1848339,
          -30.0081276
        ]
      }
    },
    {
      "type": "Feature",
      "id": "node/2171611673",
      "properties": {
        "@id": "node/2171611673",
        "addr:housenumber": "1645",
        "addr:postcode": "90550-002",
        "addr:street": "Avenida Benjamin Constant",
        "name": "M. Bike Loja 2",
        "opening_hours": "Mo-Fr 09:00-18:30; Sa 09:00-16:00",
        "phone": "+55 51 33256904",
        "service:bicycle:repair": "yes",
        "service:bicycle:retail": "yes",
        "shop": "bicycle",
        "website": "http://www.mbike.com.br"
      },
      "geometry": {
        "type": "Point",
        "coordinates": [
          -51.1964813,
          -30.0155556
        ]
      }
    },
    {
      "type": "Feature",
      "id": "node/2171611683",
      "properties": {
        "@id": "node/2171611683",
        "addr:housename": "Loja 113",
        "addr:housenumber": "1445",
        "addr:postcode": "90160-091",
        "addr:street": "Avenida Ipiranga",
        "name": "M. Bike Loja 4",
        "opening_hours": "Mo-Fr 09:00-18:30; Sa 09:00-16:00",
        "phone": "+55 51 30127211",
        "service:bicycle:repair": "yes",
        "service:bicycle:retail": "yes",
        "shop": "bicycle",
        "website": "http://www.mbike.com.br"
      },
      "geometry": {
        "type": "Point",
        "coordinates": [
          -51.2148249,
          -30.048076
        ]
      }
    },
    {
      "type": "Feature",
      "id": "node/2171733305",
      "properties": {
        "@id": "node/2171733305",
        "addr:housenumber": "3000",
        "addr:postcode": "91740-000",
        "addr:street": "Avenida da Cavalhada",
        "name": "Macedo Bike",
        "phone": "+55 51 32764775",
        "service:bicycle:repair": "yes",
        "service:bicycle:retail": "yes",
        "shop": "bicycle",
        "start_date": "1937",
        "website": "http://www.macedobike.blogspot.com.br"
      },
      "geometry": {
        "type": "Point",
        "coordinates": [
          -51.2306684,
          -30.1025846
        ]
      }
    },
    {
      "type": "Feature",
      "id": "node/2171733311",
      "properties": {
        "@id": "node/2171733311",
        "addr:housenumber": "99",
        "addr:postcode": "90620-001",
        "addr:street": "Avenida Princesa Isabel",
        "name": "Paladini Bicicletas",
        "opening_hours": "Mo-Fr 09:00-18:30; Sa 09:00-17:00",
        "phone": "+55 51 30193773",
        "service:bicycle:repair": "yes",
        "service:bicycle:retail": "yes",
        "shop": "bicycle"
      },
      "geometry": {
        "type": "Point",
        "coordinates": [
          -51.2117842,
          -30.0506337
        ]
      }
    },
    {
      "type": "Feature",
      "id": "node/2171733318",
      "properties": {
        "@id": "node/2171733318",
        "addr:housenumber": "26",
        "addr:postcode": "90050-210",
        "addr:street": "Travessa do Carmo",
        "email": "sunsetbikes@hotmail.com",
        "name": "Sunset Bikes",
        "opening_hours": "Mo-Fr 09:00-18:30; Sa 09:00-16:00",
        "phone": "+55 51 33721244",
        "service:bicycle:repair": "yes",
        "service:bicycle:retail": "yes",
        "shop": "bicycle",
        "website": "http://www.sunsetbikes.com.br"
      },
      "geometry": {
        "type": "Point",
        "coordinates": [
          -51.2256337,
          -30.0379955
        ]
      }
    },
    {
      "type": "Feature",
      "id": "node/2175095354",
      "properties": {
        "@id": "node/2175095354",
        "addr:housenumber": "868",
        "addr:street": "Rua dos Inconfidentes",
        "name": "Global Bicicletas",
        "shop": "bicycle",
        "website": "www.globalbicicletas.com.br"
      },
      "geometry": {
        "type": "Point",
        "coordinates": [
          -43.9340522,
          -19.9357551
        ]
      }
    },
    {
      "type": "Feature",
      "id": "node/2178760338",
      "properties": {
        "@id": "node/2178760338",
        "addr:city": "Sao Paulo",
        "addr:housenumber": "1344",
        "addr:postcode": "05417-002",
        "addr:street": "Rua Mourato Coelho",
        "amenity": "bar",
        "name": "Bar e Bicicletaria Las Magrelas",
        "opening_hours": "Tu-Su 10:00-22:00",
        "payment:bitcoin": "yes",
        "phone": "(11) 3938-7366",
        "service:bicycle:diy": "yes",
        "shop": "bicycle",
        "website": "http://lasmagrelas.com.br/",
        "yelp": "http://www.yelp.com/biz/las-magrelas-s%C3%A3o-paulo#query:bar%20e%20bicicletaria"
      },
      "geometry": {
        "type": "Point",
        "coordinates": [
          -46.6922432,
          -23.5565056
        ]
      }
    },
    {
      "type": "Feature",
      "id": "node/2191554603",
      "properties": {
        "@id": "node/2191554603",
        "addr:housenumber": "39",
        "addr:street": "General Polidoro",
        "name": "LEV",
        "shop": "bicycle",
        "telephone": "+55-21-3596-8820",
        "website": "http://www.golev.com.br/LEV/"
      },
      "geometry": {
        "type": "Point",
        "coordinates": [
          -43.1832355,
          -22.9527867
        ]
      }
    },
    {
      "type": "Feature",
      "id": "node/2222862479",
      "properties": {
        "@id": "node/2222862479",
        "addr:housenumber": "167A",
        "addr:street": "Estrada do Colégio",
        "opening_hours": "Mo-Fr 09:00-16:30",
        "shop": "bicycle",
        "source": "survey"
      },
      "geometry": {
        "type": "Point",
        "coordinates": [
          -43.3336691,
          -22.8388964
        ]
      }
    },
    {
      "type": "Feature",
      "id": "node/2235142489",
      "properties": {
        "@id": "node/2235142489",
        "name": "Bike",
        "shop": "bicycle"
      },
      "geometry": {
        "type": "Point",
        "coordinates": [
          -46.4006507,
          -23.6005436
        ]
      }
    },
    {
      "type": "Feature",
      "id": "node/2242729146",
      "properties": {
        "@id": "node/2242729146",
        "shop": "bicycle"
      },
      "geometry": {
        "type": "Point",
        "coordinates": [
          -56.0580956,
          -15.6083632
        ]
      }
    },
    {
      "type": "Feature",
      "id": "node/2252951234",
      "properties": {
        "@id": "node/2252951234",
        "shop": "bicycle"
      },
      "geometry": {
        "type": "Point",
        "coordinates": [
          -47.8510752,
          -15.7918197
        ]
      }
    },
    {
      "type": "Feature",
      "id": "node/2260296695",
      "properties": {
        "@id": "node/2260296695",
        "name": "Sport Bike",
        "service:bicycle:repair": "yes",
        "service:bicycle:retail": "yes",
        "shop": "bicycle"
      },
      "geometry": {
        "type": "Point",
        "coordinates": [
          -40.2454736,
          -15.2437257
        ]
      }
    },
    {
      "type": "Feature",
      "id": "node/2266842958",
      "properties": {
        "@id": "node/2266842958",
        "addr:housenumber": "415",
        "addr:street": "Rua 25 de Julho",
        "name": "Pedalokos",
        "shop": "bicycle",
        "website": "www.pedalokos.com.br"
      },
      "geometry": {
        "type": "Point",
        "coordinates": [
          -51.1541466,
          -29.7737535
        ]
      }
    },
    {
      "type": "Feature",
      "id": "node/2266844173",
      "properties": {
        "@id": "node/2266844173",
        "name": "Pedalshop",
        "shop": "bicycle"
      },
      "geometry": {
        "type": "Point",
        "coordinates": [
          -51.1463977,
          -29.7659959
        ]
      }
    },
    {
      "type": "Feature",
      "id": "node/2266846384",
      "properties": {
        "@id": "node/2266846384",
        "name": "Fernando Bikes",
        "shop": "bicycle"
      },
      "geometry": {
        "type": "Point",
        "coordinates": [
          -51.1023585,
          -29.7550196
        ]
      }
    },
    {
      "type": "Feature",
      "id": "node/2284512966",
      "properties": {
        "@id": "node/2284512966",
        "name": "Cicle",
        "shop": "bicycle"
      },
      "geometry": {
        "type": "Point",
        "coordinates": [
          -42.9998613,
          -22.8527625
        ]
      }
    },
    {
      "type": "Feature",
      "id": "node/2288348038",
      "properties": {
        "@id": "node/2288348038",
        "name": "Aires Bicicletaria",
        "shop": "bicycle"
      },
      "geometry": {
        "type": "Point",
        "coordinates": [
          -46.6870411,
          -23.7387577
        ]
      }
    },
    {
      "type": "Feature",
      "id": "node/2296585941",
      "properties": {
        "@id": "node/2296585941",
        "addr:housenumber": "1361",
        "addr:street": "Avenida Silva Lobo",
        "name": "Território Aventura",
        "service:bicycle:repair": "yes",
        "service:bicycle:retail": "yes",
        "shop": "bicycle",
        "source": "Bing;survey"
      },
      "geometry": {
        "type": "Point",
        "coordinates": [
          -43.9703656,
          -19.9358256
        ]
      }
    },
    {
      "type": "Feature",
      "id": "node/2297719551",
      "properties": {
        "@id": "node/2297719551",
        "addr:housenumber": "592",
        "name": "Global Bicicletas",
        "service:bicycle:retail": "yes",
        "shop": "bicycle",
        "source": "Bing"
      },
      "geometry": {
        "type": "Point",
        "coordinates": [
          -43.9419958,
          -19.9194458
        ]
      }
    },
    {
      "type": "Feature",
      "id": "node/2302028049",
      "properties": {
        "@id": "node/2302028049",
        "addr:housenumber": "160 Loja A",
        "addr:street": "Rua Heitor Carrilho",
        "name": "Radical Bike",
        "shop": "bicycle"
      },
      "geometry": {
        "type": "Point",
        "coordinates": [
          -43.1995782,
          -22.9137846
        ]
      }
    },
    {
      "type": "Feature",
      "id": "node/2306405887",
      "properties": {
        "@id": "node/2306405887",
        "name": "Bicicletaria Duas Rodas",
        "shop": "bicycle"
      },
      "geometry": {
        "type": "Point",
        "coordinates": [
          -45.7772671,
          -22.3561316
        ]
      }
    },
    {
      "type": "Feature",
      "id": "node/2310148933",
      "properties": {
        "@id": "node/2310148933",
        "addr:housenumber": "14",
        "addr:postcode": "30330-050",
        "addr:street": "Rua Major Lopes",
        "name": "CicloGiro",
        "opening_hours": "Mo-Fr 08:30-20:00; Sa 08:30-18:00",
        "shop": "bicycle",
        "source": "survey",
        "website": "http://www.ciclogiro.com.br/"
      },
      "geometry": {
        "type": "Point",
        "coordinates": [
          -43.9375685,
          -19.9414927
        ]
      }
    },
    {
      "type": "Feature",
      "id": "node/2318497671",
      "properties": {
        "@id": "node/2318497671",
        "name": "BikeTech",
        "shop": "bicycle",
        "source": "survey"
      },
      "geometry": {
        "type": "Point",
        "coordinates": [
          -43.2237245,
          -22.9826926
        ]
      }
    },
    {
      "type": "Feature",
      "id": "node/2322537087",
      "properties": {
        "@id": "node/2322537087",
        "shop": "bicycle",
        "source": "survey"
      },
      "geometry": {
        "type": "Point",
        "coordinates": [
          -43.1961276,
          -22.956894
        ]
      }
    },
    {
      "type": "Feature",
      "id": "node/2327588639",
      "properties": {
        "@id": "node/2327588639",
        "addr:city": "São Paulo",
        "addr:housenumber": "49",
        "addr:postcode": "04552-010",
        "addr:street": "Travessa Doutor José Alves de Souza Neto",
        "alt_name": "Ciclo Vila",
        "internet_access": "yes",
        "name": "Ciclo Urbano",
        "opening_hours": "Tu-Fr 11:00-19:00;Sa-Su 10:00-17:00",
        "phone": "+55 11 3476-9919",
        "repair": "yes",
        "service:bicycle:repair": "yes",
        "shop": "bicycle",
        "website": "http://www.ciclourbano.com.br/"
      },
      "geometry": {
        "type": "Point",
        "coordinates": [
          -46.685882,
          -23.5944122
        ]
      }
    },
    {
      "type": "Feature",
      "id": "node/2356511301",
      "properties": {
        "@id": "node/2356511301",
        "addr:housenumber": "60",
        "addr:street": "Rua Senador Câmara",
        "name": "Marrafa's Bike Sport",
        "opening_hours": "Mo-Fr 08:00-18:30; Sa 08:00-14:00",
        "phone": "+55-21-33175841",
        "shop": "bicycle",
        "source": "survey"
      },
      "geometry": {
        "type": "Point",
        "coordinates": [
          -43.6854089,
          -22.9147505
        ]
      }
    },
    {
      "type": "Feature",
      "id": "node/2356515681",
      "properties": {
        "@id": "node/2356515681",
        "addr:housenumber": "37",
        "addr:street": "Avenida Isabel",
        "name": "Bike & Cia.",
        "opening_hours": "Mo-Fr 08:00-19:00; Sa 08:00-15:00",
        "phone": "+55-21-33950268",
        "shop": "bicycle",
        "source": "survey"
      },
      "geometry": {
        "type": "Point",
        "coordinates": [
          -43.6820451,
          -22.9201425
        ]
      }
    },
    {
      "type": "Feature",
      "id": "node/2356787344",
      "properties": {
        "@id": "node/2356787344",
        "addr:housenumber": "408",
        "addr:street": "Rua Capitão Rezende",
        "phone": "+55-21-25016417",
        "shop": "bicycle",
        "source": "survey"
      },
      "geometry": {
        "type": "Point",
        "coordinates": [
          -43.2725506,
          -22.8963386
        ]
      }
    },
    {
      "type": "Feature",
      "id": "node/2356787663",
      "properties": {
        "@id": "node/2356787663",
        "addr:housenumber": "151",
        "addr:street": "Rua Vinte e Quatro de Maio",
        "name": "Junior Bicicletas",
        "phone": "+55-21-78798697; +55-21-86807732",
        "shop": "bicycle",
        "source": "survey"
      },
      "geometry": {
        "type": "Point",
        "coordinates": [
          -43.2490273,
          -22.9013596
        ]
      }
    },
    {
      "type": "Feature",
      "id": "node/2356799729",
      "properties": {
        "@id": "node/2356799729",
        "addr:street": "Rua Petrocochino",
        "name": "Aline Vila Bike",
        "phone": "+55-21-22588066",
        "shop": "bicycle",
        "source": "survey"
      },
      "geometry": {
        "type": "Point",
        "coordinates": [
          -43.2541988,
          -22.9162327
        ]
      }
    },
    {
      "type": "Feature",
      "id": "node/2379122551",
      "properties": {
        "@id": "node/2379122551",
        "shop": "bicycle"
      },
      "geometry": {
        "type": "Point",
        "coordinates": [
          -43.0211223,
          -22.9339953
        ]
      }
    },
    {
      "type": "Feature",
      "id": "node/2384504584",
      "properties": {
        "@id": "node/2384504584",
        "addr:city": "Rio de Janeiro",
        "addr:housenumber": "35",
        "addr:street": "Rua Barão de São Félix",
        "name": "Theo Bike",
        "phone": "+55-21-22030642",
        "shop": "bicycle",
        "source": "survey"
      },
      "geometry": {
        "type": "Point",
        "coordinates": [
          -43.1885461,
          -22.8993832
        ]
      }
    },
    {
      "type": "Feature",
      "id": "node/2385461815",
      "properties": {
        "@id": "node/2385461815",
        "addr:housenumber": "386",
        "addr:street": "Estrada Coronel Vieira",
        "name": "Bike Eli & Leo",
        "phone": "+55-21-33516347",
        "shop": "bicycle",
        "source": "survey"
      },
      "geometry": {
        "type": "Point",
        "coordinates": [
          -43.319605,
          -22.8475419
        ]
      }
    },
    {
      "type": "Feature",
      "id": "node/2392177379",
      "properties": {
        "@id": "node/2392177379",
        "shop": "bicycle"
      },
      "geometry": {
        "type": "Point",
        "coordinates": [
          -38.9535424,
          -12.2286232
        ]
      }
    },
    {
      "type": "Feature",
      "id": "node/2399644693",
      "properties": {
        "@id": "node/2399644693",
        "name": "Bike Claudia",
        "shop": "bicycle"
      },
      "geometry": {
        "type": "Point",
        "coordinates": [
          -51.453307,
          -22.1563271
        ]
      }
    },
    {
      "type": "Feature",
      "id": "node/2406353549",
      "properties": {
        "@id": "node/2406353549",
        "name": "Van Bike",
        "service:bicycle:repair": "yes",
        "service:bicycle:retail": "no",
        "shop": "bicycle"
      },
      "geometry": {
        "type": "Point",
        "coordinates": [
          -38.9450739,
          -12.240702
        ]
      }
    },
    {
      "type": "Feature",
      "id": "node/2414047280",
      "properties": {
        "@id": "node/2414047280",
        "name": "TriCiclo - Casa Nuvem - Ciclo Courier",
        "shop": "bicycle",
        "source": "survey"
      },
      "geometry": {
        "type": "Point",
        "coordinates": [
          -43.1770883,
          -22.9154717
        ]
      }
    },
    {
      "type": "Feature",
      "id": "node/2427991193",
      "properties": {
        "@id": "node/2427991193",
        "shop": "bicycle"
      },
      "geometry": {
        "type": "Point",
        "coordinates": [
          -46.7353705,
          -23.4498436
        ]
      }
    },
    {
      "type": "Feature",
      "id": "node/2430147408",
      "properties": {
        "@id": "node/2430147408",
        "name": "Bike Mania",
        "shop": "bicycle"
      },
      "geometry": {
        "type": "Point",
        "coordinates": [
          -47.9844869,
          -15.8320398
        ]
      }
    },
    {
      "type": "Feature",
      "id": "node/2430528585",
      "properties": {
        "@id": "node/2430528585",
        "addr:city": "Rio de Janeiro",
        "addr:housenumber": "160",
        "addr:street": "Rua General Belegarde",
        "name": "Pedivela Bikes",
        "opening_hours": "Mo 13:00-19:00; Tu-Fr 08:00-18:00; Sa 08:00-17:00",
        "phone": "+55-21-30454699",
        "shop": "bicycle",
        "source": "survey",
        "website": "http://www.pedivelabikes.com.br/"
      },
      "geometry": {
        "type": "Point",
        "coordinates": [
          -43.2725019,
          -22.9082606
        ]
      }
    },
    {
      "type": "Feature",
      "id": "node/2430615262",
      "properties": {
        "@id": "node/2430615262",
        "addr:city": "Rio de Janeiro",
        "addr:housename": "Loja B",
        "addr:housenumber": "9",
        "addr:street": "Rua Minduri",
        "name": "CL Bike",
        "phone": "+55-21-32418162",
        "shop": "bicycle",
        "source": "survey"
      },
      "geometry": {
        "type": "Point",
        "coordinates": [
          -43.3026708,
          -22.8347649
        ]
      }
    },
    {
      "type": "Feature",
      "id": "node/2439413057",
      "properties": {
        "@id": "node/2439413057",
        "addr:housename": "Loja B",
        "addr:housenumber": "264",
        "addr:street": "Rua Siqueira Campos",
        "name": "Bike Zen",
        "phone": "+55-21-22366557",
        "shop": "bicycle",
        "source": "survey"
      },
      "geometry": {
        "type": "Point",
        "coordinates": [
          -43.1907034,
          -22.9639797
        ]
      }
    },
    {
      "type": "Feature",
      "id": "node/2443659853",
      "properties": {
        "@id": "node/2443659853",
        "name": "Real Bike",
        "shop": "bicycle"
      },
      "geometry": {
        "type": "Point",
        "coordinates": [
          -44.2932091,
          -22.4163374
        ]
      }
    },
    {
      "type": "Feature",
      "id": "node/2459512929",
      "properties": {
        "@id": "node/2459512929",
        "shop": "bicycle"
      },
      "geometry": {
        "type": "Point",
        "coordinates": [
          -39.1006088,
          -12.6631452
        ]
      }
    },
    {
      "type": "Feature",
      "id": "node/2464677910",
      "properties": {
        "@id": "node/2464677910",
        "name": "Dream Bike",
        "shop": "bicycle"
      },
      "geometry": {
        "type": "Point",
        "coordinates": [
          -44.298034,
          -22.412167
        ]
      }
    },
    {
      "type": "Feature",
      "id": "node/2472286626",
      "properties": {
        "@id": "node/2472286626",
        "addr:city": "Porto Real",
        "addr:postcode": "27570-000",
        "addr:street": "Avenida C",
        "name": "Marcinho Bike",
        "operator": "Private",
        "phone": "24 99777896",
        "shop": "bicycle",
        "source": "Local"
      },
      "geometry": {
        "type": "Point",
        "coordinates": [
          -44.293652,
          -22.420276
        ]
      }
    },
    {
      "type": "Feature",
      "id": "node/2482178337",
      "properties": {
        "@id": "node/2482178337",
        "name": "Bicicletaria Porto Real",
        "shop": "bicycle",
        "source": "Local"
      },
      "geometry": {
        "type": "Point",
        "coordinates": [
          -44.285252,
          -22.423947
        ]
      }
    },
    {
      "type": "Feature",
      "id": "node/2482210442",
      "properties": {
        "@id": "node/2482210442",
        "name": "Cris Bike",
        "phone": "24 33534616",
        "shop": "bicycle",
        "source": "Local"
      },
      "geometry": {
        "type": "Point",
        "coordinates": [
          -44.308581,
          -22.446922
        ]
      }
    },
    {
      "type": "Feature",
      "id": "node/2494933573",
      "properties": {
        "@id": "node/2494933573",
        "shop": "bicycle"
      },
      "geometry": {
        "type": "Point",
        "coordinates": [
          -47.7549203,
          -20.732004
        ]
      }
    },
    {
      "type": "Feature",
      "id": "node/2495749610",
      "properties": {
        "@id": "node/2495749610",
        "addr:street": "Estrada Velha de Maricá",
        "shop": "bicycle"
      },
      "geometry": {
        "type": "Point",
        "coordinates": [
          -42.9888113,
          -22.8910377
        ]
      }
    },
    {
      "type": "Feature",
      "id": "node/2498771331",
      "properties": {
        "@id": "node/2498771331",
        "addr:city": "Belo Horizonte",
        "addr:housenumber": "41",
        "addr:street": "Rua Piaui",
        "name": "Viana",
        "shop": "bicycle"
      },
      "geometry": {
        "type": "Point",
        "coordinates": [
          -43.9995139,
          -19.8686596
        ]
      }
    },
    {
      "type": "Feature",
      "id": "node/2498790700",
      "properties": {
        "@id": "node/2498790700",
        "addr:housename": "Avenida do Rio Pequeno",
        "name": "Bicicletaria do Gomes",
        "opening_hours": "Mo-Fr 09:00-18:00",
        "shop": "bicycle"
      },
      "geometry": {
        "type": "Point",
        "coordinates": [
          -46.7482088,
          -23.5631767
        ]
      }
    },
    {
      "type": "Feature",
      "id": "node/2498798625",
      "properties": {
        "@id": "node/2498798625",
        "addr:housename": "Érico Veríssimo",
        "name": "Bicicletaria do João",
        "shop": "bicycle"
      },
      "geometry": {
        "type": "Point",
        "coordinates": [
          -46.7806359,
          -23.5873956
        ]
      }
    },
    {
      "type": "Feature",
      "id": "node/2524487694",
      "properties": {
        "@id": "node/2524487694",
        "addr:city": "Rio de Janeiro",
        "addr:housenumber": "299 Loja E",
        "addr:street": "Avenida Paulo de Frontin",
        "name": "Bicicletaria AVC",
        "phone": "+55-21-22935143",
        "shop": "bicycle",
        "source": "survey"
      },
      "geometry": {
        "type": "Point",
        "coordinates": [
          -43.209731,
          -22.918981
        ]
      }
    },
    {
      "type": "Feature",
      "id": "node/2524492403",
      "properties": {
        "@id": "node/2524492403",
        "addr:city": "Niterói",
        "addr:housenumber": "51 Loja 101",
        "addr:street": "Estrada Washington Luiz",
        "name": "Bretas Bike",
        "phone": "+55-21-26168374",
        "shop": "bicycle",
        "source": "survey"
      },
      "geometry": {
        "type": "Point",
        "coordinates": [
          -43.0662339,
          -22.9062065
        ]
      }
    },
    {
      "type": "Feature",
      "id": "node/2524494792",
      "properties": {
        "@id": "node/2524494792",
        "addr:city": "São Gonçalo",
        "addr:housenumber": "2657",
        "addr:street": "Avenida Edson",
        "name": "Gloria Cicle",
        "phone": "+55-21-27243723",
        "shop": "bicycle",
        "source": "survey"
      },
      "geometry": {
        "type": "Point",
        "coordinates": [
          -43.0489294,
          -22.8333238
        ]
      }
    },
    {
      "type": "Feature",
      "id": "node/2524502385",
      "properties": {
        "@id": "node/2524502385",
        "addr:city": "São Gonçalo",
        "addr:housenumber": "9 / loja 5",
        "addr:street": "Estrada de Itaúna",
        "name": "Cicle do Nariz",
        "old_name": "Tecno Bike",
        "phone": "+55 21 37125703",
        "shop": "bicycle",
        "source": "survey"
      },
      "geometry": {
        "type": "Point",
        "coordinates": [
          -43.0302434,
          -22.7919857
        ]
      }
    },
    {
      "type": "Feature",
      "id": "node/2524507508",
      "properties": {
        "@id": "node/2524507508",
        "addr:city": "Rio Bonito",
        "addr:housenumber": "87",
        "addr:street": "Rua Doutor Mattos",
        "name": "Cicle Star Rio Bonito",
        "phone": "+55-21-27341542",
        "shop": "bicycle",
        "source": "survey"
      },
      "geometry": {
        "type": "Point",
        "coordinates": [
          -42.6275792,
          -22.7105388
        ]
      }
    },
    {
      "type": "Feature",
      "id": "node/2524521662",
      "properties": {
        "@id": "node/2524521662",
        "addr:city": "São Gonçalo",
        "addr:housenumber": "84",
        "addr:street": "Rua Lúcio Tomé Feteira",
        "name": "Vila Bike",
        "phone": "+55-21-32481923",
        "shop": "bicycle",
        "source": "survey"
      },
      "geometry": {
        "type": "Point",
        "coordinates": [
          -43.0888245,
          -22.8458532
        ]
      }
    },
    {
      "type": "Feature",
      "id": "node/2524523542",
      "properties": {
        "@id": "node/2524523542",
        "addr:city": "Niterói",
        "addr:housenumber": "423 Loja 1",
        "addr:street": "Rua Noronha Torrezão",
        "name": "Cicle São José",
        "phone": "+55-21-26102997",
        "shop": "bicycle",
        "source": "survey"
      },
      "geometry": {
        "type": "Point",
        "coordinates": [
          -43.0981062,
          -22.8906356
        ]
      }
    },
    {
      "type": "Feature",
      "id": "node/2524532275",
      "properties": {
        "@id": "node/2524532275",
        "addr:city": "Rio de Janeiro",
        "addr:housenumber": "1243 Loja A",
        "addr:street": "Rua Barão do Bom Retiro",
        "name": "Fenix Bike",
        "phone": "+55-21-32777579",
        "shop": "bicycle",
        "source": "survey"
      },
      "geometry": {
        "type": "Point",
        "coordinates": [
          -43.2639869,
          -22.913558
        ]
      }
    },
    {
      "type": "Feature",
      "id": "node/2524536905",
      "properties": {
        "@id": "node/2524536905",
        "addr:city": "Rio de Janeiro",
        "addr:housenumber": "156 Loja A",
        "addr:street": "Rua Aristides Lobo",
        "name": "João Bosco Aparecido",
        "phone": "+55-21-81154468",
        "shop": "bicycle",
        "source": "survey"
      },
      "geometry": {
        "type": "Point",
        "coordinates": [
          -43.2089235,
          -22.9213814
        ]
      }
    },
    {
      "type": "Feature",
      "id": "node/2524545389",
      "properties": {
        "@id": "node/2524545389",
        "addr:city": "Queimados",
        "addr:housenumber": "385",
        "addr:street": "Avenida Doutor Pedro Jorge",
        "name": "Romulo de Oliveira Machado",
        "shop": "bicycle",
        "source": "survey"
      },
      "geometry": {
        "type": "Point",
        "coordinates": [
          -43.5557816,
          -22.7122174
        ]
      }
    },
    {
      "type": "Feature",
      "id": "node/2524559965",
      "properties": {
        "@id": "node/2524559965",
        "addr:city": "Queimados",
        "addr:housenumber": "17",
        "addr:street": "Travessa Marques",
        "name": "Leonaldo Bragante de Araujo Ciclo",
        "phone": "+55-21-26658453",
        "shop": "bicycle",
        "source": "survey"
      },
      "geometry": {
        "type": "Point",
        "coordinates": [
          -43.5589396,
          -22.7154504
        ]
      }
    },
    {
      "type": "Feature",
      "id": "node/2524921311",
      "properties": {
        "@id": "node/2524921311",
        "name": "Marinho Bike",
        "service:bicycle:repair": "yes",
        "service:bicycle:retail": "yes",
        "shop": "bicycle"
      },
      "geometry": {
        "type": "Point",
        "coordinates": [
          -40.2552792,
          -15.2512458
        ]
      }
    },
    {
      "type": "Feature",
      "id": "node/2524921312",
      "properties": {
        "@id": "node/2524921312",
        "name": "Stop Bike peças e serviços",
        "service:bicycle:repair": "yes",
        "shop": "bicycle"
      },
      "geometry": {
        "type": "Point",
        "coordinates": [
          -40.2463149,
          -15.2503176
        ]
      }
    },
    {
      "type": "Feature",
      "id": "node/2542454185",
      "properties": {
        "@id": "node/2542454185",
        "addr:housename": "Loja 02",
        "addr:housenumber": "419",
        "addr:street": "Avenida Alberto Santos",
        "name": "Conexão Bike",
        "phone": "+55 75 36213424",
        "shop": "bicycle",
        "website": "http://conexaobike.com"
      },
      "geometry": {
        "type": "Point",
        "coordinates": [
          -39.1052276,
          -12.6710161
        ]
      }
    },
    {
      "type": "Feature",
      "id": "node/2548607415",
      "properties": {
        "@id": "node/2548607415",
        "name": "Oficina de Motos e Bicicletas",
        "shop": "bicycle"
      },
      "geometry": {
        "type": "Point",
        "coordinates": [
          -48.6183703,
          -1.5130759
        ]
      }
    },
    {
      "type": "Feature",
      "id": "node/2556159989",
      "properties": {
        "@id": "node/2556159989",
        "addr:street": "Avenida Caxangá",
        "shop": "bicycle"
      },
      "geometry": {
        "type": "Point",
        "coordinates": [
          -34.9178623,
          -8.0519889
        ]
      }
    },
    {
      "type": "Feature",
      "id": "node/2558026430",
      "properties": {
        "@id": "node/2558026430",
        "name": "Lala's",
        "shop": "bicycle"
      },
      "geometry": {
        "type": "Point",
        "coordinates": [
          -48.7541317,
          -27.5694424
        ]
      }
    },
    {
      "type": "Feature",
      "id": "node/2574547469",
      "properties": {
        "@id": "node/2574547469",
        "addr:city": "São Bernardo do Campo",
        "addr:housenumber": "1585",
        "addr:street": "Avenida Robert Kennedy",
        "name": "Bike Vera Cruz",
        "opening_hours": "Mo-Sa 08:00-18:00",
        "phone": "+55 11 4341 8857",
        "shop": "bicycle"
      },
      "geometry": {
        "type": "Point",
        "coordinates": [
          -46.5759776,
          -23.7042593
        ]
      }
    },
    {
      "type": "Feature",
      "id": "node/2579649289",
      "properties": {
        "@id": "node/2579649289",
        "name": "Bicicletaria do Batata",
        "phone": "6133843675",
        "shop": "bicycle"
      },
      "geometry": {
        "type": "Point",
        "coordinates": [
          -48.0749668,
          -16.0180264
        ]
      }
    },
    {
      "type": "Feature",
      "id": "node/2579649291",
      "properties": {
        "@id": "node/2579649291",
        "name": "Bike Center",
        "phone": "34845419",
        "shop": "bicycle"
      },
      "geometry": {
        "type": "Point",
        "coordinates": [
          -48.0625381,
          -16.020372
        ]
      }
    },
    {
      "type": "Feature",
      "id": "node/2579649825",
      "properties": {
        "@id": "node/2579649825",
        "name": "Loja Ciclista Lima",
        "shop": "bicycle"
      },
      "geometry": {
        "type": "Point",
        "coordinates": [
          -48.0762405,
          -16.0257664
        ]
      }
    },
    {
      "type": "Feature",
      "id": "node/2579650283",
      "properties": {
        "@id": "node/2579650283",
        "name": "Shis Bike",
        "phone": "6134848071",
        "shop": "bicycle"
      },
      "geometry": {
        "type": "Point",
        "coordinates": [
          -48.0573816,
          -15.9988256
        ]
      }
    },
    {
      "type": "Feature",
      "id": "node/2583529464",
      "properties": {
        "@id": "node/2583529464",
        "addr:housenumber": "398",
        "addr:street": "Rua Barão de Mesquita",
        "name": "Cicle Tijuca",
        "shop": "bicycle",
        "source": "survey"
      },
      "geometry": {
        "type": "Point",
        "coordinates": [
          -43.2383113,
          -22.9239455
        ]
      }
    },
    {
      "type": "Feature",
      "id": "node/2584158783",
      "properties": {
        "@id": "node/2584158783",
        "name": "Biclicletaria Morro Azul",
        "shop": "bicycle"
      },
      "geometry": {
        "type": "Point",
        "coordinates": [
          -47.4286536,
          -22.5583539
        ]
      }
    },
    {
      "type": "Feature",
      "id": "node/2587405871",
      "properties": {
        "@id": "node/2587405871",
        "addr:city": "Rio de Janeiro",
        "addr:housename": "Lojas B e C",
        "addr:housenumber": "16661",
        "addr:street": "Avenida das Américas",
        "addr:suburb": "Recreio dos Bandeirantes",
        "name": "Star Bike",
        "phone": "+55-21-34112121",
        "shop": "bicycle",
        "source": "survey; website"
      },
      "geometry": {
        "type": "Point",
        "coordinates": [
          -43.4736023,
          -23.0167002
        ]
      }
    },
    {
      "type": "Feature",
      "id": "node/2589562802",
      "properties": {
        "@id": "node/2589562802",
        "name": "Flach bicicletas",
        "shop": "bicycle",
        "source": "Bing"
      },
      "geometry": {
        "type": "Point",
        "coordinates": [
          -51.8088324,
          -29.47084
        ]
      }
    },
    {
      "type": "Feature",
      "id": "node/2589567484",
      "properties": {
        "@id": "node/2589567484",
        "name": "Central Bicicletas",
        "shop": "bicycle",
        "source": "Bing"
      },
      "geometry": {
        "type": "Point",
        "coordinates": [
          -51.8210253,
          -29.4715617
        ]
      }
    },
    {
      "type": "Feature",
      "id": "node/2610252388",
      "properties": {
        "@id": "node/2610252388",
        "name": "Star Bike",
        "shop": "bicycle"
      },
      "geometry": {
        "type": "Point",
        "coordinates": [
          -41.9890688,
          -22.5822834
        ]
      }
    },
    {
      "type": "Feature",
      "id": "node/2621647808",
      "properties": {
        "@id": "node/2621647808",
        "addr:city": "Rio de Janeiro",
        "addr:housenumber": "49",
        "addr:postcode": "21250-520",
        "addr:street": "Rua Capitão Cruz",
        "name": "Edson Bike",
        "phone": "+55-21-31375111",
        "shop": "bicycle",
        "source": "survey"
      },
      "geometry": {
        "type": "Point",
        "coordinates": [
          -43.3043614,
          -22.8226723
        ]
      }
    },
    {
      "type": "Feature",
      "id": "node/2625518968",
      "properties": {
        "@id": "node/2625518968",
        "name": "Oficina de Bike",
        "service:bicycle:cleaning": "yes",
        "service:bicycle:repair": "yes",
        "shop": "bicycle"
      },
      "geometry": {
        "type": "Point",
        "coordinates": [
          -48.7813832,
          -26.3466019
        ]
      }
    },
    {
      "type": "Feature",
      "id": "node/2630967341",
      "properties": {
        "@id": "node/2630967341",
        "name": "Benny Bikes",
        "shop": "bicycle"
      },
      "geometry": {
        "type": "Point",
        "coordinates": [
          -47.9885579,
          -15.8132787
        ]
      }
    },
    {
      "type": "Feature",
      "id": "node/2643930697",
      "properties": {
        "@id": "node/2643930697",
        "addr:city": "Rio de Janeiro",
        "addr:housenumber": "597",
        "addr:street": "Rua Angaí",
        "addr:suburb": "Vila Kosmos",
        "name": "Bazar Bike Carioca",
        "phone": "+55-21-24818463",
        "shop": "bicycle"
      },
      "geometry": {
        "type": "Point",
        "coordinates": [
          -43.3113507,
          -22.8518377
        ]
      }
    },
    {
      "type": "Feature",
      "id": "node/2653235032",
      "properties": {
        "@id": "node/2653235032",
        "name": "Ciclomar",
        "shop": "bicycle"
      },
      "geometry": {
        "type": "Point",
        "coordinates": [
          -53.7175943,
          -29.7024567
        ]
      }
    },
    {
      "type": "Feature",
      "id": "node/2653235040",
      "properties": {
        "@id": "node/2653235040",
        "name": "Pedal Livre",
        "shop": "bicycle"
      },
      "geometry": {
        "type": "Point",
        "coordinates": [
          -53.7162003,
          -29.703116
        ]
      }
    },
    {
      "type": "Feature",
      "id": "node/2684462117",
      "properties": {
        "@id": "node/2684462117",
        "name": "Bike Show",
        "shop": "bicycle"
      },
      "geometry": {
        "type": "Point",
        "coordinates": [
          -43.4735032,
          -23.0166194
        ]
      }
    },
    {
      "type": "Feature",
      "id": "node/2705368883",
      "properties": {
        "@id": "node/2705368883",
        "addr:city": "Uruaçu",
        "addr:housenumber": "14",
        "addr:postcode": "76400-000",
        "addr:street": "Av. Tocantins",
        "name": "Acepeças",
        "phone": "+55 62 3357-1102",
        "shop": "bicycle"
      },
      "geometry": {
        "type": "Point",
        "coordinates": [
          -49.1491677,
          -14.5245856
        ]
      }
    },
    {
      "type": "Feature",
      "id": "node/2714318230",
      "properties": {
        "@id": "node/2714318230",
        "addr:city": "Livramento de Nossa Senhora",
        "addr:housenumber": "587",
        "addr:postcode": "46140-000",
        "addr:street": "Avenida Doutor Nelson Leal",
        "name": "Evolution Bike",
        "shop": "bicycle"
      },
      "geometry": {
        "type": "Point",
        "coordinates": [
          -41.8430157,
          -13.6477638
        ]
      }
    },
    {
      "type": "Feature",
      "id": "node/2725100643",
      "properties": {
        "@id": "node/2725100643",
        "name": "Beto Bike Sports",
        "phone": "+55 77 34413353",
        "shop": "bicycle"
      },
      "geometry": {
        "type": "Point",
        "coordinates": [
          -41.6687682,
          -14.2091011
        ]
      }
    },
    {
      "type": "Feature",
      "id": "node/2752505824",
      "properties": {
        "@id": "node/2752505824",
        "name": "oficina de bicicletas",
        "service:bicycle:repair": "yes",
        "service:bicycle:second_hand": "yes",
        "shop": "bicycle"
      },
      "geometry": {
        "type": "Point",
        "coordinates": [
          -42.0562247,
          -22.8559464
        ]
      }
    },
    {
      "type": "Feature",
      "id": "node/2785967956",
      "properties": {
        "@id": "node/2785967956",
        "addr:city": "Maricá",
        "addr:housenumber": "40 loja B",
        "addr:street": "Rua Caio Figueiredo",
        "name": "Pedal & Cia",
        "phone": "+55-21-26361466",
        "shop": "bicycle"
      },
      "geometry": {
        "type": "Point",
        "coordinates": [
          -42.9338937,
          -22.9163662
        ]
      }
    },
    {
      "type": "Feature",
      "id": "node/2794930026",
      "properties": {
        "@id": "node/2794930026",
        "addr:city": "Várzea das Moças, São Gonçalo",
        "addr:housenumber": "N.15, Lojas 3,4 e 5",
        "addr:postcode": "24753-500",
        "addr:street": "Avenida Plínio Gomes de Matos Filho",
        "contact:facebook": "https://www.facebook.com/bikeworksbr",
        "email": "contato@bikeworks.com.br",
        "name": "Bike Works",
        "opening_hours": "Mo-Sa 08:00-19:00",
        "phone": "+55 21 3701-5025; +55 21 3701-2846",
        "shop": "bicycle",
        "website": "http://www.bikeworks.com.br"
      },
      "geometry": {
        "type": "Point",
        "coordinates": [
          -42.9852616,
          -22.9029025
        ]
      }
    },
    {
      "type": "Feature",
      "id": "node/2862747066",
      "properties": {
        "@id": "node/2862747066",
        "name": "Ciclo Bianchini",
        "phone": "1155393530",
        "shop": "bicycle"
      },
      "geometry": {
        "type": "Point",
        "coordinates": [
          -46.6429174,
          -23.5774593
        ]
      }
    },
    {
      "type": "Feature",
      "id": "node/2867872022",
      "properties": {
        "@id": "node/2867872022",
        "addr:city": "Brasília",
        "addr:postcode": "70753-040",
        "addr:street": "CLN 110 Bloco D loja 18",
        "name": "Cycling Bike Shop",
        "opening_hours": "Mo-Fr 09:00-19:00; Sa 09:00-15:00",
        "shop": "bicycle"
      },
      "geometry": {
        "type": "Point",
        "coordinates": [
          -47.8882126,
          -15.7588645
        ]
      }
    },
    {
      "type": "Feature",
      "id": "node/2867872023",
      "properties": {
        "@id": "node/2867872023",
        "addr:city": "Brasília",
        "addr:street": "CLS 315 Bloco C loja 37",
        "name": "Commute Bike Studio",
        "opening_hours": "Mo-Fr 09:00-19:00; Sa 09:00-14:00",
        "shop": "bicycle"
      },
      "geometry": {
        "type": "Point",
        "coordinates": [
          -47.923147,
          -15.8270593
        ]
      }
    },
    {
      "type": "Feature",
      "id": "node/2867872024",
      "properties": {
        "@id": "node/2867872024",
        "addr:city": "Brasília",
        "addr:postcode": "70363-530",
        "addr:street": "CLS 310 Bloco C lojas 32/34",
        "name": "Sport Cicle 310",
        "shop": "bicycle"
      },
      "geometry": {
        "type": "Point",
        "coordinates": [
          -47.9122492,
          -15.8190698
        ]
      }
    },
    {
      "type": "Feature",
      "id": "node/2873898755",
      "properties": {
        "@id": "node/2873898755",
        "shop": "bicycle"
      },
      "geometry": {
        "type": "Point",
        "coordinates": [
          -37.5199098,
          -6.904392
        ]
      }
    },
    {
      "type": "Feature",
      "id": "node/2876156150",
      "properties": {
        "@id": "node/2876156150",
        "addr:city": "Canoas",
        "addr:housenumber": "3049",
        "addr:postcode": "92110-330",
        "addr:street": "Avenida Getúlio Vargas",
        "name": "Aventura Bikes Shop",
        "phone": "30517999",
        "shop": "bicycle"
      },
      "geometry": {
        "type": "Point",
        "coordinates": [
          -51.176731,
          -29.9393902
        ]
      }
    },
    {
      "type": "Feature",
      "id": "node/2876159288",
      "properties": {
        "@id": "node/2876159288",
        "addr:city": "Canoas",
        "addr:housenumber": "3215",
        "addr:postcode": "92010-011",
        "addr:street": "Avenida Getúlio Vargas",
        "name": "Bike Point",
        "opening_hours": "opening_hours=Mo-Fr 09:00-12:00,13:30-19:00; Sa 08:30–12:00, 13:00–16:00;",
        "phone": "(51) 3478-2147",
        "shop": "bicycle"
      },
      "geometry": {
        "type": "Point",
        "coordinates": [
          -51.177631,
          -29.9226162
        ]
      }
    },
    {
      "type": "Feature",
      "id": "node/2878085065",
      "properties": {
        "@id": "node/2878085065",
        "name": "CONEXÃO BIKES",
        "opening_hours": "8 AS 18 HORAS",
        "service": "repair",
        "service_1": "retail",
        "service_2": "pump",
        "shop": "bicycle"
      },
      "geometry": {
        "type": "Point",
        "coordinates": [
          -38.3666094,
          -12.9458057
        ]
      }
    },
    {
      "type": "Feature",
      "id": "node/2878087659",
      "properties": {
        "@id": "node/2878087659",
        "addr:city": "Salvador",
        "addr:housenumber": "281",
        "addr:postcode": "41253-190",
        "addr:street": "Avenida São Marcos",
        "name": "A&M Bicicletaria",
        "opening_hours": "08:00 - 18:00",
        "phone": "+55 713393 0373",
        "shop": "bicycle"
      },
      "geometry": {
        "type": "Point",
        "coordinates": [
          -38.4356871,
          -12.9286079
        ]
      }
    },
    {
      "type": "Feature",
      "id": "node/2878100473",
      "properties": {
        "@id": "node/2878100473",
        "addr:city": "Salvador",
        "addr:street": "Rua Artur de Azevedo Machado",
        "name": "Bike Aventura",
        "note": "Reparo, manutenção, conserto e venda de peças para bicicletas.",
        "service:bicycle:repair": "yes",
        "service:bicycle:retail": "yes",
        "shop": "bicycle"
      },
      "geometry": {
        "type": "Point",
        "coordinates": [
          -38.4449153,
          -12.9973234
        ]
      }
    },
    {
      "type": "Feature",
      "id": "node/2878101017",
      "properties": {
        "@id": "node/2878101017",
        "name": "Repair Bike Shop Barra",
        "shop": "bicycle"
      },
      "geometry": {
        "type": "Point",
        "coordinates": [
          -38.5261511,
          -13.0075636
        ]
      }
    },
    {
      "type": "Feature",
      "id": "node/2878107374",
      "properties": {
        "@id": "node/2878107374",
        "addr:city": "Salvador",
        "addr:housenumber": "498",
        "addr:postcode": "41830-020",
        "addr:street": "Rua Minas Gerais",
        "name": "Best Bike",
        "opening_hours": "seg-sex 09:00 às 18:00; sab 09:00-13:00",
        "service": "dealer",
        "service_1": "repair",
        "service_2": "parts",
        "shop": "bicycle"
      },
      "geometry": {
        "type": "Point",
        "coordinates": [
          -38.4612721,
          -13.0076092
        ]
      }
    },
    {
      "type": "Feature",
      "id": "node/2878108626",
      "properties": {
        "@id": "node/2878108626",
        "name": "Newworldbike",
        "opening_hours": "2ª a 6ª de 8h às 18h - Sáb. de 8h às 13h",
        "service": "retail;repair",
        "shop": "bicycle"
      },
      "geometry": {
        "type": "Point",
        "coordinates": [
          -38.4839356,
          -13.013355
        ]
      }
    },
    {
      "type": "Feature",
      "id": "node/2878112650",
      "properties": {
        "@id": "node/2878112650",
        "addr:city": "Salvador",
        "addr:postcode": "41630-700",
        "name": "CARACA BIKES",
        "opening_hours": "8 as 17 horas",
        "shop": "bicycle"
      },
      "geometry": {
        "type": "Point",
        "coordinates": [
          -38.366192,
          -12.9325928
        ]
      }
    },
    {
      "type": "Feature",
      "id": "node/2878176025",
      "properties": {
        "@id": "node/2878176025",
        "addr:street": "Campinas de Brotas",
        "name": "CICLOMOTO",
        "shop": "bicycle"
      },
      "geometry": {
        "type": "Point",
        "coordinates": [
          -38.4789816,
          -12.9880257
        ]
      }
    },
    {
      "type": "Feature",
      "id": "node/2878183570",
      "properties": {
        "@id": "node/2878183570",
        "addr:city": "Lauro de Freitas",
        "addr:housenumber": "4",
        "addr:postcode": "42700-000",
        "addr:street": "Estrada do Coco",
        "name": "Ramiro Bike Shop",
        "note": "Loja/Peças/Oficina",
        "opening_hours": "08:00-16:00",
        "shop": "bicycle"
      },
      "geometry": {
        "type": "Point",
        "coordinates": [
          -38.3127638,
          -12.8794682
        ]
      }
    },
    {
      "type": "Feature",
      "id": "node/2878218179",
      "properties": {
        "@id": "node/2878218179",
        "name": "Bikes",
        "opening_hours": "8 as 17 horas",
        "service": "pump",
        "service_1": "retail",
        "service_2": "repair",
        "shop": "bicycle"
      },
      "geometry": {
        "type": "Point",
        "coordinates": [
          -38.3650502,
          -12.9349761
        ]
      }
    },
    {
      "type": "Feature",
      "id": "node/2878262301",
      "properties": {
        "@id": "node/2878262301",
        "addr:city": "Salvador",
        "addr:street": "Avenida São Rafael",
        "name": "Cesar Bike",
        "shop": "bicycle"
      },
      "geometry": {
        "type": "Point",
        "coordinates": [
          -38.4217706,
          -12.9383506
        ]
      }
    },
    {
      "type": "Feature",
      "id": "node/2882764038",
      "properties": {
        "@id": "node/2882764038",
        "name": "Biciclopecas",
        "shop": "bicycle"
      },
      "geometry": {
        "type": "Point",
        "coordinates": [
          -47.8798438,
          -15.7601939
        ]
      }
    },
    {
      "type": "Feature",
      "id": "node/2887249501",
      "properties": {
        "@id": "node/2887249501",
        "addr:city": "São João de Meriti",
        "addr:housenumber": "41",
        "addr:street": "Rua Antônio José de Moraes",
        "name": "Celio's Bike",
        "shop": "bicycle"
      },
      "geometry": {
        "type": "Point",
        "coordinates": [
          -43.3651056,
          -22.8036207
        ]
      }
    },
    {
      "type": "Feature",
      "id": "node/2888535715",
      "properties": {
        "@id": "node/2888535715",
        "name": "Specialized Concept Store",
        "shop": "bicycle",
        "website": "http://www.specialized.com/br/pt-br/news/latest-news/17548"
      },
      "geometry": {
        "type": "Point",
        "coordinates": [
          -43.3011643,
          -23.0083734
        ]
      }
    },
    {
      "type": "Feature",
      "id": "node/2894699122",
      "properties": {
        "@id": "node/2894699122",
        "addr:city": "Brasília",
        "addr:postcode": "70760-554",
        "addr:street": "CLRN 714 bloco D loja 57",
        "name": "Bike Sport",
        "shop": "bicycle",
        "website": "http://www.bikesportbr.com.br"
      },
      "geometry": {
        "type": "Point",
        "coordinates": [
          -47.8969235,
          -15.7464688
        ]
      }
    },
    {
      "type": "Feature",
      "id": "node/2894699123",
      "properties": {
        "@id": "node/2894699123",
        "addr:city": "Brasília",
        "addr:street": "CLS 208 bloco B loja 22",
        "name": "Bike Tech Brasília",
        "opening_hours": "Mo-Fr 08:00-20:00; Sa 08:00-18:00",
        "shop": "bicycle",
        "website": "http://www.biketechbrasilia.com.br"
      },
      "geometry": {
        "type": "Point",
        "coordinates": [
          -47.8996473,
          -15.8194232
        ]
      }
    },
    {
      "type": "Feature",
      "id": "node/2894699124",
      "properties": {
        "@id": "node/2894699124",
        "addr:city": "Brasília",
        "addr:street": "CLS 214 bloco B loja 22 sobreloja",
        "name": "Norte Cicle",
        "shop": "bicycle",
        "website": "http://nortecicle.com.br"
      },
      "geometry": {
        "type": "Point",
        "coordinates": [
          -47.9158036,
          -15.8311054
        ]
      }
    },
    {
      "type": "Feature",
      "id": "node/2894699125",
      "properties": {
        "@id": "node/2894699125",
        "addr:city": "Brasília",
        "addr:street": "CLSW 101 bloco C lojas 30/32",
        "name": "Super Bike 101",
        "opening_hours": "Mo-Sa 09:00-17:30",
        "shop": "bicycle",
        "website": "http://www.superbike101.com.br"
      },
      "geometry": {
        "type": "Point",
        "coordinates": [
          -47.9207732,
          -15.798555
        ]
      }
    },
    {
      "type": "Feature",
      "id": "node/2894699168",
      "properties": {
        "@id": "node/2894699168",
        "addr:street": "CLN 114 bloco B loja 36",
        "name": "Unibike",
        "shop": "bicycle",
        "website": "http://www.unibike.com.br"
      },
      "geometry": {
        "type": "Point",
        "coordinates": [
          -47.8915391,
          -15.7462562
        ]
      }
    },
    {
      "type": "Feature",
      "id": "node/2906248250",
      "properties": {
        "@id": "node/2906248250",
        "addr:city": "Rio de Janeiro",
        "addr:housenumber": "1490",
        "addr:postcode": "21715-321",
        "addr:street": "Avenida de Santa Cruz",
        "name": "H.E. Bicicletas e Motos",
        "phone": "+55-21-33313551",
        "shop": "bicycle",
        "website": "https://www.facebook.com/hebicicletasemotos/info"
      },
      "geometry": {
        "type": "Point",
        "coordinates": [
          -43.4375968,
          -22.8778802
        ]
      }
    },
    {
      "type": "Feature",
      "id": "node/2906257369",
      "properties": {
        "@id": "node/2906257369",
        "addr:city": "Rio de Janeiro",
        "addr:housenumber": "1347 Loja C",
        "addr:street": "Rua do Imperador",
        "name": "Bike Show Adventure",
        "phone": "+55-21-33365551",
        "shop": "bicycle",
        "website": "http://bikeshowadventure.com.br/"
      },
      "geometry": {
        "type": "Point",
        "coordinates": [
          -43.436489,
          -22.8782706
        ]
      }
    },
    {
      "type": "Feature",
      "id": "node/2913164190",
      "properties": {
        "@id": "node/2913164190",
        "addr:city": "Rio de Janeiro",
        "addr:housenumber": "63",
        "addr:street": "Rua Bento Lisboa",
        "name": "Karona Bike",
        "phone": "+55-21-22257330;+55-21-22257331",
        "shop": "bicycle",
        "website": "http://www.karonabike.com.br"
      },
      "geometry": {
        "type": "Point",
        "coordinates": [
          -43.1791231,
          -22.9264595
        ]
      }
    },
    {
      "type": "Feature",
      "id": "node/2926858614",
      "properties": {
        "@id": "node/2926858614",
        "addr:city": "Rio de Janeiro",
        "addr:housenumber": "440 Loja A",
        "addr:postcode": "22081-030",
        "addr:street": "Avenida Rainha Elizabeth da Bélgica",
        "name": "Barcellos Sports Ipanema",
        "shop": "bicycle",
        "start_date": "20140606",
        "website": "http://www.barcellossports.com.br/"
      },
      "geometry": {
        "type": "Point",
        "coordinates": [
          -43.1938462,
          -22.9855898
        ]
      }
    },
    {
      "type": "Feature",
      "id": "node/2934591480",
      "properties": {
        "@id": "node/2934591480",
        "name": "Girabike",
        "shop": "bicycle",
        "website": "www.girabike.com.br"
      },
      "geometry": {
        "type": "Point",
        "coordinates": [
          -47.8774161,
          -15.7661806
        ]
      }
    },
    {
      "type": "Feature",
      "id": "node/2936286847",
      "properties": {
        "@id": "node/2936286847",
        "addr:city": "Rio de Janeiro",
        "addr:country": "BR",
        "addr:housenumber": "413",
        "addr:postcode": "22720-400",
        "addr:street": "Avenida dos Mananciais",
        "fixme": "confirmar se o nome é esse mesmo",
        "name": "Bike Mananciais",
        "service:bicycle:repair": "yes",
        "service:bicycle:retail": "yes",
        "shop": "bicycle"
      },
      "geometry": {
        "type": "Point",
        "coordinates": [
          -43.3819767,
          -22.9169077
        ]
      }
    },
    {
      "type": "Feature",
      "id": "node/2939159848",
      "properties": {
        "@id": "node/2939159848",
        "name": "Bicicletaria Popular",
        "shop": "bicycle"
      },
      "geometry": {
        "type": "Point",
        "coordinates": [
          -48.1150025,
          -15.8234631
        ]
      }
    },
    {
      "type": "Feature",
      "id": "node/2951665118",
      "properties": {
        "@id": "node/2951665118",
        "addr:city": "São Bernardo do Campo",
        "addr:housenumber": "1688",
        "addr:postcode": "09720-000",
        "addr:street": "Avenida Brigadeiro Faria Lima",
        "name": "Biki Speranza",
        "phone": "+55 11 4339 3837",
        "shop": "bicycle",
        "website": "http://www.bikesperanza.com.br/"
      },
      "geometry": {
        "type": "Point",
        "coordinates": [
          -46.5521134,
          -23.7133425
        ]
      }
    },
    {
      "type": "Feature",
      "id": "node/2953639005",
      "properties": {
        "@id": "node/2953639005",
        "shop": "bicycle"
      },
      "geometry": {
        "type": "Point",
        "coordinates": [
          -37.6682444,
          -10.9185414
        ]
      }
    },
    {
      "type": "Feature",
      "id": "node/2960393721",
      "properties": {
        "@id": "node/2960393721",
        "addr:city": "São João de Meriti",
        "addr:housenumber": "166",
        "addr:street": "Avenida Automóvel Clube",
        "name": "Elida Bicicletas",
        "phone": "+55 21 27568837",
        "shop": "bicycle"
      },
      "geometry": {
        "type": "Point",
        "coordinates": [
          -43.3672726,
          -22.8031301
        ]
      }
    },
    {
      "type": "Feature",
      "id": "node/2960408945",
      "properties": {
        "@id": "node/2960408945",
        "addr:city": "São João de Meriti",
        "addr:housenumber": "265",
        "addr:street": "Avenida Doutor Arruda Negreiros",
        "addr:suburb": "Centro",
        "name": "Elida Bicicletas",
        "phone": "+55-21-37531892",
        "shop": "bicycle"
      },
      "geometry": {
        "type": "Point",
        "coordinates": [
          -43.3717994,
          -22.8042119
        ]
      }
    },
    {
      "type": "Feature",
      "id": "node/2960414640",
      "properties": {
        "@id": "node/2960414640",
        "addr:city": "Queimados",
        "addr:housenumber": "17",
        "addr:street": "Rua Doutor José Maria Coelho",
        "name": "Elida Bicicletas",
        "phone": "+55-21-27799600",
        "shop": "bicycle"
      },
      "geometry": {
        "type": "Point",
        "coordinates": [
          -43.5564455,
          -22.7164961
        ]
      }
    },
    {
      "type": "Feature",
      "id": "node/2960452014",
      "properties": {
        "@id": "node/2960452014",
        "addr:city": "São João de Meriti",
        "addr:housenumber": "332",
        "addr:street": "Avenida Nossa Senhora das Graças",
        "addr:suburb": "Centro",
        "name": "Marrafa's Bike Sport",
        "shop": "bicycle"
      },
      "geometry": {
        "type": "Point",
        "coordinates": [
          -43.3694855,
          -22.8026785
        ]
      }
    },
    {
      "type": "Feature",
      "id": "node/2960492156",
      "properties": {
        "@id": "node/2960492156",
        "addr:city": "Itatiaia",
        "addr:housenumber": "1755",
        "addr:street": "Avenida das Mangueiras",
        "name": "Armazém da Bike",
        "phone": "+55-24-998188279",
        "shop": "bicycle",
        "website": "https://www.facebook.com/armazemdabike2014"
      },
      "geometry": {
        "type": "Point",
        "coordinates": [
          -44.5260642,
          -22.4386027
        ]
      }
    },
    {
      "type": "Feature",
      "id": "node/2960504939",
      "properties": {
        "@id": "node/2960504939",
        "name": "Bicicletaria Penedo",
        "shop": "bicycle"
      },
      "geometry": {
        "type": "Point",
        "coordinates": [
          -44.5219659,
          -22.4439342
        ]
      }
    },
    {
      "type": "Feature",
      "id": "node/2976054092",
      "properties": {
        "@id": "node/2976054092",
        "name": "Amazonas Moto Center",
        "shop": "bicycle"
      },
      "geometry": {
        "type": "Point",
        "coordinates": [
          -59.9859504,
          -3.1226922
        ]
      }
    },
    {
      "type": "Feature",
      "id": "node/2983945388",
      "properties": {
        "@id": "node/2983945388",
        "addr:city": "Duque de Caxias",
        "addr:housenumber": "357",
        "addr:street": "Avenida Nilo Peçanha",
        "addr:suburb": "Centro",
        "name": "Marrafa's Bike Sport",
        "phone": "+55-21-26715566",
        "shop": "bicycle"
      },
      "geometry": {
        "type": "Point",
        "coordinates": [
          -43.314632,
          -22.786657
        ]
      }
    },
    {
      "type": "Feature",
      "id": "node/2994579945",
      "properties": {
        "@id": "node/2994579945",
        "name": "Full Bike",
        "service:bicycle:repair": "yes",
        "service:bicycle:retail": "yes",
        "shop": "bicycle"
      },
      "geometry": {
        "type": "Point",
        "coordinates": [
          -51.220399,
          -30.0362636
        ]
      }
    },
    {
      "type": "Feature",
      "id": "node/3000113476",
      "properties": {
        "@id": "node/3000113476",
        "shop": "bicycle"
      },
      "geometry": {
        "type": "Point",
        "coordinates": [
          -37.6677594,
          -10.9181251
        ]
      }
    },
    {
      "type": "Feature",
      "id": "node/3007865207",
      "properties": {
        "@id": "node/3007865207",
        "addr:city": "Aracaju",
        "addr:street": "Rua Mariano Salmeron",
        "addr:suburb": "Siqueira Campos",
        "name": "Casa do Ciclista",
        "note": "Consertar a localização",
        "repair": "yes",
        "shop": "bicycle"
      },
      "geometry": {
        "type": "Point",
        "coordinates": [
          -37.0708912,
          -10.9110947
        ]
      }
    },
    {
      "type": "Feature",
      "id": "node/3017419441",
      "properties": {
        "@id": "node/3017419441",
        "addr:city": "São João de Meriti",
        "addr:housenumber": "2337",
        "addr:street": "Avenida Comendador Teles",
        "addr:suburb": "Vilar dos Teles",
        "name": "Resilaine Bicicletas",
        "shop": "bicycle"
      },
      "geometry": {
        "type": "Point",
        "coordinates": [
          -43.3590578,
          -22.7758791
        ]
      }
    },
    {
      "type": "Feature",
      "id": "node/3021297808",
      "properties": {
        "@id": "node/3021297808",
        "name": "New Bike",
        "opening_hours": "Mo-Sa 08:00-18:00",
        "shop": "bicycle"
      },
      "geometry": {
        "type": "Point",
        "coordinates": [
          -47.8490832,
          -15.7946717
        ]
      }
    },
    {
      "type": "Feature",
      "id": "node/3032576505",
      "properties": {
        "@id": "node/3032576505",
        "addr:city": "Curitiba",
        "addr:country": "BR",
        "addr:housename": "Loja 02",
        "addr:housenumber": "847",
        "addr:street": "Rua Arnaldo Thá",
        "name": "New Center Bike",
        "phone": "(41) 3288-1112",
        "service:bicycle:cleaning": "yes",
        "service:bicycle:diy": "no",
        "service:bicycle:pump": "yes",
        "service:bicycle:rental": "no",
        "service:bicycle:repair": "yes",
        "service:bicycle:retail": "no",
        "service:bicycle:second_hand": "yes",
        "shop": "bicycle"
      },
      "geometry": {
        "type": "Point",
        "coordinates": [
          -49.3323469,
          -25.4839088
        ]
      }
    },
    {
      "type": "Feature",
      "id": "node/3037052688",
      "properties": {
        "@id": "node/3037052688",
        "addr:city": "Brasília",
        "addr:street": "CLN 403 Bloco B Loja 33",
        "addr:suburb": "Asa Norte",
        "name": "bike'n FIX",
        "phone": "+55 61 3327-1604",
        "shop": "bicycle",
        "website": "bikenfix@gmail.com"
      },
      "geometry": {
        "type": "Point",
        "coordinates": [
          -47.8753819,
          -15.7796986
        ]
      }
    },
    {
      "type": "Feature",
      "id": "node/3044719033",
      "properties": {
        "@id": "node/3044719033",
        "addr:city": "Salvador",
        "addr:street": "Praça General Inocêncio Galvão",
        "addr:suburb": "Centro",
        "name": "ErvaCiclo",
        "shop": "bicycle"
      },
      "geometry": {
        "type": "Point",
        "coordinates": [
          -38.5168053,
          -12.9825833
        ]
      }
    },
    {
      "type": "Feature",
      "id": "node/3045971158",
      "properties": {
        "@id": "node/3045971158",
        "addr:city": "Salvador",
        "addr:housenumber": "60",
        "addr:postcode": "41710-000",
        "addr:street": "Estrada Professor Pinto de Aguiar",
        "addr:suburb": "Boca do Rio",
        "name": "A&M BICICLETARIA",
        "shop": "bicycle"
      },
      "geometry": {
        "type": "Point",
        "coordinates": [
          -38.4318986,
          -12.975152
        ]
      }
    },
    {
      "type": "Feature",
      "id": "node/3045973988",
      "properties": {
        "@id": "node/3045973988",
        "addr:city": "Salvador",
        "addr:housenumber": "72",
        "addr:street": "Rua Simões Filho",
        "addr:suburb": "Boca do Rio",
        "name": "Pro Bike",
        "shop": "bicycle"
      },
      "geometry": {
        "type": "Point",
        "coordinates": [
          -38.4324538,
          -12.9799498
        ]
      }
    },
    {
      "type": "Feature",
      "id": "node/3045975500",
      "properties": {
        "@id": "node/3045975500",
        "addr:city": "Salvador",
        "addr:housenumber": "13",
        "addr:street": "Rua Simões Filho",
        "addr:suburb": "Boca do Rio",
        "name": "Alan Bikes",
        "shop": "bicycle"
      },
      "geometry": {
        "type": "Point",
        "coordinates": [
          -38.4302329,
          -12.9780679
        ]
      }
    },
    {
      "type": "Feature",
      "id": "node/3064156986",
      "properties": {
        "@id": "node/3064156986",
        "name": "Casa das Bicicletas",
        "shop": "bicycle"
      },
      "geometry": {
        "type": "Point",
        "coordinates": [
          -48.4738753,
          -8.060288
        ]
      }
    },
    {
      "type": "Feature",
      "id": "node/3069564629",
      "properties": {
        "@id": "node/3069564629",
        "name": "Bike Brothers",
        "shop": "bicycle"
      },
      "geometry": {
        "type": "Point",
        "coordinates": [
          -47.8830204,
          -15.7775569
        ]
      }
    },
    {
      "type": "Feature",
      "id": "node/3075472394",
      "properties": {
        "@id": "node/3075472394",
        "addr:city": "Florianópolis",
        "addr:housenumber": "42",
        "addr:street": "Rua Francisco Goulart",
        "name": "Garupa",
        "opening_hours": "Mon-Fri 10:00-20:00;Sat 10:00-14:00",
        "shop": "bicycle",
        "website": "http://garupa.bike/"
      },
      "geometry": {
        "type": "Point",
        "coordinates": [
          -48.5215298,
          -27.5951018
        ]
      }
    },
    {
      "type": "Feature",
      "id": "node/3078582668",
      "properties": {
        "@id": "node/3078582668",
        "addr:city": "Salvador",
        "addr:housenumber": "37",
        "addr:street": "Avenida Amaralina",
        "addr:suburb": "Amaralina",
        "name": "UNION Bike",
        "phone": "(71) 3015-2222",
        "shop": "bicycle",
        "website": "https://www.facebook.com/unionbikesalvador"
      },
      "geometry": {
        "type": "Point",
        "coordinates": [
          -38.4691362,
          -13.0134111
        ]
      }
    }
  ]
}
