{
  "type": "FeatureCollection",
  "generator": "overpass-turbo",
  "copyright": "The data included in this document is from www.openstreetmap.org. The data is made available under ODbL.",
  "timestamp": "2014-09-09T16:28:02Z",
  "features": [
    {
      "type": "Feature",
      "id": "node/2467673285",
      "properties": {
        "@id": "node/2467673285",
        "amenity": "bicycle_rental",
        "capacity": "12",
        "name": "Porto da Barra",
        "network": "Bike Salvador",
        "opening_hours": "Su-Sa 06:00-22:00",
        "operator": "Bike Salvador",
        "phone": "+55 71 40627024",
        "ref": "04",
        "website": "http://www.bikesalvador.com/"
      },
      "geometry": {
        "type": "Point",
        "coordinates": [
          -38.533085,
          -13.0041585
        ]
      }
    },
    {
      "type": "Feature",
      "id": "node/2467692504",
      "properties": {
        "@id": "node/2467692504",
        "amenity": "bicycle_rental",
        "capacity": "12",
        "name": "Campo Grande",
        "network": "Bike Salvador",
        "opening_hours": "Su-Sa 06:00-22:00",
        "operator": "Bike Salvador",
        "phone": "+55 71 40627024",
        "ref": "01",
        "website": "http://www.bikesalvador.com/"
      },
      "geometry": {
        "type": "Point",
        "coordinates": [
          -38.520152,
          -12.9895498
        ]
      }
    },
    {
      "type": "Feature",
      "id": "node/2467692505",
      "properties": {
        "@id": "node/2467692505",
        "amenity": "bicycle_rental",
        "capacity": "12",
        "name": "Jardim Apipema",
        "network": "Bike Salvador",
        "opening_hours": "Su-Sa 06:00-22:00",
        "operator": "Bike Salvador",
        "phone": "+55 71 40627024",
        "ref": "05",
        "website": "http://www.bikesalvador.com/"
      },
      "geometry": {
        "type": "Point",
        "coordinates": [
          -38.516232,
          -13.0076341
        ]
      }
    },
    {
      "type": "Feature",
      "id": "node/2467692506",
      "properties": {
        "@id": "node/2467692506",
        "amenity": "bicycle_rental",
        "capacity": "12",
        "name": "Praça Castro Alves",
        "network": "Bike Salvador",
        "opening_hours": "Su-Sa 06:00-22:00",
        "operator": "Bike Salvador",
        "phone": "+55 71 40627024",
        "ref": "03",
        "website": "http://www.bikesalvador.com/"
      },
      "geometry": {
        "type": "Point",
        "coordinates": [
          -38.5145046,
          -12.9772521
        ]
      }
    },
    {
      "type": "Feature",
      "id": "node/2467692507",
      "properties": {
        "@id": "node/2467692507",
        "amenity": "bicycle_rental",
        "capacity": "12",
        "name": "Praça da Piedade",
        "network": "Bike Salvador",
        "opening_hours": "Su-Sa 06:00-22:00",
        "operator": "Bike Salvador",
        "phone": "+55 71 40627024",
        "ref": "02",
        "website": "http://www.bikesalvador.com/"
      },
      "geometry": {
        "type": "Point",
        "coordinates": [
          -38.515029,
          -12.9828574
        ]
      }
    },
    {
      "type": "Feature",
      "id": "node/2518515269",
      "properties": {
        "@id": "node/2518515269",
        "amenity": "bicycle_rental",
        "capacity": "12",
        "name": "Amaralina",
        "network": "Bike Salvador",
        "opening_hours": "Su-Sa 06:00-22:00",
        "operator": "Bike Salvador",
        "phone": "+55 71 40627024",
        "ref": "12",
        "website": "http://www.bikesalvador.com/"
      },
      "geometry": {
        "type": "Point",
        "coordinates": [
          -38.4679236,
          -13.0121596
        ]
      }
    },
    {
      "type": "Feature",
      "id": "node/2518515270",
      "properties": {
        "@id": "node/2518515270",
        "amenity": "bicycle_rental",
        "capacity": "12",
        "name": "Centenário",
        "network": "Bike Salvador",
        "opening_hours": "Su-Sa 06:00-22:00",
        "operator": "Bike Salvador",
        "phone": "+55 71 40627024",
        "ref": "06",
        "website": "http://www.bikesalvador.com/"
      },
      "geometry": {
        "type": "Point",
        "coordinates": [
          -38.5232444,
          -13.006116
        ]
      }
    },
    {
      "type": "Feature",
      "id": "node/2518515271",
      "properties": {
        "@id": "node/2518515271",
        "amenity": "bicycle_rental",
        "capacity": "12",
        "name": "Correios",
        "network": "Bike Salvador",
        "opening_hours": "Su-Sa 06:00-22:00",
        "operator": "Bike Salvador",
        "phone": "+55 71 40627024",
        "ref": "14",
        "website": "http://www.bikesalvador.com/"
      },
      "geometry": {
        "type": "Point",
        "coordinates": [
          -38.4552682,
          -13.0026948
        ]
      }
    },
    {
      "type": "Feature",
      "id": "node/2518515272",
      "properties": {
        "@id": "node/2518515272",
        "amenity": "bicycle_rental",
        "capacity": "12",
        "name": "Jardim de Alah",
        "network": "Bike Salvador",
        "opening_hours": "Su-Sa 06:00-22:00",
        "operator": "Bike Salvador",
        "phone": "+55 71 40627024",
        "ref": "17",
        "website": "http://www.bikesalvador.com/"
      },
      "geometry": {
        "type": "Point",
        "coordinates": [
          -38.4408249,
          -12.994723
        ]
      }
    },
    {
      "type": "Feature",
      "id": "node/2518515273",
      "properties": {
        "@id": "node/2518515273",
        "amenity": "bicycle_rental",
        "capacity": "12",
        "name": "Largo da Mariquita",
        "network": "Bike Salvador",
        "opening_hours": "Su-Sa 06:00-22:00",
        "operator": "Bike Salvador",
        "phone": "+55 71 40627024",
        "ref": "11",
        "website": "http://www.bikesalvador.com/"
      },
      "geometry": {
        "type": "Point",
        "coordinates": [
          -38.4886155,
          -13.0137384
        ]
      }
    },
    {
      "type": "Feature",
      "id": "node/2518515274",
      "properties": {
        "@id": "node/2518515274",
        "amenity": "bicycle_rental",
        "capacity": "12",
        "name": "Largo da Vitória",
        "network": "Bike Salvador",
        "opening_hours": "Su-Sa 06:00-22:00",
        "operator": "Bike Salvador",
        "phone": "+55 71 40627024",
        "ref": "07",
        "website": "http://www.bikesalvador.com/"
      },
      "geometry": {
        "type": "Point",
        "coordinates": [
          -38.527791,
          -12.9964744
        ]
      }
    },
    {
      "type": "Feature",
      "id": "node/2518515275",
      "properties": {
        "@id": "node/2518515275",
        "amenity": "bicycle_rental",
        "capacity": "12",
        "name": "Nossa Senhora da Luz",
        "network": "Bike Salvador",
        "opening_hours": "Su-Sa 06:00-22:00",
        "operator": "Bike Salvador",
        "phone": "+55 71 40627024",
        "ref": "15",
        "website": "http://www.bikesalvador.com/"
      },
      "geometry": {
        "type": "Point",
        "coordinates": [
          -38.4561744,
          -13.0058469
        ]
      }
    },
    {
      "type": "Feature",
      "id": "node/2518515276",
      "properties": {
        "@id": "node/2518515276",
        "amenity": "bicycle_rental",
        "capacity": "12",
        "name": "Ondina",
        "network": "Bike Salvador",
        "opening_hours": "Su-Sa 06:00-22:00",
        "operator": "Bike Salvador",
        "phone": "+55 71 40627024",
        "ref": "08",
        "website": "http://www.bikesalvador.com/"
      },
      "geometry": {
        "type": "Point",
        "coordinates": [
          -38.5075513,
          -13.0112321
        ]
      }
    },
    {
      "type": "Feature",
      "id": "node/2518515277",
      "properties": {
        "@id": "node/2518515277",
        "amenity": "bicycle_rental",
        "capacity": "12",
        "name": "Parque Costa Azul",
        "network": "Bike Salvador",
        "opening_hours": "Su-Sa 06:00-22:00",
        "operator": "Bike Salvador",
        "phone": "+55 71 40627024",
        "ref": "16",
        "website": "http://www.bikesalvador.com/"
      },
      "geometry": {
        "type": "Point",
        "coordinates": [
          -38.4495752,
          -12.9967967
        ]
      }
    },
    {
      "type": "Feature",
      "id": "node/2518515278",
      "properties": {
        "@id": "node/2518515278",
        "amenity": "bicycle_rental",
        "capacity": "12",
        "name": "Bike Salvador, Estação 10",
        "network": "Bike Salvador",
        "opening_hours": "Su-Sa 06:00-22:00",
        "operator": "Bike Salvador",
        "phone": "+55 71 40627024",
        "ref": "10",
        "website": "http://www.bikesalvador.com/"
      },
      "geometry": {
        "type": "Point",
        "coordinates": [
          -38.4899605,
          -13.0103229
        ]
      }
    },
    {
      "type": "Feature",
      "id": "node/2518515279",
      "properties": {
        "@id": "node/2518515279",
        "amenity": "bicycle_rental",
        "capacity": "12",
        "name": "Pinto de Aguiar",
        "network": "Bike Salvador",
        "opening_hours": "Su-Sa 06:00-22:00",
        "operator": "Bike Salvador",
        "phone": "+55 71 40627024",
        "ref": "20",
        "website": "http://www.bikesalvador.com/"
      },
      "geometry": {
        "type": "Point",
        "coordinates": [
          -38.401463,
          -12.9575391
        ]
      }
    },
    {
      "type": "Feature",
      "id": "node/2518515280",
      "properties": {
        "@id": "node/2518515280",
        "amenity": "bicycle_rental",
        "capacity": "12",
        "name": "Praia de Patamares",
        "network": "Bike Salvador",
        "opening_hours": "Su-Sa 06:00-22:00",
        "operator": "Bike Salvador",
        "phone": "+55 71 40627024",
        "ref": "19",
        "website": "http://www.bikesalvador.com/"
      },
      "geometry": {
        "type": "Point",
        "coordinates": [
          -38.4054352,
          -12.9671741
        ]
      }
    },
    {
      "type": "Feature",
      "id": "node/2518515281",
      "properties": {
        "@id": "node/2518515281",
        "amenity": "bicycle_rental",
        "capacity": "12",
        "name": "Praça do Imbuí",
        "network": "Bike Salvador",
        "opening_hours": "Su-Sa 06:00-22:00",
        "operator": "Bike Salvador",
        "phone": "+55 71 40627024",
        "ref": "09",
        "website": "http://www.bikesalvador.com/"
      },
      "geometry": {
        "type": "Point",
        "coordinates": [
          -38.4302174,
          -12.9689931
        ]
      }
    },
    {
      "type": "Feature",
      "id": "node/2518515282",
      "properties": {
        "@id": "node/2518515282",
        "amenity": "bicycle_rental",
        "capacity": "12",
        "name": "Rua Ceará",
        "network": "Bike Salvador",
        "opening_hours": "Su-Sa 06:00-22:00",
        "operator": "Bike Salvador",
        "phone": "+55 71 40627024",
        "ref": "13",
        "website": "http://www.bikesalvador.com/"
      },
      "geometry": {
        "type": "Point",
        "coordinates": [
          -38.4626617,
          -13.0031104
        ]
      }
    },
    {
      "type": "Feature",
      "id": "node/2628975064",
      "properties": {
        "@id": "node/2628975064",
        "amenity": "bicycle_rental",
        "capacity": "12",
        "name": "Baixa do Bomfim",
        "network": "Bike Salvador",
        "opening_hours": "Su-Sa 06:00-22:00",
        "operator": "Bike Salvador",
        "phone": "+55 71 40627024",
        "ref": "29",
        "website": "http://www.bikesalvador.com/"
      },
      "geometry": {
        "type": "Point",
        "coordinates": [
          -38.5079129,
          -12.9252538
        ]
      }
    },
    {
      "type": "Feature",
      "id": "node/2628975069",
      "properties": {
        "@id": "node/2628975069",
        "amenity": "bicycle_rental",
        "capacity": "12",
        "name": "Boa Viagem",
        "network": "Bike Salvador",
        "opening_hours": "Su-Sa 06:00-22:00",
        "operator": "Bike Salvador",
        "phone": "+55 71 40627024",
        "ref": "30",
        "website": "http://www.bikesalvador.com/"
      },
      "geometry": {
        "type": "Point",
        "coordinates": [
          -38.5137539,
          -12.9316041
        ]
      }
    },
    {
      "type": "Feature",
      "id": "node/2628975075",
      "properties": {
        "@id": "node/2628975075",
        "amenity": "bicycle_rental",
        "capacity": "12",
        "name": "Jaguaribe",
        "network": "Bike Salvador",
        "opening_hours": "Su-Sa 06:00-22:00",
        "operator": "Bike Salvador",
        "phone": "+55 71 40627024",
        "ref": "23",
        "website": "http://www.bikesalvador.com/"
      },
      "geometry": {
        "type": "Point",
        "coordinates": [
          -38.3965131,
          -12.9609544
        ]
      }
    },
    {
      "type": "Feature",
      "id": "node/2628975081",
      "properties": {
        "@id": "node/2628975081",
        "amenity": "bicycle_rental",
        "capacity": "12",
        "name": "Largo de Roma",
        "network": "Bike Salvador",
        "opening_hours": "Su-Sa 06:00-22:00",
        "operator": "Bike Salvador",
        "phone": "+55 71 40627024",
        "ref": "31",
        "website": "http://www.bikesalvador.com/"
      },
      "geometry": {
        "type": "Point",
        "coordinates": [
          -38.5060085,
          -12.9369059
        ]
      }
    },
    {
      "type": "Feature",
      "id": "node/2628975088",
      "properties": {
        "@id": "node/2628975088",
        "amenity": "bicycle_rental",
        "capacity": "12",
        "name": "Placafor",
        "network": "Bike Salvador",
        "opening_hours": "Su-Sa 06:00-22:00",
        "operator": "Bike Salvador",
        "phone": "+55 71 40627024",
        "ref": "24",
        "website": "http://www.bikesalvador.com/"
      },
      "geometry": {
        "type": "Point",
        "coordinates": [
          -38.3764511,
          -12.9525364
        ]
      }
    },
    {
      "type": "Feature",
      "id": "node/2628975095",
      "properties": {
        "@id": "node/2628975095",
        "amenity": "bicycle_rental",
        "capacity": "12",
        "name": "Praça do Fórum Ruy Barbosa",
        "network": "Bike Salvador",
        "opening_hours": "Su-Sa 06:00-22:00",
        "operator": "Bike Salvador",
        "phone": "+55 71 40627024",
        "ref": "27",
        "website": "http://www.bikesalvador.com/"
      },
      "geometry": {
        "type": "Point",
        "coordinates": [
          -38.5080529,
          -12.9789317
        ]
      }
    },
    {
      "type": "Feature",
      "id": "node/2628975108",
      "properties": {
        "@id": "node/2628975108",
        "amenity": "bicycle_rental",
        "capacity": "12",
        "name": "Rua dos Colibris",
        "network": "Bike Salvador",
        "opening_hours": "Su-Sa 06:00-22:00",
        "operator": "Bike Salvador",
        "phone": "+55 71 40627024",
        "ref": "22",
        "website": "http://www.bikesalvador.com/"
      },
      "geometry": {
        "type": "Point",
        "coordinates": [
          -38.4388574,
          -12.9711029
        ]
      }
    },
    {
      "type": "Feature",
      "id": "node/2628975114",
      "properties": {
        "@id": "node/2628975114",
        "amenity": "bicycle_rental",
        "capacity": "12",
        "name": "Universidade Bahiana",
        "network": "Bike Salvador",
        "opening_hours": "Su-Sa 06:00-22:00",
        "operator": "Bike Salvador",
        "phone": "+55 71 40627024",
        "ref": "25",
        "website": "http://www.bikesalvador.com/"
      },
      "geometry": {
        "type": "Point",
        "coordinates": [
          -38.4879447,
          -12.9904798
        ]
      }
    },
    {
      "type": "Feature",
      "id": "node/2687094131",
      "properties": {
        "@id": "node/2687094131",
        "amenity": "bicycle_rental",
        "capacity": "12",
        "name": "Bahia Marina",
        "network": "Bike Salvador",
        "opening_hours": "Su-Sa 06:00-22:00",
        "operator": "Bike Salvador",
        "phone": "+55 71 40627024",
        "ref": "36",
        "website": "http://www.bikesalvador.com/"
      },
      "geometry": {
        "type": "Point",
        "coordinates": [
          -38.5187798,
          -12.9804217
        ]
      }
    },
    {
      "type": "Feature",
      "id": "node/2687094134",
      "properties": {
        "@id": "node/2687094134",
        "amenity": "bicycle_rental",
        "capacity": "14",
        "name": "Estaçao do Trem",
        "network": "Bike Salvador",
        "opening_hours": "Su-Sa 06:00-22:00",
        "operator": "Bike Salvador",
        "phone": "+55 71 40627024",
        "ref": "32",
        "website": "http://www.bikesalvador.com/"
      },
      "geometry": {
        "type": "Point",
        "coordinates": [
          -38.5007751,
          -12.9467375
        ]
      }
    },
    {
      "type": "Feature",
      "id": "node/2687094135",
      "properties": {
        "@id": "node/2687094135",
        "amenity": "bicycle_rental",
        "capacity": "12",
        "name": "Final de Linha de Brotas",
        "network": "Bike Salvador",
        "opening_hours": "Su-Sa 06:00-22:00",
        "operator": "Bike Salvador",
        "phone": "+55 71 40627024",
        "ref": "28",
        "website": "http://www.bikesalvador.com/"
      },
      "geometry": {
        "type": "Point",
        "coordinates": [
          -38.4779066,
          -12.9820578
        ]
      }
    },
    {
      "type": "Feature",
      "id": "node/2687094137",
      "properties": {
        "@id": "node/2687094137",
        "amenity": "bicycle_rental",
        "capacity": "12",
        "name": "Praça do Divina",
        "network": "Bike Salvador",
        "opening_hours": "Su-Sa 06:00-22:00",
        "operator": "Bike Salvador",
        "phone": "+55 71 40627024",
        "ref": "35",
        "website": "http://www.bikesalvador.com/"
      },
      "geometry": {
        "type": "Point",
        "coordinates": [
          -38.5065041,
          -12.921955
        ]
      }
    },
    {
      "type": "Feature",
      "id": "node/2687094138",
      "properties": {
        "@id": "node/2687094138",
        "amenity": "bicycle_rental",
        "capacity": "12",
        "name": "Solar da Boa Vista",
        "network": "Bike Salvador",
        "opening_hours": "Su-Sa 06:00-22:00",
        "operator": "Bike Salvador",
        "phone": "+55 71 40627024",
        "ref": "26",
        "website": "http://www.bikesalvador.com/"
      },
      "geometry": {
        "type": "Point",
        "coordinates": [
          -38.5010184,
          -12.9833742
        ]
      }
    },
    {
      "type": "Feature",
      "id": "node/2878161233",
      "properties": {
        "@id": "node/2878161233",
        "amenity": "bicycle_rental",
        "capacity": "12",
        "name": "Bike Salvador",
        "operator": "Bike Salvador",
        "phone": "+55 71 4003-9892"
      },
      "geometry": {
        "type": "Point",
        "coordinates": [
          -38.5079171,
          -13.01096
        ]
      }
    },
    {
      "type": "Feature",
      "id": "node/2878179410",
      "properties": {
        "@id": "node/2878179410",
        "amenity": "bicycle_rental",
        "capacity": "12",
        "name": "Largo da Ribeira",
        "network": "Bike Salvador",
        "operator": "Bike Salvador",
        "ref": "39"
      },
      "geometry": {
        "type": "Point",
        "coordinates": [
          -38.4946287,
          -12.9120411
        ]
      }
    },
    {
      "type": "Feature",
      "id": "node/3066932832",
      "properties": {
        "@id": "node/3066932832",
        "amenity": "bicycle_rental",
        "capacity": "12",
        "name": "Estação do Tainheiro",
        "network": "Bike Salvador",
        "operator": "Bike Salvador",
        "ref": "38"
      },
      "geometry": {
        "type": "Point",
        "coordinates": [
          -38.4935298,
          -12.9151479
        ]
      }
    },
    {
      "type": "Feature",
      "id": "node/3066936633",
      "properties": {
        "@id": "node/3066936633",
        "amenity": "bicycle_rental",
        "capacity": "12",
        "name": "Ferry Boat",
        "network": "Bike Salvador",
        "operator": "Bike Salvador",
        "ref": "33"
      },
      "geometry": {
        "type": "Point",
        "coordinates": [
          -38.5020807,
          -12.9549039
        ]
      }
    }
  ]
}
