{
  "type": "FeatureCollection",
  "generator": "overpass-turbo",
  "copyright": "The data included in this document is from www.openstreetmap.org. The data is made available under ODbL.",
  "timestamp": "2014-09-09T16:28:02Z",
  "features": [
    {
      "type": "Feature",
      "id": "node/2878085065",
      "properties": {
        "@id": "node/2878085065",
        "name": "CONEXÃO BIKES",
        "opening_hours": "8 AS 18 HORAS",
        "service": "repair",
        "service_1": "retail",
        "service_2": "pump",
        "shop": "bicycle"
      },
      "geometry": {
        "type": "Point",
        "coordinates": [
          -38.3666094,
          -12.9458057
        ]
      }
    },
    {
      "type": "Feature",
      "id": "node/2878087659",
      "properties": {
        "@id": "node/2878087659",
        "addr:city": "Salvador",
        "addr:housenumber": "281",
        "addr:postcode": "41253-190",
        "addr:street": "Avenida São Marcos",
        "name": "A&M Bicicletaria",
        "opening_hours": "08:00 - 18:00",
        "phone": "+55 713393 0373",
        "shop": "bicycle"
      },
      "geometry": {
        "type": "Point",
        "coordinates": [
          -38.4356871,
          -12.9286079
        ]
      }
    },
    {
      "type": "Feature",
      "id": "node/2878100473",
      "properties": {
        "@id": "node/2878100473",
        "addr:city": "Salvador",
        "addr:street": "Rua Artur de Azevedo Machado",
        "name": "Bike Aventura",
        "note": "Reparo, manutenção, conserto e venda de peças para bicicletas.",
        "service:bicycle:repair": "yes",
        "service:bicycle:retail": "yes",
        "shop": "bicycle"
      },
      "geometry": {
        "type": "Point",
        "coordinates": [
          -38.4449153,
          -12.9973234
        ]
      }
    },
    {
      "type": "Feature",
      "id": "node/2878101017",
      "properties": {
        "@id": "node/2878101017",
        "name": "Repair Bike Shop Barra",
        "shop": "bicycle"
      },
      "geometry": {
        "type": "Point",
        "coordinates": [
          -38.5261511,
          -13.0075636
        ]
      }
    },
    {
      "type": "Feature",
      "id": "node/2878107374",
      "properties": {
        "@id": "node/2878107374",
        "addr:city": "Salvador",
        "addr:housenumber": "498",
        "addr:postcode": "41830-020",
        "addr:street": "Rua Minas Gerais",
        "name": "Best Bike",
        "opening_hours": "seg-sex 09:00 às 18:00; sab 09:00-13:00",
        "service": "dealer",
        "service_1": "repair",
        "service_2": "parts",
        "shop": "bicycle"
      },
      "geometry": {
        "type": "Point",
        "coordinates": [
          -38.4612721,
          -13.0076092
        ]
      }
    },
    {
      "type": "Feature",
      "id": "node/2878108626",
      "properties": {
        "@id": "node/2878108626",
        "name": "Newworldbike",
        "opening_hours": "2ª a 6ª de 8h às 18h - Sáb. de 8h às 13h",
        "service": "retail;repair",
        "shop": "bicycle"
      },
      "geometry": {
        "type": "Point",
        "coordinates": [
          -38.4839356,
          -13.013355
        ]
      }
    },
    {
      "type": "Feature",
      "id": "node/2878112650",
      "properties": {
        "@id": "node/2878112650",
        "addr:city": "Salvador",
        "addr:postcode": "41630-700",
        "name": "CARACA BIKES",
        "opening_hours": "8 as 17 horas",
        "shop": "bicycle"
      },
      "geometry": {
        "type": "Point",
        "coordinates": [
          -38.366192,
          -12.9325928
        ]
      }
    },
    {
      "type": "Feature",
      "id": "node/2878176025",
      "properties": {
        "@id": "node/2878176025",
        "addr:street": "Campinas de Brotas",
        "name": "CICLOMOTO",
        "shop": "bicycle"
      },
      "geometry": {
        "type": "Point",
        "coordinates": [
          -38.4789816,
          -12.9880257
        ]
      }
    },
    {
      "type": "Feature",
      "id": "node/2878183570",
      "properties": {
        "@id": "node/2878183570",
        "addr:city": "Lauro de Freitas",
        "addr:housenumber": "4",
        "addr:postcode": "42700-000",
        "addr:street": "Estrada do Coco",
        "name": "Ramiro Bike Shop",
        "note": "Loja/Peças/Oficina",
        "opening_hours": "08:00-16:00",
        "shop": "bicycle"
      },
      "geometry": {
        "type": "Point",
        "coordinates": [
          -38.3127638,
          -12.8794682
        ]
      }
    },
    {
      "type": "Feature",
      "id": "node/2878218179",
      "properties": {
        "@id": "node/2878218179",
        "name": "Bikes",
        "opening_hours": "8 as 17 horas",
        "service": "pump",
        "service_1": "retail",
        "service_2": "repair",
        "shop": "bicycle"
      },
      "geometry": {
        "type": "Point",
        "coordinates": [
          -38.3650502,
          -12.9349761
        ]
      }
    },
    {
      "type": "Feature",
      "id": "node/2878262301",
      "properties": {
        "@id": "node/2878262301",
        "addr:city": "Salvador",
        "addr:street": "Avenida São Rafael",
        "name": "Cesar Bike",
        "shop": "bicycle"
      },
      "geometry": {
        "type": "Point",
        "coordinates": [
          -38.4217706,
          -12.9383506
        ]
      }
    },
    {
      "type": "Feature",
      "id": "node/3044719033",
      "properties": {
        "@id": "node/3044719033",
        "addr:city": "Salvador",
        "addr:street": "Praça General Inocêncio Galvão",
        "addr:suburb": "Centro",
        "name": "ErvaCiclo",
        "shop": "bicycle"
      },
      "geometry": {
        "type": "Point",
        "coordinates": [
          -38.5168053,
          -12.9825833
        ]
      }
    },
    {
      "type": "Feature",
      "id": "node/3045971158",
      "properties": {
        "@id": "node/3045971158",
        "addr:city": "Salvador",
        "addr:housenumber": "60",
        "addr:postcode": "41710-000",
        "addr:street": "Estrada Professor Pinto de Aguiar",
        "addr:suburb": "Boca do Rio",
        "name": "A&M BICICLETARIA",
        "shop": "bicycle"
      },
      "geometry": {
        "type": "Point",
        "coordinates": [
          -38.4318986,
          -12.975152
        ]
      }
    },
    {
      "type": "Feature",
      "id": "node/3045973988",
      "properties": {
        "@id": "node/3045973988",
        "addr:city": "Salvador",
        "addr:housenumber": "72",
        "addr:street": "Rua Simões Filho",
        "addr:suburb": "Boca do Rio",
        "name": "Pro Bike",
        "shop": "bicycle"
      },
      "geometry": {
        "type": "Point",
        "coordinates": [
          -38.4324538,
          -12.9799498
        ]
      }
    },
    {
      "type": "Feature",
      "id": "node/3045975500",
      "properties": {
        "@id": "node/3045975500",
        "addr:city": "Salvador",
        "addr:housenumber": "13",
        "addr:street": "Rua Simões Filho",
        "addr:suburb": "Boca do Rio",
        "name": "Alan Bikes",
        "shop": "bicycle"
      },
      "geometry": {
        "type": "Point",
        "coordinates": [
          -38.4302329,
          -12.9780679
        ]
      }
    }
  ]
}
